 2010  3 4 1638 48.3 L  35.747  49.006 15.0  INS  7 0.6 3.3LINS                1
 GAP=100        1.46       4.7     3.7  7.6  0.1259E+01 -0.6772E+01  0.8300E+00E
 2010-03-04-1638-00S.BIN__063                                                  6
 ACTION:NEW 10-04-24 13:22 OP:moh  STATUS:               ID:20100304163849 L   I
 STAT SP IPHASW D HRMM SECON CODA AMPLIT PERI AZIMU VELO AIN AR TRES W  DIS CAZ7
 ZNJK BZ EPg      1639  6.78                              91    0.3110  106 344 
 ASAO BZ EPg      1639 14.43                              90   -0.9010  162 145 
 SNGE BZ EPg      1639 16.27                              90    0.1810  167 245 
 SNGE BZ ESg      1639 36.39                              90    0.0210  167 245 
 CHTH BZ EPg      1639 19.35                              90   -0.7710  192  84 
 CHTH BZ  IAML    1639 43.39       354.9 0.28                           192  84 
 KHMZ BZ EPN5     1639 25.51                              52   -0.3310  239 158 
 KHMZ BZ  IAML    1639 59.96       632.8 0.48                           239 158 
 GHVR BZ EPn      1639 27.36                              52    0.6110  248 124 
 GHVR BE ESg      1639 59.21                              90    0.8710  248 124 
 GHVR BZ  IAML    1640  7.60       310.2 0.64                           248 124 
 DAMV BZ EPn      1639 29.56                              52    0.0310  269  92 
 DAMV BZ  IAML    1640 10.59       414.3 0.48                           269  92 
                                                                                
 2010  3 6 0115 51.9 L  32.236  61.120 17.1F INS  3 0.0 2.8LINS                1
 GAP=213        0.27       1.3     5.7  0.0  0.5153E+01 -0.6772E+01  0.8300E+00E
 2010-03-06-0115-54S.BIN__063                                                  6
 ACTION:NEW 10-04-24 13:22 OP:moh  STATUS:               ID:20100306011551 L   I
 STAT SP IPHASW D HRMM SECON CODA AMPLIT PERI AZIMU VELO AIN AR TRES W  DIS CAZ7
 SHRT BZ EPg       116 20.80                              91    0.0110  175 334 
 SHRT BN ESg       116 41.83                              91   -0.0110  175 334 
 SHRT BZ  IAML     116 44.44       580.3 0.28                           175 334 
 ZHSF BZ EPn       116 35.86                              52   -0.0110  293 187 
 ZHSF BZ  IAML     117 21.80        64.5 0.46                           293 187 
 KRBR BZ EPn       116 59.88                              52    0.01 8  485 240 
 KRBR BZ  IAML     118  5.45        15.8 0.28                           485 240 
                                                                                
 2010  3 8 1639 35.4 L  30.309  57.700 15.0F INS  5 0.5 3.3LINS                1
 GAP=103        1.10       5.6     4.1  0.0  0.1191E-01 -0.6772E+01  0.8300E+00E
 ACTION:UPD 10-04-24 13:22 OP:moh  STATUS:               ID:20100308163935 L   I
 2010-03-08-1639-00S.BIN__069                                                  6
 STAT SP IPHASW D HRMM SECON CODA AMPLIT PERI AZIMU VELO AIN AR TRES W  DIS CAZ7
 KRBR BZ EPg      1639 51.37                              91   -0.8010 97.5 248 
 ZHSF BZ EPn      1640 21.25                              52    0.1110  306 104 
 ZHSF BN ESg      1641  1.15                              90   -0.3310  306 104 
 ZHSF BZ  IAML    1641  8.87       281.9 0.60                           306 104 
 BNDS BZ EPn      1640 28.20                              52    0.94 9  355 205 
 TABS BZ EPn      1640 29.89                              52    0.31 9  374 352 
 TABS BZ  IAML    1641 29.36       510.6 0.52                           374 352 
 SHRT BZ EPn      1640 38.09                              52   -0.06 9  444  33 
 SHRT BZ  IAML    1641 56.93        74.0 0.68                           444  33 
                                                                                
 2010  3 8 1751 22.1 L  32.391  55.599 14.2F INS  4 0.4 3.0LINS                1
 GAP=123        0.87       5.3     3.4  0.0  0.1926E+01 -0.6772E+01  0.8300E+00E
 ACTION:UPD 10-04-24 13:22 OP:moh  STATUS:               ID:20100308175121 L   I
 2010-03-08-1751-00S.BIN__069                                                  6
 STAT SP IPHASW D HRMM SECON CODA AMPLIT PERI AZIMU VELO AIN AR TRES W  DIS CAZ7
 TABS BZ EPg      1751 54.81                              90   -0.0710  199  45 
 NASN BZ EPn      1752  3.87                              52    0.7910  266 281 
 NASN BN ESg      1752 37.03                              90   -0.3110  266 281 
 NASN BZ  IAML    1752 40.61       161.4 0.46                           266 281 
 KRBR BZ EPn      1752  5.81                              52   -0.1710  289 157 
 KRBR BZ  IAML    1752 43.56       170.5 0.72                           289 157 
 ASAO BN EPn      1752 40.50                              52   -0.41 8  571 296 
                                                                                
 2010  3 8 2254 30.6 L  33.925  57.183 14.1  INS  4 0.1 2.4LINS                1
 GAP=201        0.41       2.9     2.1  4.8  0.1736E+01 -0.4769E+01 -0.9352E+01E
 ACTION:UPD 10-04-24 13:22 OP:moh  STATUS:               ID:20100308225430 L   I
 2010-03-08-2254-00S.BIN__069                                                  6
 STAT SP IPHASW D HRMM SECON CODA AMPLIT PERI AZIMU VELO AIN AR TRES W  DIS CAZ7
 TABS BZ EPg      2254 36.63                             100   -0.0610 31.1 191 
 SHRT BZ EPn      2255 14.18                              52   -0.0910  289  95 
 SHRT BZ  IAML    2255 59.55        27.3 0.35                           289  95 
 NASN BZ EPn      2255 31.35                              52   -0.06 9  426 254 
 NASN BN ESg      2256 29.72                              90    0.00 9  426 254 
 KRBR BZ EPn      2255 33.36                              52    0.29 9  439 185 
 KRBR BN ESg      2256 33.30                              90   -0.05 9  439 185 
 KRBR BZ  IAML    2256 43.56        27.4 0.64                           439 185 
                                                                                
 2010  3 8 2257 19.6 L  33.545  57.001 15.0F INS  3 1.7 2.8LINS                1
 GAP=144        3.33      21.9    17.9  0.0 -0.2719E+03 -0.4769E+01 -0.9352E+01E
 ACTION:UPD 10-04-24 13:22 OP:moh  STATUS:               ID:20100308225712 L   I
 2010-03-08-2257-00S.BIN__069                                                  6
 STAT SP IPHASW D HRMM SECON CODA AMPLIT PERI AZIMU VELO AIN AR TRES W  DIS CAZ7
 TABS BZ EPg      2257 21.61                             129   -2.0210 15.9  44 
 TABS BN ESg      2257 28.40                             129    1.8710 15.9  44 
 KRBR BZ EPn      2258 17.56                              52    0.89 9  396 183 
 KRBR BZ  IAML    2259 29.30       118.5 0.48                           396 183 
 NASN BZ EPn      2258 15.00                              52   -2.14 9  400 259 
 NASN BN ESg      2259 13.03                              90    1.43 9  400 259 
 NASN BZ  IAML    2259 18.08        29.0 0.64                           400 259 
                                                                                
 2010  3 9 0322 15.3 L  36.357  51.806  6.1  INS  6 0.3 3.5LINS                1
 GAP=251        0.74       5.0     7.4  7.0  0.1601E+02 -0.6402E+01 -0.2345E+02E
 ACTION:UPD 10-04-24 13:22 OP:moh  STATUS:               ID:20100309032214 L   I
 2010-03-09-0322-00S.BIN__069                                                  6
 STAT SP IPHASW D HRMM SECON CODA AMPLIT PERI AZIMU VELO AIN AR TRES W  DIS CAZ7
 CHTH BZ EPg       322 29.55                              90    0.2610 78.9 231 
 DAMV BZ EPg       322 29.57                              90   -0.2310 82.0 169 
 GHVR BZ EPN5      322 51.04                              47    0.4710  214 194 
 GHVR BN ESg       323 18.82                              90   -0.2110  214 194 
 GHVR BZ  IAML     323 22.32       559.2 0.68                           214 194 
 ASAO BZ EPn       322 56.25                              47    0.1210  258 219 
 ASAO BZ  IAML     323 32.41       553.6 0.52                           258 219 
 ZNJK BZ EPn       322 58.79                              47   -0.3210  282 278 
 ZNJK BZ  IAML     323 39.99       793.8 0.48                           282 278 
 SNGE BZ EPn       323 16.99                              47   -0.14 9  427 252 
                                                                                
 2010  310 0236 19.8 L  37.875  47.152 14.1  INS  4 0.1 2.7LINS                1
 GAP=131        0.47       3.7    11.8 16.3  0.3850E+02  0.1836E+03  0.5017E+02E
 ACTION:UPD 10-04-24 13:22 OP:moh  STATUS:               ID:20100310023619 L   I
 2010-03-10-0236-00S.BIN__069                                                  6
 STAT SP IPHASW D HRMM SECON CODA AMPLIT PERI AZIMU VELO AIN AR TRES W  DIS CAZ7
 GRMI BZ EPg       236 40.53                              90    0.1310  122  32 
 ZNJK BZ EPg       236 51.22                              90   -0.1410  191 134 
 ZNJK BE ESg       237 14.34                              90   -0.0310  191 134 
 ZNJK BZ  IAML     237 20.75       213.9 0.18                           191 134 
 MAKU BZ EPn       237  1.11                              52   -0.1710  270 308 
 MAKU BZ  IAML     237 36.96        75.8 0.34                           270 308 
 SNGE BZ EPn       237  6.34                              52    0.2210  309 177 
 SNGE BZ  IAML     237 49.03        65.9 0.29                           309 177 
                                                                                
 2010  311 1831  7.5 L  30.754  49.769 41.2  INS  7 0.4 2.6LINS                1
 GAP=198        0.88       6.9     9.0 10.2  0.3682E+02 -0.4116E+02  0.1328E+02E
 ACTION:UPD 10-04-24 13:22 OP:moh  STATUS:               ID:20100311183107 L   I
 2010-03-11-1831-00S.BIN__069                                                  6
 STAT SP IPHASW D HRMM SECON CODA AMPLIT PERI AZIMU VELO AIN AR TRES W  DIS CAZ7
 SHGR BZ EPN5     1831 34.58                              54    0.0510  176 329 
 SHGR BN ESg      1831 57.27                             100   -0.0010  176 329 
 SHGR BZ  IAML    1831 59.37       274.6 0.92                           176 329 
 KHMZ BZ EPn      1831 53.70                              54   -0.40 9  332   3 
 NASN BZ EPn      1831 58.30                              54   -0.18 9  366  51 
 GHIR BN EPn      1832  4.38                              54    0.06 9  415 130 
 ASAO BZ EPn      1832  6.18                              54    0.89 9  421   3 
 ASAO BZ  IAML    1833 14.22        22.8 0.72                           421   3 
 GHVR BZ EPn      1832  6.87                              54   -0.03 9  436  18 
 SNGE BZ EPn      1832 18.59                              54   -0.38 8  532 335 
 SNGE BZ  IAML    1833 30.93        10.7 0.48                           532 335 
                                                                                
 2010  314 0537  1.0 L  26.313  54.607 14.1  INS  3 0.0 2.7LINS                1
 GAP=272        0.34       9.3     5.1  7.8 -0.3347E+02  0.3391E+02 -0.3182E+02E
 ACTION:UPD 10-04-24 13:22 OP:moh  STATUS:               ID:20100314053700 L   I
 2010-03-14-0537-00S.BIN__069                                                  6
 STAT SP IPHASW D HRMM SECON CODA AMPLIT PERI AZIMU VELO AIN AR TRES W  DIS CAZ7
 BNDS BZ EPg       537 33.34                              90   -0.0110  197  52 
 BNDS BN ESg       537 56.99                              90   -0.0010  197  52 
 GHIR BZ EPn       537 42.40                              52   -0.0110  271 324 
 GHIR BZ  IAML     538 24.63        95.0 0.62                           271 324 
 KRBR BZ EPn       538  5.87                              52    0.02 8  458  27 
 KRBR BZ  IAML     539  0.63        25.6 0.40                           458  27 
                                                                                
 2010  314 0853 55.9 L  27.468  58.288 27.6  INS  4 0.1 2.7LINS                1
 GAP=161        0.37       3.8     3.6  7.4  0.9368E+01 -0.2388E+02 -0.1857E+02E
 2010-03-14-0854-11S.BIN__063                                                  6
 ACTION:NEW 10-04-24 13:22 OP:moh  STATUS:               ID:20100314085355 L   I
 STAT SP IPHASW D HRMM SECON CODA AMPLIT PERI AZIMU VELO AIN AR TRES W  DIS CAZ7
 BNDS BZ EPg       854 29.77                              93    0.1010  209 268 
 BNDS BN ESg       854 54.22                              93   -0.1010  209 268 
 BNDS BZ  IAML     854 58.75       176.8 0.30                           209 268 
 CHBR BZ EP        854 39.67                              54   -0.0410  301 133 
 KRBR BZ EPn       854 41.83                              54   -0.0510  316 332 
 GHIR BZ EPn       855  8.36                              54    0.12 8  530 281 
 GHIR BZ  IAML     856  1.83        21.3 0.51                           530 281 
                                                                                
 2010  314 1201 35.7 L  29.774  51.387 15.3  INS  4 0.2 3.2LINS                1
 GAP=181        0.51       3.4     3.5  9.7 -0.1136E+01  0.1951E+02 -0.2369E+02E
 2010-03-14-1200-07S.BIN__063                                                  6
 ACTION:NEW 10-04-24 13:22 OP:moh  STATUS:               ID:20100314120136 L   I
 STAT SP IPHASW D HRMM SECON CODA AMPLIT PERI AZIMU VELO AIN AR TRES W  DIS CAZ7
 GHIR BZ EPg      12 2 12.79                              90   -0.0710  227 136 
 GHIR BN ESg      12 2 39.97                              90   -0.0310  227 136 
 GHIR BZ  IAML    12 2 51.58       569.1 0.46                           227 136 
 SHGR BZ EPn      12 2 27.86                              52    0.20 9  358 317 
 NASN BZ EPn      12 2 28.11                              52   -0.33 9  362  22 
 KRBR BZ EPn      12 2 48.24                              52    0.17 8  520  86 
 KRBR BZ  IAML    12 3 47.29        43.8 1.12                           520  86 
 KRBR BN ESg      12 4  0.75                              90    0.16 8  520  86 
                                                                                
 2010  314 1238 15.4 L  28.148  52.012 23.7  INS  5 0.1 2.9LINS                1
 GAP=268        0.31       3.9     4.2  4.7  0.8084E+01  0.1618E+02  0.5335E+01E
 2010-03-14-1238-22S.BIN__063                                                  6
 ACTION:NEW 10-04-24 13:22 OP:moh  STATUS:               ID:20100314123815 L   I
 STAT SP IPHASW D HRMM SECON CODA AMPLIT PERI AZIMU VELO AIN AR TRES W  DIS CAZ7
 GHIR BZ EPg      1238 31.84                              96   -0.0110 96.9  81 
 GHIR BE ESg      1238 43.85                              96    0.0110 96.9  81 
 GHIR BZ  IAML    1238 53.23       734.2 0.88                          96.9  81 
 BNDS BZ EPn      1239 14.33                              54    0.03 9  418 100 
 BNDS BZ  IAML    1240 14.02        50.6 0.44                           418 100 
 KRBR BZ EPn      1239 25.13                              54   -0.10 8  505  65 
 NASN BZ EPn      1239 27.21                              54   -0.01 8  521   8 
 TABS BZ EPn      1239 59.44                              54    0.13 6  781  37 
                                                                                
 2010  314 1253 19.9 L  36.177  45.442 14.1  INS  5 0.2 2.8LINS                1
 GAP=272        0.57       3.1     6.9  8.3 -0.4837E+01  0.4455E+02 -0.1150E+02E
 2010-03-14-1252-47S.BIN__063                                                  6
 ACTION:NEW 10-04-24 13:22 OP:moh  STATUS:               ID:20100314125320 L   I
 STAT SP IPHASW D HRMM SECON CODA AMPLIT PERI AZIMU VELO AIN AR TRES W  DIS CAZ7
 SNGE BZ EPg      1253 54.22                              90   -0.2910  210 124 
 SNGE BN ESg      1254 19.80                              90    0.0110  210 124 
 SNGE BZ  IAML    1254 25.15       626.5 0.52                           210 124 
 ZNJK BZ EPn      1254  4.47                              52   -0.0910  296  78 
 ZNJK BE ESg      1254 43.39                              90    0.0710  296  78 
 ZNJK BZ  IAML    1254 48.29        46.6 0.44                           296  78 
 GRMI BZ EPn      1254 12.72                              52   -0.13 9  364  36 
 ASAO BZ EPn      1254 24.66                              52    0.46 8  454 112 
 ASAO BZ  IAML    1255 41.15        24.2 0.56                           454 112 
 KHMZ BZ EPn      1254 29.21                              52    0.13 8  494 122 
                                                                                
 2010  314 1550 58.9 L  26.212  55.368 14.2  INS  3 0.1 2.7LINS                1
 GAP=284        0.37       5.2     1.6  5.8 -0.1375E+01 -0.3806E-02  0.2303E+02E
 2010-03-14-1550-43S.BIN__063                                                  6
 ACTION:NEW 10-04-24 13:22 OP:moh  STATUS:               ID:20100314155059 L   I
 STAT SP IPHASW D HRMM SECON CODA AMPLIT PERI AZIMU VELO AIN AR TRES W  DIS CAZ7
 BNDS BZ EPg      1551 24.43                              90   -0.1110  154  31 
 BNDS BN ESg      1551 43.33                              90    0.0810  154  31 
 BNDS BZ  IAML    1551 47.91       330.9 0.40                           154  31 
 GHIR BZ EPn      1551 47.72                              52    0.13 9  329 315 
 GHIR BE ESg      1552 31.30                              90   -0.05 9  329 315 
 KRBR BZ EPn      1552  1.46                              52   -0.04 9  440  18 
 KRBR BZ  IAML    1552 54.58        19.4 0.44                           440  18 
                                                                                
 2010  315 2003  6.8 L  28.344  51.318 35.0  INS  4 0.1 2.7LINS                1
 GAP=258        0.40      10.3     6.0  8.0  0.3654E+02  0.1290E+02 -0.4360E+02E
 ACTION:UPD 10-04-24 13:22 OP:moh  STATUS:               ID:20100315200308 L   I
 2010-03-15-2003-00S.BIN__069                                                  6
 STAT SP IPHASW D HRMM SECON CODA AMPLIT PERI AZIMU VELO AIN AR TRES W  DIS CAZ7
 GHIR BZ EPg      20 3 33.59                              98   -0.0610  164  92 
 GHIR BE ESg      20 3 53.30                              98    0.0510  164  92 
 GHIR BZ  IAML    20 3 54.75       963.0 0.52                           164  92 
 NASN BZ EPn      20 4 16.51                              54   -0.18 8  514  16 
 NASN BZ  IAML    20 5  6.88        12.9 0.48                           514  16 
 KRBR BZ EPn      20 4 22.39                              54    0.02 8  560  70 
 KRBR BZ  IAML    20 5 21.46        27.2 0.36                           560  70 
 ASAO BZ EPn      20 4 39.85                              54    0.25 7  699 350 
 ASAO BZ  IAML    20 5 53.53         5.8 0.56                           699 350 
                                                                                
 2010  316 1839 15.6 L  27.977  53.296 14.1  INS  3 0.3 2.8LINS                1
 GAP=216        0.66      10.3     6.8  6.8  0.6600E+02 -0.2380E+01  0.5476E+01E
 ACTION:UPD 10-04-24 13:22 OP:moh  STATUS:               ID:20100316183915 L   I
 2010-03-19-1839-00S.BIN__069                                                  6
 STAT SP IPHASW D HRMM SECON CODA AMPLIT PERI AZIMU VELO AIN AR TRES W  DIS CAZ7
 GHIR BZ EPg      1839 24.01                              91   -0.0210 45.7 318 
 GHIR BE ESg      1839 30.03                              91   -0.1510 45.7 318 
 GHIR BZ  IAML    1839 41.83      1004.9 0.58                          45.7 318 
 BNDS BZ EPn      1839 59.74                              52    0.2010  291 102 
 BNDS BE ESg      1840 37.17                              90   -0.3410  291 102 
 BNDS BZ  IAML    1840 53.27        84.1 0.59                           291 102 
 KRBR BZ EPn      1840 14.16                              52    0.39 9  404  56 
 KRBR BZ  IAML    1841  1.87        44.6 0.43                           404  56 
                                                                                
