 2010  211 1629 40.8 L  33.318  47.132 14.9  INS  9 0.4 4.0LINS                1
 GAP=236        1.05       6.5    12.2  8.4  0.6727E+02 -0.7640E+02 -0.4089E+02E
 2010-02-11-1629-53S.BIN__063                                                  6
 ACTION:NEW 10-04-24 13:22 OP:moh  STATUS:               ID:20100211162942 L   I
 STAT SP IPHASW D HRMM SECON CODA AMPLIT PERI AZIMU VELO AIN AR TRES W  DIS CAZ7
 SNGE BZ EPg      1630 13.71                              90    0.2710  198   6 
 SNGE BZ  IAML    1630 40.65      4040.5 0.44                           198   6 
 SHGR BZ EPg      1630 14.70                              90    0.1310  206 130 
 SHGR BN ESg      1630 39.36                              90    0.1310  206 130 
 SHGR BZ  IAML    1630 48.13      2749.0 0.60                           206 130 
 KHMZ BZ EPn      1630 21.57                              52   -0.2310  267  79 
 KHMZ BN  Sn      1630 52.11                              52    0.3810  267  79 
 KHMZ BZ  IAML    1631  1.25      1335.9 0.64                           267  79 
 ASAO BZ EPn      1630 25.86                              52   -0.0810  300  62 
 ZNJK BZ EPn      1630 38.55                              52    0.46 9  398  20 
 ZNJK BZ EPg      1630 45.08                              90   -0.17 9  398  20 
 GHVR BZ EPn      1630 38.31                              52   -0.05 9  402  70 
 GHVR BZ  IAML    1631 41.55       664.1 0.56                           402  70 
 CHTH BZ EPn      1630 45.36                              52   -1.12 8  465  51 
 CHTH BN  Sn      1631 34.67                              52    0.24 8  465  51 
 DAMV BZ EPn      1630 51.66                              52   -0.74 8  513  59 
 GRMI BZ EPn      1631  5.26                              52    0.58 7  613   6 
                                                                                
 2010  211 1940 52.2 L  28.132  51.532 29.0  INS  4 0.0 2.9LINS                1
 GAP=266        0.31       8.5     3.9  5.8  0.1261E+02  0.1206E+02 -0.2037E+02E
 ACTION:UPD 10-04-24 13:22 OP:moh  STATUS:               ID:20100211194052 L   I
 2010-02-11-1940-30S.BIN__069                                                  6
 STAT SP IPHASW D HRMM SECON CODA AMPLIT PERI AZIMU VELO AIN AR TRES W  DIS CAZ7
 GHIR BZ EPg      1941 15.89                              96   -0.0110  144  83 
 GHIR BN ESg      1941 33.20                              96    0.0110  144  83 
 GHIR BZ  IAML    1941 40.17       739.8 0.52                           144  83 
 KRBR BZ EPn      1942  6.99                              54    0.02 8  549  67 
 KRBR BZ  IAML    1943  9.25        16.8 0.52                           549  67 
 ASAO BZ EPn      1942 28.92                              54    0.02 6  726 349 
 TABS BZ EPn      1942 39.39                              54   -0.06 6  812  40 
                                                                                
 2010  211 2107 52.6 L  30.928  50.111 15.7  INS  7 0.1 3.5LINS                1
 GAP=181        0.34       2.8     4.9  7.1  0.9088E+01 -0.2894E+02 -0.8271E+01E
 2010-02-11-2105-49S.BIN__063                                                  6
 ACTION:NEW 10-04-24 13:22 OP:moh  STATUS:               ID:20100211210752 L   I
 STAT SP IPHASW D HRMM SECON CODA AMPLIT PERI AZIMU VELO AIN AR TRES W  DIS CAZ7
 SHGR BZ EPg      21 8 22.31                              91    0.0010  181 317 
 SHGR BZ  IAML    21 8 52.98      2460.0 0.88                           181 317 
 KHMZ BZ EPn      21 8 39.10                              52    0.0210  312 357 
 KHMZ BZ  IAML    21 9 33.09       251.9 0.80                           312 357 
 NASN BZ EPn      21 8 41.36                              52    0.13 9  329  50 
 ASAO BZ EPn      21 8 50.15                              52   -0.07 9  402 359 
 GHIR BZ EPn      21 8 50.47                              52    0.06 9  404 136 
 GHIR BZ  IAML    2110  7.85       228.1 0.48                           404 136 
 KRBR BZ EPn      21 9 20.58                              52   -0.19 7  647  98 
 TABS BZ EPn      21 9 30.25                              52   -0.08 6  726  64 
                                                                                
 2010  212 0829 17.1 L  30.521  49.899 41.9  INS  5 0.1 3.6LINS                1
 GAP=283        0.43       7.9     6.7  5.9  0.3151E+02 -0.2103E+02  0.9464E+01E
 2010-02-12-0829-31S.BIN__063                                                  6
 ACTION:NEW 10-04-24 13:22 OP:moh  STATUS:               ID:20100212082917 L   I
 STAT SP IPHASW D HRMM SECON CODA AMPLIT PERI AZIMU VELO AIN AR TRES W  DIS CAZ7
 SHGR BZ EPg       829 50.12                              98   -0.0710  205 330 
 SHGR BE ESg       830 14.42                              98    0.0610  205 330 
 SHGR BZ  IAML     830 22.04      2207.2 0.79                           205 330 
 KHMZ BZ EPn       830  6.69                              54   -0.05 9  357   1 
 NASN BZ EPn       830  9.05                              54    0.13 9  374  47 
 ASAO BZ EPn       830 17.68                              54   -0.25 9  447   1 
 SNGE BZ EPn       830 32.23                              54    0.21 8  560 335 
 SNGE BZ  IAML     831  0.67        89.1 0.70                           560 335 
                                                                                
 2010  214 0326 47.2 L  30.577  49.905 43.3  INS  6 0.0 3.7LINS                1
 GAP=281        0.29       5.2     4.3  3.8  0.1284E+02 -0.9732E+01  0.3278E+01E
 2010-02-14-0327-00S.BIN__063                                                  6
 ACTION:NEW 10-04-24 13:22 OP:moh  STATUS:               ID:20100214032647 L   I
 STAT SP IPHASW D HRMM SECON CODA AMPLIT PERI AZIMU VELO AIN AR TRES W  DIS CAZ7
 SHGR BZ EPg       327 19.59                              99   -0.0110  200 329 
 SHGR BN ESg       327 43.25                              99    0.0110  200 329 
 SHGR BZ  IAML     327 51.18      3000.7 0.17                           200 329 
 KHMZ BZ EPn       327 36.04                              54    0.04 9  351   1 
 KHMZ BZ  IAML     328 31.19       360.8 1.86                           351   1 
 NASN BZ EPn       327 38.40                              54    0.03 9  369  47 
 ASAO BZ EPn       327 47.10                              54   -0.08 9  441   1 
 ASAO BZ  IAML     328 55.13       306.9 0.28                           441   1 
 GHVR BZ EPn       327 48.25                              54   -0.03 9  451  16 
 SNGE BZ EPn       328  1.40                              54    0.03 8  555 335 
 SNGE BZ  IAML     328 29.79       130.4 0.33                           555 335 
                                                                                
 2010  215 0918 29.5 L  28.627  54.958 16.6  INS  8 0.1 3.3LINS                1
 GAP=121        0.28       1.7     1.3  3.0 -0.1066E-01  0.2046E+00 -0.2947E+01E
 2010-02-15-0918-40S.BIN__063                                                  6
 ACTION:NEW 10-04-24 13:22 OP:moh  STATUS:               ID:20100215091829 L   I
 STAT SP IPHASW D HRMM SECON CODA AMPLIT PERI AZIMU VELO AIN AR TRES W  DIS CAZ7
 BNDS BZ EPg       918 59.43                              91   -0.0110  181 138 
 BNDS BZ  IAML     919 33.27       388.2 0.25                           181 138 
 GHIR BZ EPg       919  1.94                              91    0.0110  197 259 
 GHIR BZ  IAML     919 41.77       544.2 0.29                           197 259 
 KRBR BZ EPg       919  7.43                              91    0.0010  231  49 
 KRBR BZ  IAML     919 40.95       757.4 0.64                           231  49 
 NASN BZ EPn       919 40.12                              52    0.01 8  506 337 
 ZHSF BZ EPn       919 48.65                              52    0.03 8  576  78 
 TABS BZ EPn       919 50.76                              52   -0.03 7  594  20 
 ASAO BZ EPn       920 17.18                              52   -0.15 6  806 326 
 DAMV BZ EPn       920 19.95                              52    0.12 6  826 341 
                                                                                
 2010  215 1039 25.9 L  31.061  50.029 14.1  INS  5 0.1 2.7LINS                1
 GAP=262        0.38       3.4     3.8  5.6 -0.4549E+01 -0.1302E+02  0.1277E+02E
 2010-02-15-1039-06S.BIN__060                                                  6
 ACTION:NEW 10-04-24 13:22 OP:moh  STATUS:               ID:20100215103925 L   I
 STAT SP IPHASW D HRMM SECON CODA AMPLIT PERI AZIMU VELO AIN AR TRES W  DIS CAZ7
 SHGR BZ EPg      1039 53.04                              90   -0.0610  165 315 
 SHGR BZ  IAML    1040 16.26       336.1 0.41                           165 315 
 KHMZ BZ EPn      1040 10.84                              52    0.1210  297 359 
 KHMZ BE ESg      1040 49.64                              90   -0.0210  297 359 
 KHMZ BZ  IAML    1040 52.52        29.1 0.65                           297 359 
 NASN BZ EPn      1040 14.21                              52   -0.14 9  326  53 
 ASAO BZ EPn      1040 22.04                              52    0.16 9  387 360 
 SNGE BZ EPn      1040 37.40                              52   -0.06 8  512 331 
                                                                                
 2010  216 0818 38.0 L  28.312  56.223 14.7  INS  5 5.3 3.0LINS                1
 GAP=297       11.57     127.0   221.3198.3  0.4479E+04 -0.1084E+03  0.1968E+05E
 ACTION:UPD 10-04-24 13:22 OP:moh  STATUS:               ID:20100216081859 L   I
 2010-02-16-0819-00S.BIN__069                                                  6
 STAT SP IPHASW D HRMM SECON CODA AMPLIT PERI AZIMU VELO AIN AR TRES W  DIS CAZ7
 BNDS BZ EPn       819 42.21                              47            101 183 
 BNDS BZ  IAML     820 21.13       116.9 0.56                           101 183 
 KRBR BZ EPg       819 13.81                              90    3.9310  192  16 
 KRBR BN ESg       819 24.43                              90   -8.6910  192  16 
 KRBR BZ  IAML     819 24.87      1608.4 0.27                           192  16 
 ZHSF BZ EPn       819 47.80                              52    4.14 8  466  71 
 TABS BZ EPN5      820  3.95                              52    3.93 7  598   8 
 TABS BZ  IAML     821 20.12        26.6 0.51                           598   8 
 SHRT BZ EPN5      820 12.83                              52   -0.77 7  708  32 
                                                                                
 2010  218 2108 10.8 L  30.742  50.242 14.2F INS  9 0.3 3.8LINS                1
 GAP=183        0.54       3.4     4.3  0.0  0.9222E+01 -0.1084E+03  0.1968E+05E
 ACTION:UPD 10-04-24 13:22 OP:moh  STATUS:               ID:20100218210811 L   I
 2010-02-18-2108-29S.BIN__060                                                  6
 STAT SP IPHASW D HRMM SECON CODA AMPLIT PERI AZIMU VELO AIN AR TRES W  DIS CAZ7
 SHGR BZ EPg      21 8 44.15                              90   -0.1010  204 318 
 SHGR BZ  IAML    21 9 16.52      2247.2 0.60                           204 318 
 NASN BZ EPn      21 9  0.26                              52    0.15 9  333  46 
 GHIR BZ EPn      21 9  5.98                              52    0.16 9  381 135 
 GHIR BZ  IAML    2110 15.31      1448.2 0.52                           381 135 
 ASAO BZ EPn      21 9 11.41                              52    0.24 9  423 357 
 GHVR BZ EPn      21 9 11.66                              52    0.35 9  425  13 
 GHVR BZ  IAML    2110  6.15       169.9 0.72                           425  13 
 DAMV BZ EPn      21 9 28.35                              52   -0.61 8  566  16 
 KRBR BZ EPn      21 9 37.11                              52   -0.14 7  632  96 
 KRBR BZ  IAML    2110 45.91       265.5 0.48                           632  96 
 BNDS BZ EPn      21 9 43.58                              52   -0.18 7  686 121 
 BNDS BZ  IAML    2110 55.47       261.6 0.60                           686 121 
 TABS BZ EPn      21 9 48.23                              52   -0.23 6  724  62 
                                                                                
 2010  219 0431 14.0 L  28.426  52.214 39.0  INS  4 0.0 2.8LINS                1
 GAP=261        0.32       2.6     3.2  3.0 -0.5984E+00  0.5458E+01 -0.2177E+01E
 ACTION:UPD 10-04-24 13:22 OP:moh  STATUS:               ID:20100219043114 L   I
 2010-02-19-0430-00S.BIN__069                                                  6
 STAT SP IPHASW D HRMM SECON CODA AMPLIT PERI AZIMU VELO AIN AR TRES W  DIS CAZ7
 GHIR BZ EPg       431 28.08                             113   -0.0110 77.4 101 
 GHIR BZ  IAML     431 47.23      1328.4 0.40                          77.4 101 
 BNDS BZ EPn       432  9.96                              54    0.04 9  406 105 
 BNDS BZ  IAML     433 24.21        36.9 0.52                           406 105 
 KRBR BZ EPN5      432 18.53                              54   -0.07 8  475  68 
 KRBR BE ESg       433 23.23                              93    0.02 8  475  68 
 KRBR BZ  IAML     433 33.58        21.9 0.64                           475  68 
 NASN BZ EPn       432 20.29                              54    0.02 8  488   7 
                                                                                
 2010  219 1012 19.1 L  27.421  53.744 36.8  INS  4 0.2 3.0LINS                1
 GAP=232        0.53       9.1     5.2  4.3  0.4503E+02 -0.6250E+01 -0.8861E+01E
 2010-02-19-1012-34S.BIN__063                                                  6
 ACTION:NEW 10-04-24 13:22 OP:moh  STATUS:               ID:20100219101220 L   I
 STAT SP IPHASW D HRMM SECON CODA AMPLIT PERI AZIMU VELO AIN AR TRES W  DIS CAZ7
 GHIR BZ EPg      1012 39.88                             103    0.2710  121 322 
 GHIR BN ESg      1012 54.41                             103   -0.1510  121 322 
 GHIR BZ  IAML    1012 58.90       321.0 0.56                           121 322 
 BNDS BZ EPg      1012 57.45                              95   -0.2610  240  90 
 BNDS BN ESg      1013 26.00                              95    0.1310  240  90 
 BNDS BZ  IAML    1013 34.89       280.6 0.44                           240  90 
 KRBR BZ EPn      1013 15.90                              54    0.06 9  409  45 
 KRBR BZ  IAML    1014  5.42        91.0 0.48                           409  45 
 NASN BZ EPn      1013 39.80                              54   -0.09 7  603 352 
                                                                                
 2010  219 1125 45.6 L  35.719  57.593 14.1  INS  8 0.3 3.9LINS                1
 GAP=136        0.71       3.1     5.1  6.8  0.2883E+01  0.1114E+02  0.4154E+01E
 2010-02-19-1125-54S.BIN__063                                                  6
 ACTION:NEW 10-04-24 13:22 OP:moh  STATUS:               ID:20100219112548 L   I
 STAT SP IPHASW D HRMM SECON CODA AMPLIT PERI AZIMU VELO AIN AR TRES W  DIS CAZ7
 BJRD BZ EPg      1126 21.54                              90   -0.2410  220 356 
 TABS BZ EPg      1126 23.35                              90   -0.4910  234 191 
 TABS BZ  IAML    1126 58.42      1303.1 0.52                           234 191 
 SHRT BZ EP       1126 35.67                              52    0.41 9  338 132 
 SHRT BZ  IAML    1127 33.43      1231.4 0.52                           338 132 
 DAMV BZ EPn      1126 56.72                              52   -0.03 8  509 271 
 CHTH BZ EPn      1127  6.37                              52    0.19 8  585 274 
 GHVR BZ EPn      1127  7.34                              52    0.12 7  595 258 
 ASAO BZ EPN5     1127 20.87                              52    0.20 7  702 262 
 KHMZ BZ EPN5     1127 24.72                              52    0.29 6  732 255 
                                                                                
 2010  219 2329  1.3 L  32.088  59.269 18.0  INS  4 0.4 3.1LINS                1
 GAP=123        0.97       3.2     4.6  8.9 -0.2319E+01 -0.1291E+02  0.9874E+01E
 2010-02-19-2327-10S.BIN__063                                                  6
 ACTION:NEW 10-04-24 13:22 OP:moh  STATUS:               ID:20100219232901 L   I
 STAT SP IPHASW D HRMM SECON CODA AMPLIT PERI AZIMU VELO AIN AR TRES W  DIS CAZ7
 SHRT BZ EPg      2329 34.12                              91    0.3010  197  29 
 TABS BZ EPn      2329 41.71                              52    0.0210  265 311 
 TABS BE ESg      2330 15.90                              91   -0.3210  265 311 
 TABS BZ  IAML    2330 23.85       171.3 0.76                           265 311 
 ZHSF BZ EPn      2329 46.66                              52   -0.6010  310 152 
 KRBR BZ EPn      2329 51.05                              52    0.59 9  334 226 
 KRBR BN ESg      2330 35.45                              91    0.03 9  334 226 
 KRBR BZ  IAML    2330 38.99       189.4 0.36                           334 226 
                                                                                
 2010  220 0521 54.6 L  37.338  56.953 33.8  INS  4 0.0 2.8LINS                1
 GAP=133        0.31       6.8     1.6  8.0  0.3285E+01  0.3258E+01  0.5275E+02E
 2010-02-20-0521-46S.BIN__063                                                  6
 ACTION:NEW 10-04-24 13:22 OP:moh  STATUS:               ID:20100220052154 L   I
 STAT SP IPHASW D HRMM SECON CODA AMPLIT PERI AZIMU VELO AIN AR TRES W  DIS CAZ7
 BJRD BZ EPg       522  5.52                             117    0.0010 57.0  45 
 MRVT BZ EPg       522  9.34                             107   -0.0310 84.3 295 
 MRVT BN ESg       522 20.19                             107    0.0210 84.3 295 
 MRVT BZ  IAML     522 22.16       790.9 0.49                          84.3 295 
 TABS BZ EPn       522 51.38                              54    0.01 9  409 178 
 TABS BZ  IAML     523 58.76        34.7 0.84                           409 178 
 DAMV BZ EPn       523  0.90                              54   -0.00 8  485 248 
                                                                                
 2010  220 0749 19.3 L  30.740  50.246 14.1  INS  7 0.1 3.0LINS                1
 GAP=183        0.33       2.7     6.0  7.6  0.1154E+02 -0.3939E+02 -0.1125E+02E
 2010-02-20-0748-50S.BIN__063                                                  6
 ACTION:NEW 10-04-24 13:22 OP:moh  STATUS:               ID:20100220074919 L   I
 STAT SP IPHASW D HRMM SECON CODA AMPLIT PERI AZIMU VELO AIN AR TRES W  DIS CAZ7
 SHGR BZ EPg       749 52.82                              90   -0.0110  205 318 
 NASN BZ EPn       750  8.56                              52   -0.04 9  333  46 
 KHMZ BZ EPn       750  8.59                              52   -0.02 9  334 356 
 KHMZ BZ  IAML     750 57.85       148.6 0.56                           334 356 
 GHIR BZ EPn       750 14.29                              52    0.01 9  380 135 
 ASAO BZ EPn       750 19.77                              52    0.06 9  423 357 
 GHVR BZ EPn       750 19.98                              52    0.14 9  425  12 
 GHVR BZ  IAML     751 28.70        65.7 0.62                           425  12 
 CHTH BZ EPn       750 38.96                              52   -0.18 8  579   8 
                                                                                
