 2010  2 2 1346 24.0 L  37.905  46.899 14.1  INS  5 0.2 3.4LINS                1
 GAP=168        0.52      11.3    12.2  4.9  0.1360E+03 -0.1272E+02 -0.7331E+01E
 2010-02-02-1346-27S.BIN__060                                                  6
 ACTION:NEW 10-04-24 13:22 OP:moh  STATUS:               ID:20100202134624 L   I
 STAT SP IPHASW D HRMM SECON CODA AMPLIT PERI AZIMU VELO AIN AR TRES W  DIS CAZ7
 ZNJK BZ EPN5     1346 57.78                              52   -0.1310  209 130 
 ZNJK BN ESg      1347 23.40                              90   -0.2610  209 130 
 ZNJK BZ  IAML    1347 27.69      1101.8 0.76                           209 130 
 MAKU BZ EPg      1347  5.10                              90    0.0210  251 311 
 MAKU BN ESg      1347 34.97                              90   -0.1110  251 311 
 MAKU BZ  IAML    1347 42.25       226.7 0.47                           251 311 
 CHTH BZ EPn      1347 26.42                              52    0.22 9  437 119 
 ASAO BZ EPn      1347 30.19                              52    0.33 8  467 142 
 DAMV BZ EPn      1347 36.42                              52    0.12 8  518 118 
                                                                                
 2010  2 2 1351 33.7 L  35.767  52.488 14.2  INS  5 0.1 3.1LINS                1
 GAP=301        0.34       2.7     4.3  3.7 -0.2013E+01 -0.9260E+01  0.1148E+01E
 2010-02-02-1351-23S.BIN__060                                                  6
 ACTION:NEW 10-04-24 13:22 OP:moh  STATUS:               ID:20100202135133 L   I
 STAT SP IPHASW D HRMM SECON CODA AMPLIT PERI AZIMU VELO AIN AR TRES W  DIS CAZ7
 DAMV BZ EPg      1351 42.67                              91   -0.1110 49.2 252 
 CHTH BZ EPg      1351 54.69                              90    0.0110  124 278 
 GHVR BZ EPg      1352  3.71                              90   -0.0710  182 219 
 GHVR BZ  IAML    1352 37.40       720.0 0.40                           182 219 
 ASAO BZ EPn      1352 14.25                              52    0.0910  262 240 
 ASAO BN ESg      1352 47.87                              90    0.0410  262 240 
 ASAO BZ  IAML    1352 55.22       200.5 0.44                           262 240 
 KHMZ BZ EPn      1352 21.69                              52    0.05 9  322 226 
 KHMZ BZ  IAML    1353  7.74        69.4 0.96                           322 226 
                                                                                
 2010  2 3 1649 34.5 L  32.173  49.387 16.5  INS  5 0.1 2.8LINS                1
 GAP=186        0.35       2.8     2.5  3.5 -0.2717E+01 -0.3884E+01 -0.3338E-01E
 2010-02-03-1649-10S.BIN__063                                                  6
 ACTION:NEW 10-04-24 13:22 OP:moh  STATUS:               ID:20100203164934 L   I
 STAT SP IPHASW D HRMM SECON CODA AMPLIT PERI AZIMU VELO AIN AR TRES W  DIS CAZ7
 SHGR BZ EPg      1649 44.40                              96    0.0210 55.7 263 
 SHGR BZ  IAML    1649 55.31      1161.3 0.31                          55.7 263 
 KHMZ BZ EPg      1650  4.56                              91   -0.0210  182  17 
 KHMZ BZ  IAML    1650 31.12       213.5 0.60                           182  17 
 ASAO BZ EPn      1650 15.80                              52    0.1110  270  13 
 NASN BZ EPn      1650 23.00                              52   -0.03 9  329  77 
 SNGE BZ EPn      1650 28.60                              52   -0.10 9  375 330 
 SNGE BZ  IAML    1651 27.64        32.0 0.30                           375 330 
                                                                                
 2010  2 3 2239 45.1 L  28.585  57.020 14.1  INS  5 0.2 4.0LINS                1
 GAP=212        0.48       3.3     9.8  5.7 -0.2440E+02  0.2688E+02 -0.9219E+01E
 2010-02-03-2239-48S.BIN__063                                                  6
 ACTION:NEW 10-04-24 13:22 OP:moh  STATUS:               ID:20100203223945 L   I
 STAT SP IPHASW D HRMM SECON CODA AMPLIT PERI AZIMU VELO AIN AR TRES W  DIS CAZ7
 BNDS BZ EPg      2240 10.99                              90   -0.0110  156 213 
 BNDS BZ  IAML    2240 33.41      7350.1 0.63                           156 213 
 KRBR BZ EPg      2240 11.09                              90   -0.2210  157 351 
 KRBR BZ  IAML    2240 42.79      2953.8 0.46                           157 351 
 GHIR BZ EPn      2240 42.09                              52   -0.04 9  397 266 
 GHIR BZ  IAML    2241 52.92       414.1 0.33                           397 266 
 TABS BZ EPn      2241  2.87                              52    0.24 8  562   1 
 NASN BZ EPn      2241  9.94                              52    0.22 7  617 320 
                                                                                
 2010  2 4 1953 28.3 L  36.686  45.344 16.2F INS  6 0.3 3.2LINS                1
 GAP=215        0.66       4.6     9.4  0.0  0.3662E+02  0.2688E+02 -0.9219E+01E
 2010-02-04-1953-47S.BIN__060                                                  6
 ACTION:NEW 10-04-24 13:22 OP:moh  STATUS:               ID:20100204195328 L   I
 STAT SP IPHASW D HRMM SECON CODA AMPLIT PERI AZIMU VELO AIN AR TRES W  DIS CAZ7
 SNGE BZ EPn      1954  7.17                              52   -0.2110  253 134 
 SNGE BN ESg      1954 39.87                              91    0.0010  253 134 
 SNGE BZ  IAML    1954 45.54       898.0 0.56                           253 134 
 ZNJK BZ EPn      1954 12.88                              52   -0.2210  299  89 
 ZNJK BZ  IAML    1954 57.78       143.1 0.62                           299  89 
 MAKU BZ EPn      1954 13.47                              52    0.0210  302 349 
 GRMI BZ EPn      1954 16.32                              52   -0.00 9  326  43 
 ASAO BZ EPn      1954 37.17                              52    0.81 8  486 118 
 ASAO BZ  IAML    1955 59.09        59.4 0.72                           486 118 
 KHMZ BZ EPn      1954 41.87                              52   -0.26 8  533 127 
 KHMZ BZ  IAML    1956 12.20        46.5 0.56                           533 127 
                                                                                
 2010  2 4 2340  7.9 L  27.476  52.520 14.7  INS  3 0.1 3.0LINS                1
 GAP=272        0.33       2.2     5.0  3.4  0.4407E+01  0.1078E+02  0.3538E+01E
 2010-02-04-2340-10S.BIN__063                                                  6
 ACTION:NEW 10-04-24 13:22 OP:moh  STATUS:               ID:20100204234008 L   I
 STAT SP IPHASW D HRMM SECON CODA AMPLIT PERI AZIMU VELO AIN AR TRES W  DIS CAZ7
 GHIR BZ EPg      2340 25.08                              91    0.0510  101  27 
 GHIR BN ESg      2340 37.53                              91   -0.0310  101  27 
 GHIR BZ  IAML    2340 45.31       865.2 0.40                           101  27 
 BNDS BZ EPn      2341  0.48                              52   -0.00 9  361  91 
 BNDS BZ  IAML    2341 50.04        67.6 0.40                           361  91 
 NASN BZ EPn      2341 29.04                              52   -0.09 7  591   3 
 NASN BN  Sn      2342 28.52                              52    0.05 7  591   3 
                                                                                
 2010  2 5 0222 50.9 L  30.962  50.189 18.0  INS  6 0.2 3.4LINS                1
 GAP=177        0.50       4.0     8.2 12.4  0.2224E+02 -0.9377E+02 -0.2413E+02E
 2010-02-05-0222-21S.BIN__060                                                  6
 ACTION:NEW 10-04-24 13:22 OP:moh  STATUS:               ID:20100205022250 L   I
 STAT SP IPHASW D HRMM SECON CODA AMPLIT PERI AZIMU VELO AIN AR TRES W  DIS CAZ7
 SHGR BZ EPg       223 21.05                              92   -0.0210  183 314 
 SHGR BE ESg       223 43.09                              92    0.0210  183 314 
 SHGR BZ  IAML     223 50.42      1347.6 0.48                           183 314 
 KHMZ BZ EPn       223 37.00                              52    0.2110  309 356 
 KHMZ BZ  IAML     224 27.43       259.4 0.64                           309 356 
 NASN BZ EPn       223 38.57                              52    0.23 9  321  50 
 GHIR BZ EPn       223 48.20                              52   -0.03 9  402 137 
 GHIR BZ  IAML     224 38.78       169.0 0.40                           402 137 
 DAMV BZ EPn       224  5.74                              52   -0.29 8  544  17 
 CHTH BZ EPn       224  7.18                              52   -0.31 8  555   9 
                                                                                
 2010  2 5 0557  7.3 L  27.547  52.222 14.2  INS  5 0.2 3.4LINS                1
 GAP=236        0.43       3.4     3.7  5.9  0.6014E+01  0.1763E+02  0.1124E+02E
 2010-02-05-0557-06S.BIN__060                                                  6
 ACTION:NEW 10-04-24 13:22 OP:moh  STATUS:               ID:20100205055706 L   I
 STAT SP IPHASW D HRMM SECON CODA AMPLIT PERI AZIMU VELO AIN AR TRES W  DIS CAZ7
 GHIR BZ EPg       557 25.95                              90   -0.1910  111  42 
 GHIR BN ESg       557 39.95                              90    0.0810  111  42 
 GHIR BZ  IAML     557 43.84      3194.3 0.52                           111  42 
 BNDS BZ EPn       558  3.82                              52    0.15 9  391  92 
 KRBR BZ EPn       558 19.70                              52   -0.04 8  519  58 
 KRBR BZ  IAML     559 21.15        61.1 0.44                           519  58 
 SHGR BZ EPn       558 30.02                              52    0.04 7  604 328 
 SHGR BN  Sn       559 30.49                              52    0.17 7  604 328 
 SHGR BZ  IAML     559 38.94        93.9 0.80                           604 328 
 SNGE BZ EPN5      559 13.58                              52   -0.42 5  956 332 
                                                                                
 2010  2 7 0754 37.1 L  28.310  56.102 14.7  INS  4 5.8 2.7LINS                1
 GAP=298       12.77     142.9   240.4235.0  0.2795E+04  0.1615E+04  0.2627E+05E
 2010-02-07-0754-41S.BIN__060                                                  6
 ACTION:NEW 10-04-24 13:22 OP:moh  STATUS:               ID:20100207075501 L   I
 STAT SP IPHASW D HRMM SECON CODA AMPLIT PERI AZIMU VELO AIN AR TRES W  DIS CAZ7
 BNDS BZ EPn       755 49.85                              47            101 176 
 BNDS BZ  IAML     756 39.00        35.0 0.54                           101 176 
 KRBR BZ EPg       755 14.58                              90    5.0810  196  19 
 KRBR BN ESg       755 24.55                              90   -8.6210  196  19 
 KRBR BZ  IAML     755 30.27       909.5 0.25                           196  19 
 ZHSF BZ EPN5      755 48.89                              52    4.79 8  477  71 
 TABS BZ EPn       755 59.69                              52    0.39 7  600   9 
 TABS BZ  IAML     757  5.39        19.8 0.38                           600   9 
                                                                                
 2010  2 7 0813  6.6 L  30.012  57.570  7.5  INS  4 0.0 2.9LINS                1
 GAP=108        0.34       2.2     3.1  5.5 -0.1014E+01 -0.1365E+02  0.1425E+01E
 2010-02-07-0812-56S.BIN__063                                                  6
 ACTION:NEW 10-04-24 13:22 OP:moh  STATUS:               ID:20100207081304 L   I
 STAT SP IPHASW D HRMM SECON CODA AMPLIT PERI AZIMU VELO AIN AR TRES W  DIS CAZ7
 KRBR BZ EPg       813 20.49                              91   -0.0010 78.1 268 
 KRBR BZ  IAML     813 32.64       874.5 0.14                          78.1 268 
 ZHSF BZ EPn       813 53.98                              47   -0.0010  312  97 
 ZHSF BZ  IAML     814 33.74        88.7 0.62                           312  97 
 BNDS BZ EPn       813 54.95                              47    0.00 9  320 206 
 TABS BZ EPN5      814  5.51                              47    0.00 9  406 354 
                                                                                
 2010  2 7 1840  6.1 L  28.631  51.457 14.4  INS  5 0.1 3.1LINS                1
 GAP=229        0.31       7.0     3.0  9.1  0.1332E+02 -0.1027E+02 -0.5922E+02E
 2010-02-07-1840-22S.BIN__063                                                  6
 ACTION:NEW 10-04-24 13:22 OP:moh  STATUS:               ID:20100207184006 L   I
 STAT SP IPHASW D HRMM SECON CODA AMPLIT PERI AZIMU VELO AIN AR TRES W  DIS CAZ7
 GHIR BZ EPg      1840 31.67                              90   -0.0910  155 104 
 GHIR BE ESg      1840 50.61                              90    0.0810  155 104 
 GHIR BZ  IAML    1840 54.32      1071.1 0.44                           155 104 
 NASN BZ EPn      1841 13.52                              52   -0.05 8  480  15 
 NASN BN  Sn      1842  2.84                              52   -0.02 8  480  15 
 KRBR BZ EPn      1841 20.59                              52   -0.04 8  537  73 
 KRBR BZ  IAML    1842 19.91        23.2 0.48                           537  73 
 ASAO BZ EPn      1841 37.26                              52    0.10 7  670 349 
 SNGE BZ EPn      1841 55.25                              52    0.10 6  815 333 
                                                                                
 2010  2 7 2120 22.4 L  28.365  54.305 28.7  INS  6 0.0 3.5LINS                1
 GAP=147        0.30       4.8     5.5 10.9  0.2375E+02 -0.5716E+02 -0.4663E+02E
 2010-02-07-2120-31S.BIN__063                                                  6
 ACTION:NEW 10-04-24 13:22 OP:moh  STATUS:               ID:20100207212021 L   I
 STAT SP IPHASW D HRMM SECON CODA AMPLIT PERI AZIMU VELO AIN AR TRES W  DIS CAZ7
 GHIR BZ EPg      2120 43.86                              97    0.0010  130 266 
 GHIR BZ  IAML    2121  7.96      1846.2 0.52                           130 266 
 BNDS BZ EPN5     2120 55.24                              54    0.0110  213 120 
 BNDS BZ  IAML    2121 35.14       597.5 0.60                           213 120 
 NASN BZ EPn      2121 32.62                              54    0.08 8  512 344 
 ZHSF BZ EPn      2121 48.87                              54   -0.03 7  645  76 
 GHVR BZ EPn      2122  0.31                              54   -0.06 6  738 338 
 ASAO BZ EPn      2122  7.86                              54   -0.05 6  797 330 
                                                                                
 2010  2 8 2120 54.7 L  28.299  54.210 15.0  INS  5 0.4 3.4LINS                1
 GAP=153        0.83       6.1     3.4  0.0 -0.1392E+02  0.5144E+00 -0.1106E+02E
 2010-02-08-2120-48S.BIN__060                                                  6
 ACTION:NEW 10-04-24 13:22 OP:moh  STATUS:               ID:20100208212054 L   I
 STAT SP IPHASW D HRMM SECON CODA AMPLIT PERI AZIMU VELO AIN AR TRES W  DIS CAZ7
 GHIR BZ EPn      2121 17.52                              52    0.2310  120 270 
 GHIR BZ  IAML    2121 37.69      2015.7 0.44                           120 270 
 BNDS BZ EPn      2121 29.12                              52   -0.3010  217 117 
 BNDS BZ  IAML    2122 11.45       417.8 0.52                           217 117 
 KRBR BZ EPn      2121 41.76                              52    0.6310  310  52 
 KRBR BZ  IAML    2122 29.24       338.6 0.60                           310  52 
 NASN BZ EPn      2122  6.14                              52   -0.59 8  517 345 
 TABS BZ EPn      2122 23.46                              52   -0.27 7  655  24 
                                                                                
 2010  210 0229  9.6 L  39.521  53.939 28.7F INS  4 0.2 3.0LINS                1
 GAP=234        0.46       6.9     3.3  0.0  0.4067E+01  0.5144E+00 -0.1106E+02E
 2010-02-10-0229-30S.BIN__063                                                  6
 ACTION:NEW 10-04-24 13:22 OP:moh  STATUS:               ID:20100210022911 L   I
 STAT SP IPHASW D HRMM SECON CODA AMPLIT PERI AZIMU VELO AIN AR TRES W  DIS CAZ7
 MRVT BZ EPn       229 50.60                              54   -0.0310  279 137 
 MRVT BZ  IAML     230 19.68       137.1 0.64                           279 137 
 DAMV BZ EPn       230 14.20                              54    0.21 9  465 203 
 DAMV BZ  IAML     231  4.22        94.2 0.52                           465 203 
 GRMI BZ EPn       230 21.88                              54    0.21 8  528 263 
 ZNJK BZ EPN5      230 25.14                              54   -0.44 8  559 237 
 ZNJK BN  Sn       231 21.07                              54    0.02 8  559 237 
 ZNJK BZ  IAML     231 25.91        34.0 0.43                           559 237 
                                                                                
 2010  210 0904 29.3 L  38.745  46.866 14.1  INS  3 0.2 2.8LINS                1
 GAP=155        0.60       3.6     3.1  7.2  0.8081E+01  0.1761E+00  0.5508E+01E
 2010-02-10-0904-24S.BIN__063                                                  6
 ACTION:NEW 10-04-24 13:22 OP:moh  STATUS:               ID:20100210090429 L   I
 STAT SP IPHASW D HRMM SECON CODA AMPLIT PERI AZIMU VELO AIN AR TRES W  DIS CAZ7
 GRMI BZ EPg       9 4 44.66                              90   -0.0710 89.5  85 
 MAKU BZ EPg       9 5  2.32                              90   -0.0910  201 290 
 MAKU BN ESg       9 5 26.56                              90    0.0010  201 290 
 MAKU BZ  IAML     9 5 27.13       285.1 0.39                           201 290 
 ZNJK BZ EPn       9 5 12.50                              52    0.4010  281 145 
 ZNJK BE ESg       9 5 48.32                              90   -0.2310  281 145 
 ZNJK BZ  IAML     9 5 59.17        54.1 0.52                           281 145 
                                                                                
 2010  211 0809 57.1 L  28.153  51.421 18.0  INS  5 0.1 3.0LINS                1
 GAP=279        0.31       7.4     4.0  6.3  0.1128E+02  0.1275E+02 -0.2188E+02E
 2010-02-11-0810-19S.BIN__060                                                  6
 ACTION:NEW 10-04-24 13:22 OP:moh  STATUS:               ID:20100211080957 L   I
 STAT SP IPHASW D HRMM SECON CODA AMPLIT PERI AZIMU VELO AIN AR TRES W  DIS CAZ7
 GHIR BZ EPg       810 22.84                              92    0.0210  154  84 
 GHIR BE ESg       810 41.57                              92    0.0110  154  84 
 GHIR BZ  IAML     810 45.74      1372.6 0.69                           154  84 
 NASN BZ EPn       811 10.72                              52   -0.07 8  532  14 
 NASN BZ  IAML     812  7.37        12.2 0.38                           532  14 
 KRBR BZ EPn       811 13.98                              52   -0.06 8  558  67 
 TABS BZ EPn       811 46.03                              52    0.00 6  817  40 
 DAMV BZ EPn       811 48.06                              52    0.16 6  831   3 
                                                                                
