 2010  114 0051 59.3 L  29.722  50.456 15.0  INS  5 0.1 3.1LINS                1
 GAP=207        0.35       3.5     1.6  0.0 -0.1962E+01  0.5836E+01  0.9408E+01E
 2010-01-14-0052-23S.BIN__057                                                  6
 ACTION:NEW 10-07-07 13:53 OP:moh  STATUS:               ID:20100114005200 L   I
 STAT SP IPHASW D HRMM SECON CODA AMPLIT PERI AZIMU VELO AIN AR TRES W  DIS CAZ7
 GHIR BZ EPn       052 43.45                              52    0.0110  293 122 
 GHIR BZ  IAML     053 34.71       320.8 0.44                           293 122 
 SHGR BZ EPn       052 45.03                              52   -0.1010  308 330 
 SHGR BZ  IAML     053 42.84       479.7 0.52                           308 330 
 NASN BZ EPn       052 57.71                              52   -0.14 9  408  33 
 ASAO BZ EPn       053 14.07                              52    0.28 8  537 356 
 ASAO BZ  IAML     054 12.48        37.1 0.52                           537 356 
 KRBR BZ EPn       053 22.96                              52    0.03 8  610  86 
 KRBR BZ  IAML     054 29.42        28.9 0.80                           610  86 
                                                                                
 2010  115 0617 21.3 L  33.782  49.427 15.0  INS  3 3.7 2.7LINS                1
 GAP=270        6.39     107.2    47.1  0.0 -0.3233E+04  0.5836E+01  0.9408E+01E
 ACTION:UPD 10-07-07 13:53 OP:moh  STATUS:               ID:20100115061732 L   I
 2010-01-15-0617-00S.BIN__066                                                  6
 STAT SP IPHASW D HRMM SECON CODA AMPLIT PERI AZIMU VELO AIN AR TRES W  DIS CAZ7
 ASAO BZ EPn       618 14.52                              52            101  33 
 ASAO BZ  IAML     619  0.31        62.3 0.64                           101  33 
 SHGR BZ EPg       617 49.80                              90   -3.4510  195 198 
 SHGR BZ  IAML     618  4.97       500.6 0.13                           195 198 
 NASN BZ EPn       618 15.73                              52    5.20 9  333 108 
 NASN BE ESg       618 53.71                              90   -1.29 9  333 108 
                                                                                
 2010  116 0127 20.1 L  37.344  48.519 14.1  INS  7 0.3 3.6LINS                1
 GAP=277        0.68       7.6     4.2  9.9 -0.2022E+02  0.2251E+02 -0.6639E+02E
 ACTION:UPD 10-07-07 13:53 OP:moh  STATUS:               ID:20100116012720 L   I
 2010-01-16-0127-10S.BIN__066                                                  6
 STAT SP IPHASW D HRMM SECON CODA AMPLIT PERI AZIMU VELO AIN AR TRES W  DIS CAZ7
 ZNJK BZ EPg       127 32.94                              90   -0.4710 76.1 169 
 ZNJK BE ESg       127 43.27                              90    0.1310 76.1 169 
 SNGE BZ EPn       128  1.60                              52   -0.0210  271 203 
 SNGE BN ESg       128 36.62                              90   -0.0210  271 203 
 SNGE BZ  IAML     128 44.50       725.7 0.97                           271 203 
 CHTH BZ EPn       128  2.73                              52   -0.3410  282 124 
 CHTH BN ESg       128 39.74                              90   -0.0710  282 124 
 CHTH BZ  IAML     128 44.76       625.9 0.36                           282 124 
 ASAO BZ EPn       128 10.43                              52    0.38 9  339 156 
 DAMV BZ EPn       128 13.19                              52    0.10 9  363 121 
 DAMV BZ  IAML     129  5.10       349.6 0.56                           363 121 
 GHVR BZ EPn       128 18.08                              52    0.36 9  402 141 
 GHVR BZ  IAML     129 24.49       379.9 0.56                           402 141 
 NASN BZ EPn       128 47.35                              52    0.11 7  638 141 
                                                                                
 2010  116 2023 38.7 L  32.562  48.433 14.5  INS  7 0.3 4.6LINS                1
 GAP=195        0.64       2.3     5.5  6.2 -0.1532E+00  0.1669E+02 -0.1967E+01E
 ACTION:UPD 10-07-07 13:53 OP:moh  STATUS:               ID:20100116202338 L   I
 2010-01-16-2023-00S.BIN__066                                                  6
 STAT SP IPHASW D HRMM SECON CODA AMPLIT PERI AZIMU VELO AIN AR TRES W  DIS CAZ7
 SHGR BZ EPg      2023 49.46                              91   -0.0110 61.1 145 
 SHGR BZ  IAML    2024  4.54     69956.1 0.30                          61.1 145 
 ASAO BZ EPn      2024 19.66                              52    0.1210  265  33 
 ASAO BE ESg      2024 53.76                              90    0.0110  265  33 
 ASAO BZ  IAML    2025  2.93      5787.8 1.34                           265  33 
 SNGE BZ EPn      2024 23.74                              52    0.1610  298 341 
 GHVR BZ EPn      2024 28.44                              52    0.18 9  337  50 
 GHVR BZ  IAML    2025 24.48      3627.8 3.49                           337  50 
 NASN BZ EPn      2024 37.30                              52   -0.39 9  411  85 
 ZNJK BZ EPn      2024 42.86                              52   -0.42 8  456   3 
 KRBR BZ EPn      2025 31.88                              52    0.57 6  843 108 
                                                                                
 2010  116 2126 18.7 L  32.357  48.217 38.0  INS  5 0.2 3.5LINS                1
 GAP=229        0.48      10.3     7.4  7.0  0.5633E+02 -0.2179E+02 -0.6353E+02E
 2010-01-16-2125-52S.BIN__045                                                  6
 ACTION:NEW 10-07-07 13:53 OP:moh  STATUS:               ID:20100116212618 L   I
 STAT SP IPHASW D HRMM SECON CODA AMPLIT PERI AZIMU VELO AIN AR TRES W  DIS CAZ7
 SHGR BZ EPg      2126 30.20                             118   -0.2510 61.6 116 
 SHGR BE ESg      2126 39.20                             118    0.1910 61.6 116 
 SHGR BZ  IAML    2126 49.67      6010.8 0.23                          61.6 116 
 ASAO BZ EPn      2127  1.02                              54   -0.1110  295  34 
 ASAO BZ  IAML    2127 40.47       521.7 0.20                           295  34 
 SNGE BZ EPn      2127  3.56                              54    0.1710  314 345 
 GHVR BZ EPn      2127  9.81                              54   -0.04 9  367  49 
 GHVR BZ  IAML    2127 51.73       237.6 0.62                           367  49 
 NASN BZ EPn      2127 18.42                              54    0.07 9  434  82 
 NASN BZ  IAML    2128  5.15       129.2 0.51                           434  82 
                                                                                
 2010  117 0934 21.5 L  32.548  48.429 15.0  INS 10 0.5 3.9LINS                1
 GAP=197        1.17       6.5    10.9 11.7  0.1490E+02  0.3013E+02 -0.3719E+02E
 ACTION:UPD 10-07-07 13:53 OP:moh  STATUS:               ID:20100117093421 L   I
 2010-01-17-0933-30S.BIN__069                                                  6
 STAT SP IPHASW D HRMM SECON CODA AMPLIT PERI AZIMU VELO AIN AR TRES W  DIS CAZ7
 SHGR BZ EPg       934 31.96                              92   -0.1110 60.0 144 
 SHGR BZ  IAML     934 50.16     10783.0 0.48                          60.0 144 
 KHMZ BZ EPg       934 53.57                              90   -0.0910  195  47 
 KHMZ BZ  IAML     935 20.95      2088.4 0.77                           195  47 
 ASAO BZ EPn       935  2.98                              52    0.5310  267  33 
 ASAO BZ  IAML     935 44.98      1046.1 0.67                           267  33 
 SNGE BZ EPn       935  6.78                              52    0.3110  300 341 
 GHVR BZ EPn       935 11.86                              52    0.72 9  338  50 
 GHVR BZ  IAML     936  9.06       636.2 0.46                           338  50 
 NASN BZ EPn       935 20.50                              52    0.03 9  412  85 
 CHTH BZ EPn       935 24.17                              52   -0.80 9  448  33 
 ZNJK BZ EPn       935 25.74                              52   -0.46 8  458   3 
 DAMV BZ EPn       935 27.35                              52   -0.73 8  473  43 
 MRVT BZ EPn       936 21.41                              52    0.59 5  899  49 
                                                                                
 2010  118 0313 41.1 L  32.249  46.935 46.0  INS  7 0.1 3.6LINS                1
 GAP=272        0.27       1.8     3.2  3.1  0.1580E+01  0.8180E+01  0.8703E-01E
 2010-01-18-0313-51S.BIN__054                                                  6
 ACTION:NEW 10-07-07 13:53 OP:moh  STATUS:               ID:20100118031341 L   I
 STAT SP IPHASW D HRMM SECON CODA AMPLIT PERI AZIMU VELO AIN AR TRES W  DIS CAZ7
 SHGR BZ EPg       314 10.03                             101   -0.0210  177  95 
 SHGR BE ESg       314 31.23                             101    0.0210  177  95 
 SHGR BZ  IAML     314 34.19      1798.8 0.80                           177  95 
 SNGE BZ EPn       314 25.51                              54    0.03 9  318   7 
 SNGE BZ  IAML     315  9.27       446.3 0.52                           318   7 
 KHMZ BZ EPn       314 26.70                              54   -0.05 9  328  59 
 ASAO BZ EPn       314 33.68                              54   -0.11 9  384  48 
 ASAO BE ESg       315 26.37                              95    0.00 9  384  48 
 ASAO BZ  IAML     315 30.39       385.9 0.60                           384  48 
 GHVR BZ EPn       314 44.49                              54    0.06 8  471  57 
 GHVR BZ  IAML     315 54.74       187.9 0.68                           471  57 
 ZNJK BZ EPn       314 50.23                              54    0.05 8  516  18 
 NASN BZ EPn       314 55.10                              54    0.06 8  555  82 
                                                                                
 2010  119 1849 13.1 L  29.648  51.335 14.2F INS  5 0.1 3.5LINS                1
 GAP=196        0.31       2.7     4.7  0.0  0.9478E+01  0.8180E+01  0.8703E-01E
 2010-01-19-1849-29S.BIN__054                                                  6
 ACTION:NEW 10-07-07 13:53 OP:moh  STATUS:               ID:20100119184913 L   I
 STAT SP IPHASW D HRMM SECON CODA AMPLIT PERI AZIMU VELO AIN AR TRES W  DIS CAZ7
 GHIR BZ EPg      1849 49.28                              90   -0.0410  221 133 
 GHIR BZ  IAML    1850 21.01      1268.9 0.40                           221 133 
 NASN BZ EPn      1850  7.84                              52   -0.00 9  377  22 
 NASN BZ  IAML    1851  4.70        90.2 0.44                           377  22 
 KRBR BZ EPn      1850 26.52                              52    0.13 8  526  85 
 KRBR BZ  IAML    1851 25.15       259.2 0.76                           526  85 
 DAMV BZ EPn      1850 43.62                              52   -0.20 7  666   5 
 SNGE BZ EPn      1850 49.45                              52    0.14 7  711 329 
                                                                                
 2010  120 0520  5.3 L  35.872  52.860 14.1  INS  5 0.2 4.0LINS                1
 GAP=269        0.56       3.6     5.4  7.6 -0.6534E+00 -0.3067E+02  0.2678E+01E
 2010-01-20-0520-00S.BIN__057                                                  6
 ACTION:NEW 10-07-07 13:53 OP:moh  STATUS:               ID:20100120052005 L   I
 STAT SP IPHASW D HRMM SECON CODA AMPLIT PERI AZIMU VELO AIN AR TRES W  DIS CAZ7
 DAMV BZ EPg       520 19.90                              90   -0.0910 84.7 252 
 DAMV BE ESg       520 30.81                              90    0.0810 84.7 252 
 DAMV BZ  IAML     520 35.36     11364.6 0.31                          84.7 252 
 CHTH BZ EPg       520 31.45                              90    0.0410  157 272 
 GHVR BZ EPg       520 39.86                              90   -0.4010  213 224 
 GHVR BE ESg       521  5.89                              90    0.1010  213 224 
 NASN BZ EPn       520 55.57                              52    0.02 9  341 181 
 KHMZ BZ EPn       520 57.57                              52    0.30 9  355 229 
 KHMZ BZ  IAML     521 48.33       690.8 0.41                           355 229 
                                                                                
 2010  120 0526 23.0 L  35.884  52.797 15.0  INS  5 0.3 3.6LINS                1
 GAP=311        0.78       8.4     8.9  8.5 -0.1922E+01 -0.4467E+02  0.4445E+01E
 2010-01-20-0525-59S.BIN__057                                                  6
 ACTION:NEW 10-07-07 13:53 OP:moh  STATUS:               ID:20100120052616 L   I
 STAT SP IPHASW D HRMM SECON CODA AMPLIT PERI AZIMU VELO AIN AR TRES W  DIS CAZ7
 DAMV BZ EPg       526 36.38                              91   -0.5910 79.7 250 
 DAMV BN ESg       526 47.29                              91    0.1510 79.7 250 
 DAMV BZ  IAML     526 50.03      2681.3 0.34                          79.7 250 
 CHTH BZ EPg       526 48.39                              90    0.1210  151 272 
 GHVR BZ EPg       526 57.45                              90   -0.1110  210 223 
 GHVR BZ  IAML     527 28.26      1919.5 0.32                           210 223 
 ASAO BZ EPn       527  7.41                              52    0.1910  293 240 
 KHMZ BZ EPn       527 14.81                              52    0.28 9  352 228 
 KHMZ BZ  IAML     528  4.76       203.2 0.40                           352 228 
                                                                                
 2010  120 1737 31.7 L  35.895  52.843 15.0F INS  4 0.3 3.3LINS                1
 GAP=269        0.73       4.8     4.9  0.0  0.1184E+01 -0.4467E+02  0.4445E+01E
 2010-01-20-1737-21S.BIN__054                                                  6
 ACTION:NEW 10-07-07 13:53 OP:moh  STATUS:               ID:20100120173730 L   I
 STAT SP IPHASW D HRMM SECON CODA AMPLIT PERI AZIMU VELO AIN AR TRES W  DIS CAZ7
 DAMV BZ EPg      1737 45.77                              91   -0.5210 84.1 250 
 DAMV BE ESg      1737 57.40                              91    0.4410 84.1 250 
 DAMV BZ  IAML    1738  1.39      1028.8 0.44                          84.1 250 
 CHTH BZ EPg      1737 57.65                              90    0.1010  155 271 
 GHVR BZ EPg      1738  6.60                              90   -0.1810  214 223 
 GHVR BN ESg      1738 32.24                              90   -0.1710  214 223 
 GHVR BZ  IAML    1738 40.85       575.3 0.48                           214 223 
 NASN BZ EPn      1738 22.56                              52    0.38 9  343 181 
                                                                                
 2010  121 0217  2.4 L  35.868  52.766 14.1  INS  4 0.2 3.0LINS                1
 GAP=267        0.55       3.6     6.2 11.1 -0.2808E+01 -0.5543E+02  0.8214E+01E
 2010-01-21-0216-55S.BIN__054                                                  6
 ACTION:NEW 10-07-07 13:53 OP:moh  STATUS:               ID:20100121021702 L   I
 STAT SP IPHASW D HRMM SECON CODA AMPLIT PERI AZIMU VELO AIN AR TRES W  DIS CAZ7
 DAMV BZ EPg       217 15.40                              90   -0.3710 76.5 250 
 DAMV BE ESg       217 25.63                              90    0.0710 76.5 250 
 DAMV BZ  IAML     217 27.83       777.7 0.80                          76.5 250 
 CHTH BZ EPg       217 27.37                              90    0.2310  148 272 
 GHVR BZ EPg       217 36.28                              90   -0.0810  207 222 
 GHVR BE ESg       218  1.25                              90    0.0610  207 222 
 GHVR BZ  IAML     218  9.91       265.9 0.60                           207 222 
 NASN BZ EPn       217 52.69                              52    0.11 9  340 179 
                                                                                
 2010  121 1030 57.1 L  30.836  48.832 15.0  INS  6 0.4 2.7LINS                1
 GAP=220        0.75       7.3     4.8  0.0 -0.1477E+02 -0.5543E+02  0.8214E+01E
 ACTION:UPD 10-07-07 13:53 OP:moh  STATUS:               ID:20100121103057 L   I
 2010-01-21-1030-30S.BIN__069                                                  6
 STAT SP IPHASW D HRMM SECON CODA AMPLIT PERI AZIMU VELO AIN AR TRES W  DIS CAZ7
 KHMZ BZ EPn      1031 47.45                              52    0.4710  339  18 
 KHMZ BZ  IAML    1032 45.73        66.6 0.77                           339  18 
 NASN BZ EPn      1031 58.66                              52   -0.26 9  435  59 
 GHVR BZ EPn      1032  2.54                              52    0.30 9  463  29 
 GHVR BZ  IAML    1033  7.14        29.1 0.76                           463  29 
 SNGE BZ EPn      1032  5.53                              52   -0.44 9  492 344 
 GHIR BZ EPn      1032  6.04                              52    0.20 9  492 124 
 TABS BZ EPn      1032 48.30                              52   -0.86 6  841  66 
                                                                                
 2010  122 0443 12.2 L  35.591  57.688 14.2  INS  6 0.2 3.3LINS                1
 GAP=225        0.54       7.7    25.0 25.5 -0.1543E+03  0.5860E+03 -0.1806E+03E
 ACTION:UPD 10-07-07 13:53 OP:moh  STATUS:               ID:20100122044313 L   I
 2010-01-22-0442-36S.BIN__045                                                  6
 STAT SP IPHASW D HRMM SECON CODA AMPLIT PERI AZIMU VELO AIN AR TRES W  DIS CAZ7
 TABS BZ EPg       443 48.41                              90   -0.0810  222 194 
 TABS BZ  IAML     444 32.94       833.5 0.72                           222 194 
 MRVT BZ EPn       443 53.50                              52    0.0310  270 329 
 NASN BZ EPn       444 28.38                              52    0.48 8  546 237 
 NASN BZ  IAML     445 58.72        49.2 0.64                           546 237 
 CHTH BZ EPn       444 33.87                              52   -0.06 7  594 275 
 GHVR BZ EPn       444 34.21                              52   -0.27 7  601 260 
 GHVR BZ  IAML     446 20.44        68.4 0.64                           601 260 
 KHMZ BZ EPn       444 51.43                              52   -0.14 6  737 256 
                                                                                
 2010  124 2355 25.5 L                       INS                               1
 2010-01-24-2355-02S.BIN__054                                                  6
 ACTION:NEW 10-07-07 13:53 OP:moh  STATUS:               ID:20100124235525 L   I
 STAT SP IPHASW D HRMM SECON CODA AMPLIT PERI AZIMU VELO AIN AR TRES W  DIS CAZ7
 MRVT BZ EPn      2356  5.27                              52                    
 TABS BZ EPn      2356 21.53                              52                    
 TABS BE ESg      2357 15.77                              91                    
 MRVT BN ESg      2356 38.70                              91                    
 MRVT BZ  IAML    2356 48.05       146.9 0.60                                   
 TABS BZ  IAML    2357 16.84        38.5 0.56                                   
                                                                                
