 2010  220 0933 53.2 L  30.782  50.308 14.7  INS  5 0.1 3.4LINS                1
 GAP=180        0.35       2.9     5.5  7.9  0.1164E+02 -0.3844E+02 -0.1095E+02E
 2010-02-20-0934-01S.BIN__063                                                  6
 ACTION:NEW 10-04-24 13:22 OP:moh  STATUS:               ID:20100220093353 L   I
 STAT SP IPHASW D HRMM SECON CODA AMPLIT PERI AZIMU VELO AIN AR TRES W  DIS CAZ7
 SHGR BZ EPg       934 26.72                              90   -0.1110  205 316 
 SHGR BE ESg       934 51.50                              90    0.1110  205 316 
 NASN BZ EPn       934 41.59                              52    0.06 9  326  46 
 KHMZ BZ EPn       934 41.88                              52   -0.07 9  330 354 
 KHMZ BZ  IAML     935 31.01       345.4 0.68                           330 354 
 GHIR BZ EPn       934 48.08                              52    0.04 9  379 136 
 GHIR BZ  IAML     935 57.40       186.7 0.51                           379 136 
 ASAO BZ EPn       934 53.00                              52   -0.03 9  418 356 
 ASAO BZ  IAML     936  0.00       342.3 0.59                           418 356 
                                                                                
 2010  220 0936 43.2 L  31.226  50.348 16.3  INS  6 0.1 3.6LINS                1
 GAP=163        0.32       2.4     4.9  7.6  0.7205E+01 -0.3273E+02 -0.9254E+01E
 ACTION:UPD 10-04-24 13:22 OP:moh  STATUS:               ID:20100220093644 L   I
 2010-02-20-0937-00S.BIN__069                                                  6
 STAT SP IPHASW D HRMM SECON CODA AMPLIT PERI AZIMU VELO AIN AR TRES W  DIS CAZ7
 SHGR BZ EPg       937 12.26                              91   -0.0010  176 304 
 SHGR BZ  IAML     937 42.36      4949.8 0.58                           176 304 
 KHMZ BZ EPn       937 25.86                              52    0.0710  281 353 
 KHMZ BZ  IAML     938 30.40      1419.1 0.83                           281 353 
 NASN BZ EPn       937 27.01                              52   -0.0110  291  52 
 NASN BZ  IAML     938 18.34       106.8 1.35                           291  52 
 ASAO BZ EPn       937 36.70                              52   -0.12 9  370 355 
 GHVR BZ EPn       937 36.80                              52    0.05 9  371  13 
 GHVR BZ  IAML     938 49.09       169.4 0.70                           371  13 
 GHIR BZ EPn       937 42.17                              52    0.00 9  414 141 
                                                                                
 2010  220 1648  9.7 L  40.420  46.959 14.2  INS  5 0.1 3.5LINS                1
 GAP=259        0.40       6.5     5.4  6.6  0.3039E+02 -0.2767E+02 -0.3421E+02E
 2010-02-20-1648-21S.BIN__063                                                  6
 ACTION:NEW 10-04-24 13:22 OP:moh  STATUS:               ID:20100220164809 L   I
 STAT SP IPHASW D HRMM SECON CODA AMPLIT PERI AZIMU VELO AIN AR TRES W  DIS CAZ7
 GRMI BZ EPg      1648 41.88                              90   -0.1410  196 156 
 GRMI BE ESg      1649  5.63                              90    0.0310  196 156 
 GRMI BZ  IAML    1649  6.94       729.0 0.77                           196 156 
 MAKU BZ EPg      1648 47.07                              90   -0.0110  228 239 
 MAKU BZ  IAML    1649 19.31       708.4 0.14                           228 239 
 ZNJK BZ EPn      1649 12.72                              52    0.14 9  443 160 
 CHTH BZ EPn      1649 34.81                              52    0.21 7  620 143 
 DAMV BZ EPn      1649 43.12                              52   -0.20 7  690 139 
                                                                                
 2010  221 0652 14.6 L  30.866  50.123 15.6  INS  4 0.0 2.8LINS                1
 GAP=269        0.32       7.1     5.0  5.8  0.2637E+02 -0.2066E+02 -0.7950E+01E
 ACTION:UPD 10-04-24 13:22 OP:moh  STATUS:               ID:20100221065214 L   I
 2010-02-21-0652-00S.BIN__069                                                  6
 STAT SP IPHASW D HRMM SECON CODA AMPLIT PERI AZIMU VELO AIN AR TRES W  DIS CAZ7
 SHGR BZ EPg       652 45.27                              91   -0.0210  186 318 
 SHGR BN ESg       653  7.68                              91    0.0210  186 318 
 SHGR BZ  IAML     653 13.91       384.3 0.54                           186 318 
 NASN BZ EPn       653  3.77                              52    0.04 9  332  49 
 ASAO BZ EPn       653 13.07                              52   -0.07 9  408 359 
 ASAO BZ  IAML     654 19.72        25.2 0.66                           408 359 
 SNGE BZ EPn       653 28.96                              52    0.04 8  536 332 
                                                                                
 2010  221 1413 30.5 L  37.692  57.001 44.5  INS  5 0.1 3.1LINS                1
 GAP=181        0.42       2.4     2.8  2.5  0.1527E+01  0.1563E+01  0.2607E+01E
 2010-02-21-1412-45S.BIN__063                                                  6
 ACTION:NEW 10-04-24 13:22 OP:moh  STATUS:               ID:20100221141330 L   I
 STAT SP IPHASW D HRMM SECON CODA AMPLIT PERI AZIMU VELO AIN AR TRES W  DIS CAZ7
 BJRD BZ EPg      1413 39.88                             140   -0.0810 36.1  88 
 BJRD BZ  IAML    1413 50.21      2168.6 0.56                          36.1  88 
 MRVT BZ EPg      1413 45.50                             116    0.1110 80.5 268 
 MRVT BZ  IAML    1414  3.51      1170.0 0.52                          80.5 268 
 TABS BZ EPn      1414 31.11                              54   -0.12 9  449 179 
 TABS BE ESg      1415 32.67                              94   -0.01 9  449 179 
 TABS BZ  IAML    1415 42.96        33.4 0.64                           449 179 
 DAMV BZ EPn      1414 38.16                              54   -0.16 8  504 245 
 DAMV BZ  IAML    1416  1.71        57.8 0.68                           504 245 
 SHRT BZ EPn      1414 42.63                              54    0.27 8  539 145 
                                                                                
 2010  221 1600 11.8 L                       INS                               1
 2010-02-21-1600-20S.BIN__063                                                  6
 ACTION:NEW 10-04-24 13:22 OP:moh  STATUS:               ID:20100221160014 L   I
 STAT SP IPHASW D HRMM SECON CODA AMPLIT PERI AZIMU VELO AIN AR TRES W  DIS CAZ7
 SHRT BZ EPg      16 0 40.04                              90                    
 TABS BZ EPg      16 0 47.32                              90                    
 SHRT BZ  IAML    16 1 13.41       201.4 0.72                                   
 TABS BZ  IAML    16 1 27.04       202.0 0.36                                   
                                                                                
 2010  222 1954 28.7 L                 18.0F INS                               1
 2010-02-22-1954-36S.BIN__060                                                  6
 ACTION:NEW 10-04-24 13:22 OP:moh  STATUS:               ID:20100222195428 L   I
 STAT SP IPHASW D HRMM SECON CODA AMPLIT PERI AZIMU VELO AIN AR TRES W  DIS CAZ7
 MRVT BZ EPg      1955  3.90                              91                    
 DAMV BZ EPg      1955  5.14                              91                    
 DAMV BN ESg      1955 31.94                              91                    
 MRVT BZ  IAML    1955 30.96       114.0 0.19                                   
 DAMV BZ  IAML    1955 35.39        98.3 0.42                                   
                                                                                
 2010  223 0159 28.4 L  35.945  53.469 15.0F INS  4 0.3 3.3LINS                1
 GAP=281        0.73       9.0     6.1  0.0  0.2674E+02  0.1563E+01  0.2607E+01E
 2010-02-23-0159-32S.BIN__060                                                  6
 ACTION:NEW 10-04-24 13:22 OP:moh  STATUS:               ID:20100223015929 L   I
 STAT SP IPHASW D HRMM SECON CODA AMPLIT PERI AZIMU VELO AIN AR TRES W  DIS CAZ7
 DAMV BZ EPg       159 51.80                              91   -0.1110  140 256 
 DAMV BN ESg       2 0  9.30                              91    0.2610  140 256 
 DAMV BZ  IAML     2 0 15.87       755.6 0.27                           140 256 
 CHTH BZ EPg       2 0  3.36                              90    0.0710  212 270 
 GHVR BZ EPg       2 0 10.20                              90   -0.5910  260 232 
 GHVR BZ  IAML     2 0 49.10       388.2 0.96                           260 232 
 NASN BZ EPn       2 0 20.70                              52    0.42 9  354 190 
                                                                                
 2010  223 0242 45.8 L  27.875  55.868 15.0  INS  3 0.0 3.1LINS                1
 GAP=130        0.30       1.5     2.2  0.0  0.5608E+00  0.1563E+01  0.2607E+01E
 2010-02-23-0242-41S.BIN__060                                                  6
 ACTION:NEW 10-04-24 13:22 OP:moh  STATUS:               ID:20100223024245 L   I
 STAT SP IPHASW D HRMM SECON CODA AMPLIT PERI AZIMU VELO AIN AR TRES W  DIS CAZ7
 BNDS BZ EPg       242 56.60                              92   -0.0010 60.6 150 
 BNDS BZ  IAML     243  8.54      1513.2 0.00                          60.6 150 
 KRBR BZ EPg       243 26.63                              90    0.0010  249  20 
 GHIR BZ EPn       243 29.10                              52    0.0010  287 280 
 GHIR BZ  IAML     244 14.22       187.2 1.05                           287 280 
                                                                                
 2010  223 0728  2.3 L  32.582  48.420 14.2  INS 10 0.2 4.5LINS                1
 GAP=191        0.57       2.4     5.2  5.4 -0.2008E+01  0.1546E+02 -0.3639E+01E
 2010-02-23-0727-47S.BIN__060                                                  6
 ACTION:NEW 10-04-24 13:22 OP:moh  STATUS:               ID:20100223072802 L   I
 STAT SP IPHASW D HRMM SECON CODA AMPLIT PERI AZIMU VELO AIN AR TRES W  DIS CAZ7
 SHGR BZ EPg       728 13.30                              90   -0.1710 63.6 146 
 SHGR BZ  IAML     728 33.14     92442.8 0.41                          63.6 146 
 KHMZ BZ EPg       728 34.04                              90   -0.1310  193  48 
 GHVR BZ EPn       728 52.29                              52    0.46 9  336  50 
 GHVR BZ  IAML     729 44.23      2478.7 0.00                           336  50 
 NASN BZ EPn       729  1.61                              52    0.17 9  412  85 
 NASN BZ  IAML     730  5.01      1489.7 0.00                           412  85 
 CHTH BZ EPn       729  5.55                              52    0.02 9  445  33 
 ZNJK BZ EPn       729  6.81                              52    0.17 8  454   3 
 DAMV BZ EPn       729  8.56                              52   -0.15 8  471  43 
 DAMV BN ESg       730 13.53                              90   -0.25 8  471  43 
 GRMI BZ EPn       729 35.98                              52   -0.14 7  693 356 
 MAKU BZ EPn       729 52.07                              52   -0.38 6  824 337 
 MRVT BZ EPn       730  1.86                              52    0.37 5  897  49 
                                                                                
 2010  223 1025 55.0 L  32.583  48.371 14.1  INS  8 0.3 4.3LINS                1
 GAP=199        0.69       3.9     6.7  7.3  0.6291E+01  0.1400E+02 -0.1239E+02E
 2010-02-23-1025-08S.BIN__060                                                  6
 ACTION:NEW 10-04-24 13:22 OP:moh  STATUS:               ID:20100223102555 L   I
 STAT SP IPHASW D HRMM SECON CODA AMPLIT PERI AZIMU VELO AIN AR TRES W  DIS CAZ7
 SHGR BZ EPg      1026  6.61                              90   -0.0110 66.4 142 
 SHGR BZ  IAML    1026 29.00     53652.9 0.78                          66.4 142 
 KHMZ BZ EPg      1026 27.40                              90   -0.0110  196  49 
 SNGE BZ EPn      1026 39.29                              52   -0.1210  294 341 
 GHVR BZ EPn      1026 45.43                              52    0.46 9  340  51 
 GHVR BZ  IAML    1027 43.73      3113.0 0.94                           340  51 
 NASN BZ EPn      1026 54.71                              52   -0.01 9  417  86 
 NASN BZ  IAML    1027 57.55       961.8 0.94                           417  86 
 CHTH BZ EPn      1026 58.30                              52   -0.25 9  448  34 
 ZNJK BZ EPn      1026 59.72                              52    0.35 8  454   4 
 DAMV BZ EPn      1027  1.31                              52   -0.49 8  474  44 
 DAMV BZ  IAML    1028 22.99       870.7 0.58                           474  44 
                                                                                
 2010  223 1039  5.4 L  32.583  48.372 14.2  INS  5 0.3 2.8LINS                1
 GAP=199        0.78       3.8     7.9 10.0 -0.1271E+02  0.5731E+02 -0.1696E+02E
 2010-02-23-1039-03S.BIN__060                                                  6
 ACTION:NEW 10-04-24 13:22 OP:moh  STATUS:               ID:20100223103927 L   I
 STAT SP IPHASW D HRMM SECON CODA AMPLIT PERI AZIMU VELO AIN AR TRES W  DIS CAZ7
 SHGR BZ EPg      1039 16.86                              90   -0.1110 66.3 142 
 KHMZ BZ EPg      1039 37.91                              90    0.1410  196  49 
 KHMZ BN ESg      1040  1.22                              90   -0.1910  196  49 
 SNGE BZ EPn      1039 49.67                              52   -0.1210  294 341 
 GHVR BZ EPn      1039 55.94                              52    0.61 9  340  51 
 GHVR BZ  IAML    1040 38.40        65.5 0.56                           340  51 
 DAMV BZ EPn      1040 11.79                              52   -0.37 8  474  43 
 DAMV BZ  IAML    1040 48.04        38.9 0.44                           474  43 
                                                                                
 2010  223 1040 58.7 L  32.572  48.424 34.0  INS  3 0.0 3.0LINS                1
 GAP=195        0.32       1.8     3.6  4.1 -0.4184E+01  0.1156E+02 -0.6425E+01E
 ACTION:UPD 10-04-24 13:22 OP:moh  STATUS:               ID:20100223104058 L   I
 2010-02-23-1040-00S.BIN__069                                                  6
 STAT SP IPHASW D HRMM SECON CODA AMPLIT PERI AZIMU VELO AIN AR TRES W  DIS CAZ7
 SHGR BZ EPg      1041 10.22                             114   -0.0610 62.5 145 
 SHGR BE ESg      1041 18.78                             114    0.0510 62.5 145 
 SHGR BZ  IAML    1041 21.47      1055.3 0.56                          62.5 145 
 KHMZ BZ EPN5     1041 28.76                              54   -0.0110  193  48 
 KHMZ BN ESg      1041 53.08                              96    0.0010  193  48 
 KHMZ BZ  IAML    1041 55.99       216.7 0.60                           193  48 
 SNGE BZ EPn      1041 41.63                              54    0.0210  297 341 
                                                                                
 2010  223 1045  7.2 L  32.557  48.529 40.2  INS  3 0.0 2.8LINS                1
 GAP=186        0.31       2.0     3.6  3.5 -0.4969E+01  0.9602E+01 -0.5988E+01E
 ACTION:UPD 10-04-24 13:22 OP:moh  STATUS:               ID:20100223104507 L   I
 2010-02-23-1042-00S.BIN__069                                                  6
 STAT SP IPHASW D HRMM SECON CODA AMPLIT PERI AZIMU VELO AIN AR TRES W  DIS CAZ7
 SHGR BN EPg      1045 18.35                             123    0.0310 55.9 153 
 SHGR BN ESg      1045 26.43                             123   -0.0210 55.9 153 
 SHGR BZ  IAML    1045 27.53       588.9 0.26                          55.9 153 
 KHMZ BZ EPN5     1045 35.93                              54    0.0010  187  45 
 KHMZ BE ESg      1046  0.18                              99   -0.0010  187  45 
 KHMZ BZ  IAML    1046  2.20       193.8 0.48                           187  45 
 SNGE BZ EPn      1045 50.12                              54   -0.0110  302 339 
                                                                                
 2010  223 1123 20.4 L  32.817  48.534 14.1  INS  4 0.1 3.0LINS                1
 GAP=175        0.38       2.6     5.7  7.7 -0.7846E+01  0.3348E+02 -0.1462E+02E
 2010-02-23-1123-23S.BIN__060                                                  6
 ACTION:NEW 10-04-24 13:22 OP:moh  STATUS:               ID:20100223112320 L   I
 STAT SP IPHASW D HRMM SECON CODA AMPLIT PERI AZIMU VELO AIN AR TRES W  DIS CAZ7
 SHGR BZ EPg      1123 34.53                              90    0.0010 82.6 162 
 SHGR BZ  IAML    1124 24.93      1298.3 0.59                          82.6 162 
 KHMZ BZ EPg      1123 48.19                              90   -0.0810  168  52 
 KHMZ BZ  IAML    1124 45.44       204.4 0.49                           168  52 
 SNGE BZ EPn      1124  2.38                              52   -0.0410  275 337 
 CHTH BZ EPn      1124 20.31                              52    0.14 9  418  34 
                                                                                
 2010  223 1931 48.9 L  32.557  48.417 14.1  INS  7 0.4 3.7LINS                1
 GAP=197        0.93       4.0     8.2  9.4 -0.8703E+01  0.4864E+02 -0.1111E+02E
 2010-02-23-1931-41S.BIN__063                                                  6
 ACTION:NEW 10-04-24 13:22 OP:moh  STATUS:               ID:20100223193149 L   I
 STAT SP IPHASW D HRMM SECON CODA AMPLIT PERI AZIMU VELO AIN AR TRES W  DIS CAZ7
 SHGR BZ EPg      1931 59.87                              90    0.1310 61.5 144 
 KHMZ BZ EPg      1932 20.59                              90   -0.5110  195  47 
 KHMZ BN ESg      1932 44.81                              90    0.2110  195  47 
 KHMZ BZ  IAML    1932 48.21      1955.5 0.52                           195  47 
 ASAO BZ EPn      1932 30.68                              52    0.7410  267  34 
 SNGE BZ EPn      1932 33.72                              52   -0.1010  298 341 
 NASN BZ EPn      1932 47.96                              52   -0.15 9  413  85 
 CHTH BZ EPn      1932 52.26                              52   -0.19 9  448  33 
 DAMV BZ EPn      1932 55.32                              52   -0.28 8  473  43 
 DAMV BZ  IAML    1934  7.80       186.5 0.69                           473  43 
                                                                                
 2010  224 0451 44.6 L  34.534  52.093 14.1  INS  8 0.1 3.2LINS                1
 GAP=166        0.39       1.5     2.4  3.6  0.2448E+00  0.1144E+01 -0.7721E+00E
 2010-02-24-0451-39S.BIN__060                                                  6
 ACTION:NEW 10-04-24 13:22 OP:moh  STATUS:               ID:20100224045144 L   I
 STAT SP IPHASW D HRMM SECON CODA AMPLIT PERI AZIMU VELO AIN AR TRES W  DIS CAZ7
 GHVR BZ EPg       451 58.20                              90    0.1110 78.0 266 
 GHVR BZ  IAML     452 16.80      2794.6 0.79                          78.0 266 
 DAMV BZ EPg       452  5.36                              90    0.1410  122 355 
 CHTH BZ EPg       452 13.54                              90   -0.2410  176 330 
 ASAO BZ EPg       452 15.94                              90   -0.0010  190 271 
 NASN BZ EPg       452 18.13                              90   -0.0110  204 161 
 KHMZ BZ EPg       452 19.86                              90   -0.0910  215 246 
 ZNJK BZ EPn       452 40.85                              52    0.02 9  389 308 
 ZNJK BZ  IAML     453 43.91        51.8 0.53                           389 308 
 SNGE BZ EPn       452 47.02                              52    0.10 9  439 279 
                                                                                
