 2010  1 1 0234 54.4 L  40.596  51.815 14.7  INS  9 0.3 4.1LINS                1
 GAP=230        0.54       8.1     2.6  0.0 -0.1054E+02  0.3225E+02  0.8852E+02E
 2010-01-01-0235-30S.BIN__057                                                  6
 ACTION:NEW 10-07-07 13:53 OP:moh  STATUS:               ID:20100101023454 L   I
 STAT SP IPHASW D HRMM SECON CODA AMPLIT PERI AZIMU VELO AIN AR TRES W  DIS CAZ7
 GRMI BZ EPn       235 50.28                              52   -0.3010  390 241 
 MRVT BZ EPn       236  3.15                              52   -0.08 9  493 130 
 MRVT BZ  IAML     236 51.94       596.6 0.48                           493 130 
 CHTH BZ EPn       236  6.84                              52   -0.45 9  524 187 
 DAMV BZ EPn       236 10.94                              52    0.24 9  551 179 
 DAMV BZ  IAML     237  9.05       709.0 0.32                           551 179 
 MAKU BZ EPn       236 20.07                              52    0.36 8  624 260 
 GHVR BZ EPn       236 27.18                              52    0.61 8  680 184 
 ASAO BZ EPn       236 27.95                              52    0.10 8  689 194 
 ASAO BE           237  6.97                                            689 194 
 SNGE BZ EPn       236 32.27                              52   -0.10 7  726 214 
 NASN BZ EPn       236 50.21                              52   -0.04 6  869 174 
 TABS BZ EPn       236 54.13                              52   -0.10 6  903 147 
                                                                                
 2010  1 1 2145 39.2 L  35.631  48.865 15.0F INS  5 0.8 3.1LINS                1
 GAP=194        1.79       9.5     5.3  0.0 -0.2838E+01  0.3225E+02  0.8852E+02E
 2010-01-01-2145-46S.BIN__054                                                  6
 ACTION:NEW 10-07-07 13:53 OP:moh  STATUS:               ID:20100101214540 L   I
 STAT SP IPHASW D HRMM SECON CODA AMPLIT PERI AZIMU VELO AIN AR TRES W  DIS CAZ7
 SNGE BZ EPg      2146  4.31                              90   -0.0210  150 247 
 SNGE BN ESg      2146 22.49                              90   -0.1510  150 247 
 SNGE BZ  IAML    2146 24.85      1379.1 0.28                           150 247 
 ASAO BZ EPg      2146  5.51                              90   -0.4010  160 138 
 ASAO BE ESg      2146 25.25                              90   -0.1310  160 138 
 ASAO BZ  IAML    2146 27.46       308.0 0.44                           160 138 
 CHTH BZ EPg      2146 11.86                              90   -1.4710  207  81 
 CHTH BZ  IAML    2146 42.97       116.1 0.40                           207  81 
 GHVR BZ EPn      2146 19.11                              52    0.9310  252 120 
 DAMV BZ EPn      2146 23.34                              52    1.3110  281  89 
 DAMV BZ  IAML    2147  3.69       180.0 0.64                           281  89 
                                                                                
 2010  1 2 2213 12.3 L  36.822  59.638 40.0F INS  4 0.5 3.3LINS                1
 GAP=233        0.98      13.2    18.5  0.0  0.2274E+03  0.3225E+02  0.8852E+02E
 2010-01-02-2212-49S.BIN__057                                                  6
 ACTION:NEW 10-07-07 13:53 OP:moh  STATUS:               ID:20100102221309 L   I
 STAT SP IPHASW D HRMM SECON CODA AMPLIT PERI AZIMU VELO AIN AR TRES W  DIS CAZ7
 BJRD BZ EPg      2213 47.17                              97   -0.7110  220 297 
 BJRD BN ESg      2214 14.27                              97    0.4210  220 297 
 BJRD BZ  IAML    2214 21.64       694.9 1.33                           220 297 
 MRVT BZ EPn      2213 58.72                              54    0.30 9  328 288 
 MRVT BZ  IAML    2214 51.51       171.8 0.68                           328 288 
 SHRT BZ EPn      2214  2.47                              54    0.45 9  357 170 
 TABS BZ EPn      2214  9.39                              54   -0.46 9  420 214 
                                                                                
 2010  1 4 1737  6.3 L  31.990  49.017 14.1  INS  3 0.0 3.2LINS                1
 GAP=228        0.34       3.0     4.4  5.6 -0.9078E+01 -0.2114E+02  0.1183E+02E
 2010-01-04-1736-51S.BIN__051                                                  6
 ACTION:NEW 10-07-07 13:53 OP:moh  STATUS:               ID:20100104173706 L   I
 STAT SP IPHASW D HRMM SECON CODA AMPLIT PERI AZIMU VELO AIN AR TRES W  DIS CAZ7
 SHGR BZ EPg      1737 11.20                             109   -0.0110 24.2 303 
 SHGR BZ  IAML    1737 17.93     15617.2 0.29                          24.2 303 
 ASAO BZ EPn      1737 51.36                              52    0.0510  299  18 
 ASAO BN ESg      1738 30.49                              90   -0.0210  299  18 
 ASAO BZ  IAML    1738 40.74        54.9 0.60                           299  18 
 NASN BE EPn      1737 59.87                              52   -0.02 9  368  75 
                                                                                
 2010  1 5 1854 18.5 L  26.497  60.538 14.5  INS  4 9.4 2.6LINS                1
 GAP=339       15.53     999.9   999.9999.9 -0.9441E+08 -0.1325E+09  0.9610E+09E
 ACTION:UPD 10-07-07 13:53 OP:moh  STATUS:               ID:20100105185443 L   I
 2010-01-05-1855-00S.BIN__069                                                  6
 STAT SP IPHASW D HRMM SECON CODA AMPLIT PERI AZIMU VELO AIN AR TRES W  DIS CAZ7
 CHBR BZ EPn      1855 45.30                              52            100 183 
 CHBR BZ  IAML    1856 52.07        42.3 0.92                           100 183 
 ZHSF BZ EPN5     1855 20.06                              52   10.7610  346   4 
 ZHSF BN ESg      1855 48.68                              90   -6.9110  346   4 
 ZHSF BZ  IAML    1855 53.55       276.3 0.48                           346   4 
 SHRT BZ EPn      1855 57.57                              52   -7.18 6  793 358 
 MRVT BZ EPn      1856 52.60                              52   -16.0 2 1307 342 
                                                                                
 2010  1 6 1417 45.6 L  27.487  55.189 14.2  INS  7 0.1 4.3LINS                1
 GAP=182        0.35       3.9     3.5  8.5  0.7386E+01 -0.2747E+02 -0.1493E+02E
 ACTION:UPD 10-07-07 13:53 OP:moh  STATUS:               ID:20100106141745 L   I
 2010-01-06-1418-07S.BIN__057                                                  6
 STAT SP IPHASW D HRMM SECON CODA AMPLIT PERI AZIMU VELO AIN AR TRES W  DIS CAZ7
 GHIR BZ EPg      1418 23.90                              90   -0.0610  234 293 
 GHIR BN ESg      1418 51.97                              90    0.0210  234 293 
 GHIR BZ  IAML    1419  9.68      3649.2 0.60                           234 293 
 KRBR BZ EPn      1418 32.97                              52    0.1110  316  29 
 KRBR BZ  IAML    1419 21.55      2974.7 0.52                           316  29 
 CHBR BZ EPn      1419  3.72                              52   -0.01 8  567 110 
 ZHSF BZ EPn      1419  7.29                              52    0.02 7  594  65 
 TABS BZ EPn      1419 20.99                              52   -0.31 7  708  15 
 SHGR BZ EPn      1419 33.05                              52    0.16 6  802 311 
 SHRT BZ EPn      1419 37.71                              52    0.04 6  840  34 
                                                                                
 2010  1 7 0317  5.4 L  30.656  50.320 34.5  INS  5 0.0 3.1LINS                1
 GAP=184        0.30       2.4     4.1  5.6  0.5652E+01 -0.1862E+02 -0.2603E+01E
 2010-01-07-0317-25S.BIN__057                                                  6
 ACTION:NEW 10-07-07 13:53 OP:moh  STATUS:               ID:20100107031704 L   I
 STAT SP IPHASW D HRMM SECON CODA AMPLIT PERI AZIMU VELO AIN AR TRES W  DIS CAZ7
 SHGR BZ EPg       317 40.16                              95   -0.0210  216 318 
 SHGR BN ESg       318  5.58                              95    0.0210  216 318 
 SHGR BZ  IAML     318 12.11       390.2 0.56                           216 318 
 NASN BZ EPn       317 53.10                              54    0.04 9  335  44 
 GHIR BZ EPn       317 57.11                              54    0.00 9  369 135 
 GHIR BZ  IAML     318 41.12        97.8 0.40                           369 135 
 SNGE BZ EPN5      318 21.64                              54    0.02 8  565 331 
 SNGE BZ  IAML     319 22.30        50.1 0.56                           565 331 
 DAMV BZ EPn       318 22.53                              54   -0.09 8  573  15 
                                                                                
 2010  1 8 0228 16.4 L  29.400  52.627 17.9  INS  3 0.2 2.7LINS                1
 GAP=199        0.48       1.7     2.9  4.8  0.8018E+00  0.2316E+01 -0.7807E+00E
 2010-01-08-0228-24S.BIN__060                                                  6
 ACTION:NEW 10-07-07 13:53 OP:moh  STATUS:               ID:20100108022818 L   I
 STAT SP IPHASW D HRMM SECON CODA AMPLIT PERI AZIMU VELO AIN AR TRES W  DIS CAZ7
 GHIR BZ EPg       228 37.97                              92    0.0310  128 164 
 GHIR BZ  IAML     229  7.19       207.5 0.52                           128 164 
 NASN BZ EPn       229 10.53                              52   -0.27 9  377   3 
 NASN BE ESg       230  2.33                              91    0.14 9  377   3 
 KRBR BZ EPn       229 14.50                              52    0.19 9  405  80 
 KRBR BE ESg       230  9.81                              91   -0.09 9  405  80 
 KRBR BZ  IAML     230 15.05        40.8 0.64                           405  80 
                                                                                
 2010  1 9 0827 30.9 L  29.856  51.135 15.0  INS  5 0.4 3.1LINS                1
 GAP=185        0.81       6.1     8.3999.9  0.2866E+02 -0.4554E+02 -0.4396E+02E
 2010-01-09-0827-50S.BIN__060                                                  6
 ACTION:NEW 10-07-07 13:53 OP:moh  STATUS:               ID:20100109082730 L   I
 STAT SP IPHASW D HRMM SECON CODA AMPLIT PERI AZIMU VELO AIN AR TRES W  DIS CAZ7
 GHIR BZ EPn       828  9.64                              52   -0.0810  251 134 
 GHIR BZ  IAML     829  1.08       156.8 0.66                           251 134 
 SHGR BZ EPn       828 20.16                              52    0.13 9  335 319 
 SHGR BZ  IAML     829  0.71       243.7 0.59                           335 319 
 NASN BZ EPn       828 23.43                              52   -0.43 9  363  26 
 ASAO BZ EPn       828 44.60                              52   -0.06 8  531 349 
 TABS BZ EPn       829  7.07                              52    0.82 7  706  52 
                                                                                
 2010  110 0652 23.7 L  35.701  48.961 14.2  INS  9 0.4 3.6LINS                1
 GAP=101        0.89       2.7     3.5  6.7  0.3860E+01 -0.1582E+01  0.2970E+01E
 2010-01-10-0652-22S.BIN__057                                                  6
 ACTION:NEW 10-07-07 13:53 OP:moh  STATUS:               ID:20100110065223 L   I
 STAT SP IPHASW D HRMM SECON CODA AMPLIT PERI AZIMU VELO AIN AR TRES W  DIS CAZ7
 ZNJK BZ EPg       652 42.54                              90    0.0710  110 347 
 ZNJK BE ESg       652 56.41                              90    0.2210  110 347 
 SNGE BZ EPg       652 50.05                              90   -0.5010  161 246 
 SNGE BZ  IAML     653 11.28      4893.7 0.48                           161 246 
 CHTH BZ EPg       652 55.63                              90   -0.6010  197  83 
 GHVR BZ EPg       653  4.24                              90   -0.0210  248 122 
 GHVR BN ESg       653 33.95                              90    0.0810  248 122 
 GHVR BZ  IAML     653 45.25       504.9 0.81                           248 122 
 DAMV BZ EPn       653  5.36                              52   -0.1110  273  91 
 DAMV BZ  IAML     653 42.39       739.0 0.45                           273  91 
 SHGR BZ EPn       653 21.56                              52    0.72 9  399 182 
 SHGR BZ  IAML     654 27.07       179.8 0.67                           399 182 
 MRVT BZ EPn       653 55.19                              52    0.18 7  673  69 
 TABS BZ EPn       654  8.92                              52    0.44 6  781 105 
 SHRT BZ EPn       654 43.62                              52    0.24 4 1062  99 
                                                                                
 2010  110 1520 33.3 L  27.040  55.492 18.0  INS  5 0.1 3.1LINS                1
 GAP=206        0.35       4.2     4.5 10.6  0.1127E+02  0.4077E+02  0.3060E+02E
 2010-01-10-1520-53S.BIN__054                                                  6
 ACTION:NEW 10-07-07 13:53 OP:moh  STATUS:               ID:20100110152033 L   I
 STAT SP IPHASW D HRMM SECON CODA AMPLIT PERI AZIMU VELO AIN AR TRES W  DIS CAZ7
 KRBR BZ EPn      1521 24.34                              52    0.1210  349  21 
 KRBR BZ  IAML    1522 13.53       436.1 0.60                           349  21 
 CHBR BZ EPn      1521 45.59                              52    0.04 9  523 107 
 CHBR BZ  IAML    1523 12.29        27.3 0.52                           523 107 
 ZHSF BZ EPn      1521 53.97                              52   -0.12 8  590  60 
 ZHSF BE ESg      1523 17.54                              90    0.01 8  590  60 
 TABS BZ EPn      1522 13.57                              52   -0.18 7  749  12 
 SHGR BZ EPn      1522 27.09                              52    0.02 6  858 313 
                                                                                
 2010  110 1717 48.5 L  27.023  55.457 15.0  INS  8 0.2 3.3LINS                1
 GAP=206        0.45       5.3     4.8999.9  0.1522E+02 -0.2197E+02 -0.3532E+02E
 2010-01-10-1718-20S.BIN__054                                                  6
 ACTION:NEW 10-07-07 13:53 OP:moh  STATUS:               ID:20100110171749 L   I
 STAT SP IPHASW D HRMM SECON CODA AMPLIT PERI AZIMU VELO AIN AR TRES W  DIS CAZ7
 KRBR BZ EPn      1718 40.12                              52    0.0810  352  21 
 KRBR BZ  IAML    1719 18.45       670.2 0.74                           352  21 
 CHBR BZ EPn      1719  1.30                              52   -0.04 9  526 106 
 ZHSF BZ EP       1719 10.09                              52    0.06 8  594  60 
 ZHSF BZ  IAML    1720 38.34        23.5 0.63                           594  60 
 NASN BZ EPn      1719 21.96                              52    0.01 7  689 339 
 TABS BZ EPn      1719 29.48                              52   -0.04 7  752  12 
 SHGR BZ EPn      1719 42.75                              52    0.38 6  856 313 
 SHRT BZ EPn      1719 43.93                              52   -0.09 6  869  31 
 ASAO BZ EPn      1719 57.64                              52   -0.72 5  983 329 
                                                                                
 2010  111 0016 52.0 L  31.883  56.114 14.1  INS  3 0.2 2.8LINS                1
 GAP=138        0.54       1.8    26.4 41.7  0.1837E+01  0.1088E+04 -0.1449E+01E
 2010-01-11-0017-08S.BIN__060                                                  6
 ACTION:NEW 10-07-07 13:53 OP:moh  STATUS:               ID:20100111001652 L   I
 STAT SP IPHASW D HRMM SECON CODA AMPLIT PERI AZIMU VELO AIN AR TRES W  DIS CAZ7
 TABS BZ EPg       017 27.69                              90    0.0610  217  25 
 TABS BZ  IAML     018  4.15        88.4 0.80                           217  25 
 KRBR BZ EPg       017 27.85                              90   -0.2810  220 164 
 KRBR BE ESg       017 54.72                              90    0.2010  220 164 
 KRBR BZ  IAML     017 57.86       233.5 0.36                           220 164 
 NASN BZ EPn       017 40.62                              52    0.03 9  327 289 
                                                                                
 2010  113 1022 13.0 L  26.666  53.406 39.4  INS 11 0.2 3.9LINS                1
 GAP=232        0.39       7.4     6.1  4.8  0.3432E+02 -0.4412E+01  0.8049E+01E
 ACTION:UPD 10-07-07 13:53 OP:moh  STATUS:               ID:20100113102229 L   I
 2010-01-13-1022-00S.BIN__069                                                  6
 STAT SP IPHASW D HRMM SECON CODA AMPLIT PERI AZIMU VELO AIN AR TRES W  DIS CAZ7
 GHIR BZ EPg      1022 43.07                              98   -0.0110  184 347 
 GHIR BZ  IAML    1023 13.33      5388.9 0.74                           184 347 
 KRBR BZ EPn      1023 20.05                              54    0.12 8  493  41 
 KRBR BZ  IAML    1024 21.72       342.5 0.47                           493  41 
 NASN BZ EPn      1023 43.61                              54    0.21 7  682 355 
 NASN BZ  IAML    1024 53.99       133.1 0.51                           682 355 
 CHBR BZ EPn      1023 47.47                              54    0.03 7  717  98 
 ZHSF BZ EPn      1023 57.03                              54   -0.02 6  793  64 
 TABS BZ EPn      1024  3.95                              54   -0.43 6  853  24 
 GHVR BZ EPn      1024  9.42                              54    0.33 5  891 347 
 ASAO BZ EPn      1024 14.37                              54   -0.01 5  932 340 
 DAMV BZ EPn      1024 23.12                              54   -0.15 4 1003 353 
 SHRT BZ EPn      1024 24.88                              54   -0.09 4 1019  39 
 SNGE BZ EPn      1024 34.55                              54   -0.53 4 1099 330 
                                                                                
 2010  113 1318 48.7 L  36.320  54.606 14.1  INS  4 0.1 2.8LINS                1
 GAP=205        0.33       8.5     6.6  4.5 -0.5539E+02 -0.1936E+02  0.2749E+02E
 2010-01-13-1318-51S.BIN__054                                                  6
 ACTION:NEW 10-07-07 13:53 OP:moh  STATUS:               ID:20100113131848 L   I
 STAT SP IPHASW D HRMM SECON CODA AMPLIT PERI AZIMU VELO AIN AR TRES W  DIS CAZ7
 MRVT BZ EPg      1319 21.29                              90   -0.0910  199  41 
 MRVT BN ESg      1319 45.31                              90    0.0710  199  41 
 MRVT BZ  IAML    1319 51.04       166.6 0.52                           199  41 
 DAMV BZ EPn      1319 27.71                              52    0.0810  250 253 
 DAMV BN ESg      1319 59.45                              90    0.0210  250 253 
 DAMV BZ  IAML    1320  2.82        99.4 0.40                           250 253 
 CHTH BZ EPn      1319 35.88                              52   -0.0810  317 263 
 ASAO BZ EPn      1319 53.73                              52   -0.01 8  460 246 
                                                                                
 2010  113 1552 26.3 L  28.250  56.373 14.1  INS  5 0.1 3.3LINS                1
 GAP=147        0.31       2.2     2.5  5.4  0.1146E+01  0.5836E+01  0.9408E+01E
 2010-01-13-1552-39S.BIN__054                                                  6
 ACTION:NEW 10-07-07 13:53 OP:moh  STATUS:               ID:20100113155226 L   I
 STAT SP IPHASW D HRMM SECON CODA AMPLIT PERI AZIMU VELO AIN AR TRES W  DIS CAZ7
 KRBR BZ EPg      1552 58.67                              90   -0.0010  196  11 
 KRBR BN ESg      1553 22.26                              90   -0.0310  196  11 
 KRBR BZ  IAML    1553 28.79      1097.3 0.68                           196  11 
 GHIR BZ EPn      1553 15.31                              52   -0.06 9  332 271 
 GHIR BZ  IAML    1554 25.47       214.0 0.48                           332 271 
 CHBR BZ EPn      1553 36.43                              52    0.00 8  503 125 
 CHBR BZ  IAML    1554 29.01        69.9 0.44                           503 125 
 TABS BZ EPn      1553 48.99                              52    0.02 7  603   7 
 NASN BZ EPn      1553 50.08                              52    0.13 7  609 327 
                                                                                
