 2010  211 1629 40.8 L  33.317  47.131 14.9  BIN  9 0.4 4.3LBIN                1
 GAP=236        1.29       7.9    14.9 10.2  0.1004E+03 -0.1138E+03 -0.6097E+02E
 2010-02-11-1629-53S.BIN__063                                                  6
 ACTION:NEW 10-04-24 13:22 OP:moh  STATUS:               ID:20100211162942 L   I
 STAT SP IPHASW D HRMM SECON CODA AMPLIT PERI AZIMU VELO AIN AR TRES W  DIS CAZ7
 SNGE BZ EPg      1630 13.71                              90     0.310  198   6 
 SNGE BZ  IAML    1630 40.65      4040.5 0.44                           198   6 
 SHGR BZ EPg      1630 14.70                              90     0.110  206 130 
 SHGR BN ESg      1630 39.36                              90     0.110  206 130 
 SHGR BZ  IAML    1630 48.13      2749.0 0.60                           206 130 
 KHMZ BZ EPn      1630 21.57                              52    -0.210  267  79 
 KHMZ BN  Sn      1630 52.11                              52     0.410  267  79 
 KHMZ BZ  IAML    1631  1.25      1335.9 0.64                           267  79 
 ASAO BZ EPn      1630 25.86                              52    -0.110  300  62 
 ZNJK BZ EPn      1630 38.55                              52     0.5 9  398  20 
 ZNJK BZ EPg      1630 45.08                              90    -0.2 9  398  20 
 GHVR BZ EPn      1630 38.31                              52     0.0 9  402  70 
 GHVR BZ  IAML    1631 41.55       664.1 0.56                           402  70 
 CHTH BZ EPn      1630 45.36                              52    -1.1 8  466  51 
 CHTH BN  Sn      1631 34.67                              52     0.2 8  466  51 
 DAMV BZ EPn      1630 51.66                              52    -0.7 8  513  59 
 GRMI BZ EPn      1631  5.26                              52     0.6 7  613   6 
                                                                                
 2010  211 1940 52.2 L  28.132  51.532 29.0  BIN  4 0.0 3.3LBIN                1
 GAP=266        0.31       8.5     4.0  5.8  0.1279E+02  0.1223E+02 -0.2067E+02E
 ACTION:UPD 10-04-24 13:22 OP:moh  STATUS:               ID:20100211194052 L   I
 2010-02-11-1940-30S.BIN__069                                                  6
 STAT SP IPHASW D HRMM SECON CODA AMPLIT PERI AZIMU VELO AIN AR TRES W  DIS CAZ7
 GHIR BZ EPg      1941 15.89                              96     0.010  144  83 
 GHIR BN ESg      1941 33.20                              96     0.010  144  83 
 GHIR BZ  IAML    1941 40.17       739.8 0.52                           144  83 
 KRBR BZ EPn      1942  6.99                              54     0.0 8  549  67 
 KRBR BZ  IAML    1943  9.25        16.8 0.52                           549  67 
 ASAO BZ EPn      1942 28.92                              54     0.0 6  726 349 
 TABS BZ EPn      1942 39.39                              54    -0.1 6  812  40 
                                                                                
 2010  211 2107 52.6 L  30.931  50.117 15.0  BIN  7 0.1 3.9LBIN                1
 GAP=181        0.36       2.9     5.2  7.6  0.1029E+02 -0.3297E+02 -0.9430E+01E
 2010-02-11-2105-49S.BIN__063                                                  6
 ACTION:NEW 10-04-24 13:22 OP:moh  STATUS:               ID:20100211210752 L   I
 STAT SP IPHASW D HRMM SECON CODA AMPLIT PERI AZIMU VELO AIN AR TRES W  DIS CAZ7
 SHGR BZ EPg      21 8 22.31                              91     0.010  181 317 
 SHGR BZ  IAML    21 8 52.98      2460.0 0.88                           181 317 
 KHMZ BZ EPn      21 8 39.10                              52     0.010  312 357 
 KHMZ BZ  IAML    21 9 33.09       251.9 0.80                           312 357 
 NASN BZ EPn      21 8 41.36                              52     0.1 9  328  50 
 ASAO BZ EPn      21 8 50.15                              52    -0.1 9  401 359 
 GHIR BZ EPn      21 8 50.47                              52     0.0 9  404 136 
 GHIR BZ  IAML    2110  7.85       228.1 0.48                           404 136 
 KRBR BZ EPn      21 9 20.58                              52    -0.2 7  647  98 
 TABS BZ EPn      21 9 30.25                              52     0.0 6  725  64 
                                                                                
 2010  212 0829 17.1 L  30.523  49.904 41.6  BIN  5 0.1 4.2LBIN                1
 GAP=283        0.46       8.5     7.3  6.4  0.3716E+02 -0.2490E+02  0.1093E+02E
 2010-02-12-0829-31S.BIN__063                                                  6
 ACTION:NEW 10-04-24 13:22 OP:moh  STATUS:               ID:20100212082917 L   I
 STAT SP IPHASW D HRMM SECON CODA AMPLIT PERI AZIMU VELO AIN AR TRES W  DIS CAZ7
 SHGR BZ EPg       829 50.12                              98    -0.110  205 329 
 SHGR BE ESg       830 14.42                              98     0.110  205 329 
 SHGR BZ  IAML     830 22.04      2207.2 0.79                           205 329 
 KHMZ BZ EPn       830  6.69                              54     0.0 9  357   1 
 NASN BZ EPn       830  9.05                              54     0.1 9  374  47 
 ASAO BZ EPn       830 17.68                              54    -0.2 9  447   1 
 SNGE BZ EPn       830 32.23                              54     0.2 8  561 335 
 SNGE BZ  IAML     831  0.67        89.1 0.70                           561 335 
                                                                                
 2010  214 0326 47.2 L  30.578  49.909 43.0  BIN  6 0.0 4.2LBIN                1
 GAP=281        0.29       5.3     4.4  3.9  0.1331E+02 -0.1012E+02  0.3324E+01E
 2010-02-14-0327-00S.BIN__063                                                  6
 ACTION:NEW 10-04-24 13:22 OP:moh  STATUS:               ID:20100214032647 L   I
 STAT SP IPHASW D HRMM SECON CODA AMPLIT PERI AZIMU VELO AIN AR TRES W  DIS CAZ7
 SHGR BZ EPg       327 19.59                              99     0.010  200 328 
 SHGR BN ESg       327 43.25                              99     0.010  200 328 
 SHGR BZ  IAML     327 51.18      3000.7 0.17                           200 328 
 KHMZ BZ EPn       327 36.04                              54     0.1 9  351   1 
 KHMZ BZ  IAML     328 31.19       360.8 1.86                           351   1 
 NASN BZ EPn       327 38.40                              54     0.0 9  369  47 
 ASAO BZ EPn       327 47.10                              54    -0.1 9  440   1 
 ASAO BZ  IAML     328 55.13       306.9 0.28                           440   1 
 GHVR BZ EPn       327 48.25                              54     0.0 9  451  16 
 SNGE BZ EPn       328  1.40                              54     0.0 8  555 335 
 SNGE BZ  IAML     328 29.79       130.4 0.33                           555 335 
                                                                                
 2010  215 0918 29.5 L  28.626  54.959 17.1  BIN  8 0.1 3.6LBIN                1
 GAP=121        0.29       1.7     1.3  3.1 -0.1094E-01  0.2195E+00 -0.3176E+01E
 2010-02-15-0918-40S.BIN__063                                                  6
 ACTION:NEW 10-04-24 13:22 OP:moh  STATUS:               ID:20100215091829 L   I
 STAT SP IPHASW D HRMM SECON CODA AMPLIT PERI AZIMU VELO AIN AR TRES W  DIS CAZ7
 BNDS BZ EPg       918 59.43                              91     0.010  181 138 
 BNDS BZ  IAML     919 33.27       388.2 0.25                           181 138 
 GHIR BZ EPg       919  1.94                              91     0.010  197 259 
 GHIR BZ  IAML     919 41.77       544.2 0.29                           197 259 
 KRBR BZ EPg       919  7.43                              91     0.010  231  49 
 KRBR BZ  IAML     919 40.95       757.4 0.64                           231  49 
 NASN BZ EPn       919 40.12                              52     0.0 8  506 337 
 ZHSF BZ EPn       919 48.65                              52     0.0 8  576  78 
 TABS BZ EPn       919 50.76                              52     0.0 7  594  20 
 ASAO BZ EPn       920 17.18                              52    -0.1 6  806 326 
 DAMV BZ EPn       920 19.95                              52     0.2 6  826 341 
                                                                                
 2010  215 1039 25.9 L  31.058  50.033 14.1  BIN  5 0.1 3.0LBIN                1
 GAP=262        0.44       3.9     4.3  6.4 -0.6025E+01 -0.1728E+02  0.1691E+02E
 2010-02-15-1039-06S.BIN__060                                                  6
 ACTION:NEW 10-04-24 13:22 OP:moh  STATUS:               ID:20100215103925 L   I
 STAT SP IPHASW D HRMM SECON CODA AMPLIT PERI AZIMU VELO AIN AR TRES W  DIS CAZ7
 SHGR BZ EPg      1039 53.04                              90    -0.110  165 315 
 SHGR BZ  IAML    1040 16.26       336.1 0.41                           165 315 
 KHMZ BZ EPn      1040 10.84                              52     0.110  297 359 
 KHMZ BE ESg      1040 49.64                              90     0.010  297 359 
 KHMZ BZ  IAML    1040 52.52        29.1 0.65                           297 359 
 NASN BZ EPn      1040 14.21                              52    -0.1 9  326  53 
 ASAO BZ EPn      1040 22.04                              52     0.2 9  387 360 
 SNGE BZ EPn      1040 37.40                              52    -0.1 8  513 331 
                                                                                
 2010  216 0818 59.4 L  29.597  57.477  7.0  BIN  5 0.0 3.2LBIN                1
 GAP=119        0.31       1.8     2.4  5.1 -0.8386E+00 -0.1031E+02  0.4182E+01E
 ACTION:UPD 10-04-24 13:22 OP:moh  STATUS:               ID:20100216081859 L   I
 2010-02-16-0819-00S.BIN__069                                                  6
 STAT SP IPHASW D HRMM SECON CODA AMPLIT PERI AZIMU VELO AIN AR TRES W  DIS CAZ7
 KRBR BZ EPg       819 13.81                              91     0.010 81.3 302 
 KRBR BN ESg       819 24.43                              91     0.010 81.3 302 
 KRBR BZ  IAML     819 24.87      1608.4 0.27                          81.3 302 
 BNDS BZ EPn       819 42.21                              47     0.010  275 208 
 BNDS BZ  IAML     820 21.13       116.9 0.56                           275 208 
 ZHSF BZ EPn       819 47.80                              47     0.0 9  320  89 
 TABS BZ EPN5      820  3.95                              47     0.0 9  451 356 
 TABS BZ  IAML     821 20.12        26.6 0.51                           451 356 
 SHRT BZ EPN5      820 12.83                              47     0.0 8  522  30 
                                                                                
 2010  218 2108 10.8 L  30.743  50.244 14.2F BIN  9 0.3 4.5LBIN                1
 GAP=183        0.72       4.6     5.7  0.0  0.1642E+02 -0.2374E+01 -0.1251E+01E
 ACTION:UPD 10-04-24 13:22 OP:moh  STATUS:               ID:20100218210811 L   I
 2010-02-18-2108-29S.BIN__060                                                  6
 STAT SP IPHASW D HRMM SECON CODA AMPLIT PERI AZIMU VELO AIN AR TRES W  DIS CAZ7
 SHGR BZ EPg      21 8 44.15                              90    -0.110  204 318 
 SHGR BZ  IAML    21 9 16.52      2247.2 0.60                           204 318 
 NASN BZ EPn      21 9  0.26                              52     0.1 9  333  46 
 GHIR BZ EPn      21 9  5.98                              52     0.2 9  381 135 
 GHIR BZ  IAML    2110 15.31      1448.2 0.52                           381 135 
 ASAO BZ EPn      21 9 11.41                              52     0.2 9  423 357 
 GHVR BZ EPn      21 9 11.66                              52     0.4 9  425  13 
 GHVR BZ  IAML    2110  6.15       169.9 0.72                           425  13 
 DAMV BZ EPn      21 9 28.35                              52    -0.6 8  566  16 
 KRBR BZ EPn      21 9 37.11                              52    -0.1 7  632  96 
 KRBR BZ  IAML    2110 45.91       265.5 0.48                           632  96 
 BNDS BZ EPn      21 9 43.58                              52    -0.2 7  686 121 
 BNDS BZ  IAML    2110 55.47       261.6 0.60                           686 121 
 TABS BZ EPn      21 9 48.23                              52    -0.2 6  724  62 
                                                                                
 2010  219 0431 13.9 L  28.428  52.211 38.9  BIN  4 0.0 3.2LBIN                1
 GAP=261        0.33       2.7     3.3  3.1 -0.6187E+00  0.5656E+01 -0.2257E+01E
 ACTION:UPD 10-04-24 13:22 OP:moh  STATUS:               ID:20100219043114 L   I
 2010-02-19-0430-00S.BIN__069                                                  6
 STAT SP IPHASW D HRMM SECON CODA AMPLIT PERI AZIMU VELO AIN AR TRES W  DIS CAZ7
 GHIR BZ EPg       431 28.08                             113     0.010 77.7 102 
 GHIR BZ  IAML     431 47.23      1328.4 0.40                          77.7 102 
 BNDS BZ EPn       432  9.96                              54     0.0 9  406 105 
 BNDS BZ  IAML     433 24.21        36.9 0.52                           406 105 
 KRBR BZ EPN5      432 18.53                              54    -0.1 8  475  68 
 KRBR BE ESg       433 23.23                              93     0.0 8  475  68 
 KRBR BZ  IAML     433 33.58        21.9 0.64                           475  68 
 NASN BZ EPn       432 20.29                              54     0.0 8  488   7 
                                                                                
 2010  219 1012 19.1 L  27.421  53.743 37.0  BIN  4 0.2 3.3LBIN                1
 GAP=232        0.70      12.1     6.9  5.7  0.7864E+02 -0.1085E+02 -0.1533E+02E
 2010-02-19-1012-34S.BIN__063                                                  6
 ACTION:NEW 10-04-24 13:22 OP:moh  STATUS:               ID:20100219101220 L   I
 STAT SP IPHASW D HRMM SECON CODA AMPLIT PERI AZIMU VELO AIN AR TRES W  DIS CAZ7
 GHIR BZ EPg      1012 39.88                             103     0.310  121 322 
 GHIR BN ESg      1012 54.41                             103    -0.110  121 322 
 GHIR BZ  IAML    1012 58.90       321.0 0.56                           121 322 
 BNDS BZ EPg      1012 57.45                              96    -0.310  240  90 
 BNDS BN ESg      1013 26.00                              96     0.110  240  90 
 BNDS BZ  IAML    1013 34.89       280.6 0.44                           240  90 
 KRBR BZ EPn      1013 15.90                              54     0.1 9  409  45 
 KRBR BZ  IAML    1014  5.42        91.0 0.48                           409  45 
 NASN BZ EPn      1013 39.80                              54    -0.1 7  603 352 
                                                                                
 2010  219 1125 45.6 L  35.718  57.593 14.1  BIN  8 0.3 4.3LBIN                1
 GAP=136        0.85       3.7     6.1  8.1  0.4167E+01  0.1603E+02  0.5985E+01E
 2010-02-19-1125-54S.BIN__063                                                  6
 ACTION:NEW 10-04-24 13:22 OP:moh  STATUS:               ID:20100219112548 L   I
 STAT SP IPHASW D HRMM SECON CODA AMPLIT PERI AZIMU VELO AIN AR TRES W  DIS CAZ7
 BJRD BZ EPg      1126 21.54                              90    -0.210  220 356 
 TABS BZ EPg      1126 23.35                              90    -0.510  234 191 
 TABS BZ  IAML    1126 58.42      1303.1 0.52                           234 191 
 SHRT BZ EP       1126 35.67                              52     0.4 9  338 132 
 SHRT BZ  IAML    1127 33.43      1231.4 0.52                           338 132 
 DAMV BZ EPn      1126 56.72                              52     0.0 8  509 271 
 CHTH BZ EPn      1127  6.37                              52     0.2 8  585 274 
 GHVR BZ EPn      1127  7.34                              52     0.1 7  595 258 
 ASAO BZ EPN5     1127 20.87                              52     0.2 7  702 262 
 KHMZ BZ EPN5     1127 24.72                              52     0.3 6  732 255 
                                                                                
 2010  219 2329  1.3 L  32.088  59.270 18.0  BIN  4 0.4 3.5LBIN                1
 GAP=123        1.21       4.0     5.7 11.0 -0.3571E+01 -0.1989E+02  0.1520E+02E
 2010-02-19-2327-10S.BIN__063                                                  6
 ACTION:NEW 10-04-24 13:22 OP:moh  STATUS:               ID:20100219232901 L   I
 STAT SP IPHASW D HRMM SECON CODA AMPLIT PERI AZIMU VELO AIN AR TRES W  DIS CAZ7
 SHRT BZ EPg      2329 34.12                              91     0.310  197  29 
 TABS BZ EPn      2329 41.71                              52     0.010  265 311 
 TABS BE ESg      2330 15.90                              91    -0.310  265 311 
 TABS BZ  IAML    2330 23.85       171.3 0.76                           265 311 
 ZHSF BZ EPn      2329 46.66                              52    -0.610  310 152 
 KRBR BZ EPn      2329 51.05                              52     0.6 9  334 226 
 KRBR BN ESg      2330 35.45                              91     0.0 9  334 226 
 KRBR BZ  IAML    2330 38.99       189.4 0.36                           334 226 
                                                                                
 2010  220 0521 54.3 L  37.263  56.946 22.5  BIN  5 0.2 3.1LBIN                1
 GAP=138        0.59       3.0     3.0  6.8  0.1123E+01 -0.1593E+00  0.1332E+02E
 2010-02-20-0521-46S.BIN__063                                                  6
 ACTION:NEW 10-04-24 13:22 OP:moh  STATUS:               ID:20100220052154 L   I
 STAT SP IPHASW D HRMM SECON CODA AMPLIT PERI AZIMU VELO AIN AR TRES W  DIS CAZ7
 BJRD BZ EPg       522  5.52                             100    -0.110 63.4  40 
 MRVT BZ EPg       522  9.34                              96     0.110 87.6 300 
 MRVT BN ESg       522 20.19                              96     0.010 87.6 300 
 MRVT BZ  IAML     522 22.16       790.9 0.49                          87.6 300 
 TABS BZ EPn       522 51.38                              54     0.3 9  401 178 
 TABS BZ  IAML     523 58.76        34.7 0.84                           401 178 
 DAMV BZ EPn       523  0.90                              54    -0.3 8  481 249 
                                                                                
 2010  220 0749 19.3 L  30.741  50.249 14.2  BIN  7 0.1 3.5LBIN                1
 GAP=183        0.37       3.0     6.6  8.4  0.1413E+02 -0.4830E+02 -0.1379E+02E
 2010-02-20-0748-50S.BIN__063                                                  6
 ACTION:NEW 10-04-24 13:22 OP:moh  STATUS:               ID:20100220074919 L   I
 STAT SP IPHASW D HRMM SECON CODA AMPLIT PERI AZIMU VELO AIN AR TRES W  DIS CAZ7
 SHGR BZ EPg       749 52.82                              90     0.010  205 318 
 NASN BZ EPn       750  8.56                              52    -0.1 9  333  46 
 KHMZ BZ EPn       750  8.59                              52     0.0 9  334 355 
 KHMZ BZ  IAML     750 57.85       148.6 0.56                           334 355 
 GHIR BZ EPn       750 14.29                              52     0.0 9  380 135 
 ASAO BZ EPn       750 19.77                              52     0.1 9  423 357 
 GHVR BZ EPn       750 19.98                              52     0.2 9  425  12 
 GHVR BZ  IAML     751 28.70        65.7 0.62                           425  12 
 CHTH BZ EPn       750 38.96                              52    -0.1 8  579   8 
                                                                                
