 2010  1 1 0234 54.6 L  40.583  51.797 15.0  BIN 11 0.4 4.6LBIN                1
 GAP=230        0.68      10.1     3.1  0.0 -0.1588E+02  0.0000E+00  0.0000E+00E
 2010-01-01-0235-30S.BIN__057                                                  6
 ACTION:NEW 10-07-07 13:53 OP:moh  STATUS:               ID:20100101023454 L   I
 STAT SP IPHASW D HRMM SECON CODA AMPLIT PERI AZIMU VELO AIN AR TRES W  DIS CAZ7
 GRMI BZ EPn       235 50.28                              52    -0.310  388 241 
 MRVT BZ EPn       236  3.15                              52    -0.3 9  493 130 
 MRVT BZ  IAML     236 51.94       596.6 0.48                           493 130 
 CHTH BZ EPn       236  6.84                              52    -0.5 9  522 187 
 DAMV BZ EPn       236 10.94                              52     0.2 9  550 178 
 DAMV BZ  IAML     237  9.05       709.0 0.32                           550 178 
 MAKU BZ EPn       236 20.07                              52     0.3 8  623 260 
 GHVR BZ EPn       236 27.18                              52     0.6 8  679 184 
 SNGE BZ EPn       236 32.27                              52    -0.1 7  724 214 
 NASN BZ EPn       236 50.21                              52    -0.2 6  868 174 
 TABS BZ EPn       236 54.13                              52    -0.3 6  903 147 
 ASAO BE           237  6.97                                                    
 ASAO BZ EPn       236 27.95                              52     0.1 8  688 194 
                                                                                
 2010  1 1 2145 39.2 L  35.631  48.865 15.0F BIN  5 0.8 3.2LBIN                1
 GAP=194        2.43      12.9     7.3  0.0 -0.5229E+01  0.0000E+00  0.0000E+00E
 2010-01-01-2145-46S.BIN__054                                                  6
 ACTION:NEW 10-07-07 13:53 OP:moh  STATUS:               ID:20100101214540 L   I
 STAT SP IPHASW D HRMM SECON CODA AMPLIT PERI AZIMU VELO AIN AR TRES W  DIS CAZ7
 SNGE BZ EPg      2146  4.31                              90     0.010  150 247 
 SNGE BN ESg      2146 22.49                              90    -0.210  150 247 
 SNGE BZ  IAML    2146 24.85      1379.1 0.28                           150 247 
 ASAO BZ EPg      2146  5.51                              90    -0.410  160 138 
 ASAO BE ESg      2146 25.25                              90    -0.110  160 138 
 ASAO BZ  IAML    2146 27.46       308.0 0.44                           160 138 
 CHTH BZ EPg      2146 11.86                              90    -1.510  207  81 
 CHTH BZ  IAML    2146 42.97       116.1 0.40                           207  81 
 GHVR BZ EPn      2146 19.11                              52     0.910  252 120 
 DAMV BZ EPn      2146 23.34                              52     1.310  281  89 
 DAMV BZ  IAML    2147  3.69       180.0 0.64                           281  89 
                                                                                
 2010  1 2 2213 12.8 L  36.768  59.562 40.0F BIN  5 0.6 3.7LBIN                1
 GAP=230        1.49      16.8    24.8  0.0  0.3781E+03  0.0000E+00  0.0000E+00E
 2010-01-02-2212-49S.BIN__057                                                  6
 ACTION:NEW 10-07-07 13:53 OP:moh  STATUS:               ID:20100102221309 L   I
 STAT SP IPHASW D HRMM SECON CODA AMPLIT PERI AZIMU VELO AIN AR TRES W  DIS CAZ7
 BJRD BZ EPg      2213 47.17                              97    -0.810  217 299 
 BJRD BN ESg      2214 14.27                              97     0.710  217 299 
 BJRD BZ  IAML    2214 21.64       694.9 1.33                           217 299 
 MRVT BZ EPn      2213 58.72                              54     0.3 9  324 289 
 MRVT BZ  IAML    2214 51.51       171.8 0.68                           324 289 
 SHRT BZ EPn      2214  2.47                              54     0.5 9  353 169 
 TABS BZ EPn      2214  9.39                              54     0.1 9  411 213 
                                                                                
 2010  1 4 1737  6.2 L  31.989  49.019 14.2  BIN  3 0.0 3.3LBIN                1
 GAP=228        0.36       3.2     4.6  5.9 -0.1001E+02 -0.2331E+02  0.1306E+02E
 2010-01-04-1736-51S.BIN__051                                                  6
 ACTION:NEW 10-07-07 13:53 OP:moh  STATUS:               ID:20100104173706 L   I
 STAT SP IPHASW D HRMM SECON CODA AMPLIT PERI AZIMU VELO AIN AR TRES W  DIS CAZ7
 SHGR BZ EPg      1737 11.20                             109     0.010 24.4 303 
 SHGR BZ  IAML    1737 17.93     15617.2 0.29                          24.4 303 
 ASAO BZ EPn      1737 51.36                              52     0.110  299  18 
 ASAO BN ESg      1738 30.49                              90     0.010  299  18 
 ASAO BZ  IAML    1738 40.74        54.9 0.60                           299  18 
 NASN BE EPn      1737 59.87                              52     0.0 9  368  75 
                                                                                
 2010  1 5 1854 43.7 L  29.095  58.489 14.1  BIN  4 0.0 3.3LBIN                1
 GAP=195        0.33       2.3     5.4 10.4  0.2584E+01  0.5106E+02  0.7346E+01E
 ACTION:UPD 10-07-07 13:53 OP:moh  STATUS:               ID:20100105185443 L   I
 2010-01-05-1855-00S.BIN__069                                                  6
 STAT SP IPHASW D HRMM SECON CODA AMPLIT PERI AZIMU VELO AIN AR TRES W  DIS CAZ7
 ZHSF BZ EPN5     1855 20.06                              52     0.110  229  75 
 ZHSF BN ESg      1855 48.68                              90     0.010  229  75 
 ZHSF BZ  IAML    1855 53.55       276.3 0.48                           229  75 
 CHBR BZ EPn      1855 45.30                              52     0.0 9  435 153 
 CHBR BZ  IAML    1856 52.07        42.3 0.92                           435 153 
 SHRT BZ EPn      1855 57.57                              52     0.0 8  533  18 
 MRVT BZ EPn      1856 52.60                              52     0.0 5  976 347 
                                                                                
 2010  1 6 1417 45.6 L  27.486  55.189 14.1  BIN  7 0.1 4.7LBIN                1
 GAP=182        0.39       4.3     3.9  9.4  0.9187E+01 -0.3417E+02 -0.1857E+02E
 ACTION:UPD 10-07-07 13:53 OP:moh  STATUS:               ID:20100106141745 L   I
 2010-01-06-1418-07S.BIN__057                                                  6
 STAT SP IPHASW D HRMM SECON CODA AMPLIT PERI AZIMU VELO AIN AR TRES W  DIS CAZ7
 GHIR BZ EPg      1418 23.90                              90     0.010  234 293 
 GHIR BN ESg      1418 51.97                              90     0.010  234 293 
 GHIR BZ  IAML    1419  9.68      3649.2 0.60                           234 293 
 KRBR BZ EPn      1418 32.97                              52     0.110  316  29 
 KRBR BZ  IAML    1419 21.55      2974.7 0.52                           316  29 
 CHBR BZ EPn      1419  3.72                              52     0.0 8  567 110 
 ZHSF BZ EPn      1419  7.29                              52    -0.1 7  595  65 
 TABS BZ EPn      1419 20.99                              52    -0.3 7  708  15 
 SHGR BZ EPn      1419 33.05                              52     0.2 6  802 311 
 SHRT BZ EPn      1419 37.71                              52     0.0 6  840  34 
                                                                                
 2010  1 7 0317  5.4 L  30.658  50.324 34.3  BIN  5 0.0 3.5LBIN                1
 GAP=184        0.30       2.3     4.0  5.5  0.5543E+01 -0.1837E+02 -0.2578E+01E
 2010-01-07-0317-25S.BIN__057                                                  6
 ACTION:NEW 10-07-07 13:53 OP:moh  STATUS:               ID:20100107031704 L   I
 STAT SP IPHASW D HRMM SECON CODA AMPLIT PERI AZIMU VELO AIN AR TRES W  DIS CAZ7
 SHGR BZ EPg       317 40.16                              95     0.010  216 318 
 SHGR BN ESg       318  5.58                              95     0.010  216 318 
 SHGR BZ  IAML     318 12.11       390.2 0.56                           216 318 
 NASN BZ EPn       317 53.10                              54     0.0 9  334  44 
 GHIR BZ EPn       317 57.11                              54     0.0 9  369 135 
 GHIR BZ  IAML     318 41.12        97.8 0.40                           369 135 
 SNGE BZ EPN5      318 21.64                              54     0.0 8  565 331 
 SNGE BZ  IAML     319 22.30        50.1 0.56                           565 331 
 DAMV BZ EPn       318 22.53                              54    -0.1 8  572  15 
                                                                                
 2010  1 8 0228 16.4 L  29.402  52.625 18.0  BIN  3 0.2 3.0LBIN                1
 GAP=199        0.60       2.1     3.6  6.0  0.1252E+01  0.3607E+01 -0.1214E+01E
 2010-01-08-0228-24S.BIN__060                                                  6
 ACTION:NEW 10-07-07 13:53 OP:moh  STATUS:               ID:20100108022818 L   I
 STAT SP IPHASW D HRMM SECON CODA AMPLIT PERI AZIMU VELO AIN AR TRES W  DIS CAZ7
 GHIR BZ EPg       228 37.97                              92     0.010  129 164 
 GHIR BZ  IAML     229  7.19       207.5 0.52                           129 164 
 NASN BZ EPn       229 10.53                              52    -0.3 9  377   3 
 NASN BE ESg       230  2.33                              91     0.2 9  377   3 
 KRBR BZ EPn       229 14.50                              52     0.2 9  405  80 
 KRBR BE ESg       230  9.81                              91    -0.1 9  405  80 
 KRBR BZ  IAML     230 15.05        40.8 0.64                           405  80 
                                                                                
 2010  1 9 0827 30.8 L  29.858  51.137 14.0  BIN  5 0.4 3.5LBIN                1
 GAP=185        0.91       6.8     4.3  0.0 -0.1357E+02 -0.8134E+01  0.5911E+01E
 2010-01-09-0827-50S.BIN__060                                                  6
 ACTION:NEW 10-07-07 13:53 OP:moh  STATUS:               ID:20100109082730 L   I
 STAT SP IPHASW D HRMM SECON CODA AMPLIT PERI AZIMU VELO AIN AR TRES W  DIS CAZ7
 GHIR BZ EPn       828  9.64                              47    -0.110  251 134 
 GHIR BZ  IAML     829  1.08       156.8 0.66                           251 134 
 SHGR BZ EPn       828 20.16                              47     0.1 9  335 319 
 SHGR BZ  IAML     829  0.71       243.7 0.59                           335 319 
 NASN BZ EPn       828 23.43                              47    -0.5 9  363  26 
 ASAO BZ EPn       828 44.60                              47     0.0 8  531 349 
 TABS BZ EPn       829  7.07                              47     0.9 7  705  52 
                                                                                
 2010  110 0652 23.7 L  35.701  48.961 14.2  BIN  9 0.4 4.0LBIN                1
 GAP=101        1.06       3.2     4.2  8.0  0.5457E+01 -0.2235E+01  0.4202E+01E
 2010-01-10-0652-22S.BIN__057                                                  6
 ACTION:NEW 10-07-07 13:53 OP:moh  STATUS:               ID:20100110065223 L   I
 STAT SP IPHASW D HRMM SECON CODA AMPLIT PERI AZIMU VELO AIN AR TRES W  DIS CAZ7
 ZNJK BZ EPg       652 42.54                              90     0.110  110 347 
 ZNJK BE ESg       652 56.41                              90     0.210  110 347 
 SNGE BZ EPg       652 50.05                              90    -0.510  161 246 
 SNGE BZ  IAML     653 11.28      4893.7 0.48                           161 246 
 CHTH BZ EPg       652 55.63                              90    -0.610  197  83 
 GHVR BZ EPg       653  4.24                              90     0.010  248 122 
 GHVR BN ESg       653 33.95                              90     0.110  248 122 
 GHVR BZ  IAML     653 45.25       504.9 0.81                           248 122 
 DAMV BZ EPn       653  5.36                              52    -0.110  273  91 
 DAMV BZ  IAML     653 42.39       739.0 0.45                           273  91 
 SHGR BZ EPn       653 21.56                              52     0.7 9  399 182 
 SHGR BZ  IAML     654 27.07       179.8 0.67                           399 182 
 MRVT BZ EPn       653 55.19                              52     0.2 7  673  69 
 TABS BZ EPn       654  8.92                              52     0.4 6  781 105 
 SHRT BZ EPn       654 43.62                              52     0.2 4 1062  99 
                                                                                
 2010  110 1520 33.3 L  27.045  55.499 17.9  BIN  5 0.1 3.8LBIN                1
 GAP=206        0.40       4.9     5.2 12.2  0.1487E+02  0.5388E+02  0.4035E+02E
 2010-01-10-1520-53S.BIN__054                                                  6
 ACTION:NEW 10-07-07 13:53 OP:moh  STATUS:               ID:20100110152033 L   I
 STAT SP IPHASW D HRMM SECON CODA AMPLIT PERI AZIMU VELO AIN AR TRES W  DIS CAZ7
 KRBR BZ EPn      1521 24.34                              52     0.210  348  20 
 KRBR BZ  IAML    1522 13.53       436.1 0.60                           348  20 
 CHBR BZ EPn      1521 45.59                              52     0.1 9  523 107 
 CHBR BZ  IAML    1523 12.29        27.3 0.52                           523 107 
 ZHSF BZ EPn      1521 53.97                              52    -0.2 8  590  60 
 ZHSF BE ESg      1523 17.54                              90     0.0 8  590  60 
 TABS BZ EPn      1522 13.57                              52    -0.2 7  749  12 
 SHGR BZ EPn      1522 27.09                              52    -0.1 6  858 312 
                                                                                
 2010  110 1717 48.4 L  27.024  55.458 15.0  BIN  8 0.2 4.0LBIN                1
 GAP=206        0.42       5.0     2.0  0.0 -0.4433E+01  0.1762E+02  0.1957E+02E
 2010-01-10-1718-20S.BIN__054                                                  6
 ACTION:NEW 10-07-07 13:53 OP:moh  STATUS:               ID:20100110171749 L   I
 STAT SP IPHASW D HRMM SECON CODA AMPLIT PERI AZIMU VELO AIN AR TRES W  DIS CAZ7
 KRBR BZ EPn      1718 40.12                              47     0.110  352  21 
 KRBR BZ  IAML    1719 18.45       670.2 0.74                           352  21 
 CHBR BZ EPn      1719  1.30                              47     0.0 9  526 106 
 ZHSF BZ EP       1719 10.09                              47     0.0 8  595  60 
 ZHSF BZ  IAML    1720 38.34        23.5 0.63                           595  60 
 NASN BZ EPn      1719 21.96                              47     0.0 7  689 339 
 TABS BZ EPn      1719 29.48                              47     0.0 7  752  12 
 SHGR BZ EPn      1719 42.75                              47     0.4 6  856 313 
 SHRT BZ EPn      1719 43.93                              47    -0.1 6  869  31 
 ASAO BZ EPn      1719 57.64                              47    -0.7 5  983 329 
                                                                                
 2010  111 0016 52.0 L  31.880  56.109 14.1  BIN  4 0.2 3.1LBIN                1
 GAP=138        0.65       2.2    10.2 14.1 -0.3340E+01  0.1218E+03 -0.1193E+02E
 2010-01-11-0017-08S.BIN__060                                                  6
 ACTION:NEW 10-07-07 13:53 OP:moh  STATUS:               ID:20100111001652 L   I
 STAT SP IPHASW D HRMM SECON CODA AMPLIT PERI AZIMU VELO AIN AR TRES W  DIS CAZ7
 TABS BZ EPg       017 27.69                              90    -0.110  218  25 
 TABS BZ  IAML     018  4.15        88.4 0.80                           218  25 
 KRBR BZ EPg       017 27.85                              90    -0.310  219 163 
 KRBR BE ESg       017 54.72                              90     0.210  219 163 
 KRBR BZ  IAML     017 57.86       233.5 0.36                           219 163 
 NASN BZ EPn       017 40.62                              52     0.0 9  327 289 
                                                                                
 2010  113 1022 13.0 L  26.667  53.407 39.6  BIN 11 0.2 4.5LBIN                1
 GAP=232        0.43       8.1     6.7  5.2  0.4160E+02 -0.5399E+01  0.9680E+01E
 ACTION:UPD 10-07-07 13:53 OP:moh  STATUS:               ID:20100113102229 L   I
 2010-01-13-1022-00S.BIN__069                                                  6
 STAT SP IPHASW D HRMM SECON CODA AMPLIT PERI AZIMU VELO AIN AR TRES W  DIS CAZ7
 GHIR BZ EPg      1022 43.07                              98     0.010  184 347 
 GHIR BZ  IAML    1023 13.33      5388.9 0.74                           184 347 
 KRBR BZ EPn      1023 20.05                              54     0.1 8  493  41 
 KRBR BZ  IAML    1024 21.72       342.5 0.47                           493  41 
 NASN BZ EPn      1023 43.61                              54     0.2 7  682 355 
 NASN BZ  IAML    1024 53.99       133.1 0.51                           682 355 
 CHBR BZ EPn      1023 47.47                              54     0.0 7  717  98 
 ZHSF BZ EPn      1023 57.03                              54    -0.1 6  794  64 
 TABS BZ EPn      1024  3.95                              54    -0.4 6  853  24 
 GHVR BZ EPn      1024  9.42                              54     0.3 5  891 347 
 DAMV BZ EPn      1024 23.12                              54    -0.1 4 1003 353 
 SHRT BZ EPn      1024 24.88                              54    -0.1 4 1019  39 
 SNGE BZ EPn      1024 34.55                              54    -0.5 4 1099 330 
 ASAO BZ EPn      1024 14.37                              54     0.0 5  932 340 
                                                                                
 2010  113 1318 48.7 L  36.315  54.611 14.1  BIN  5 0.1 3.1LBIN                1
 GAP=141        0.32       1.8     1.5  3.0 -0.1758E+01  0.1371E+01  0.4742E+00E
 2010-01-13-1318-51S.BIN__054                                                  6
 ACTION:NEW 10-07-07 13:53 OP:moh  STATUS:               ID:20100113131848 L   I
 STAT SP IPHASW D HRMM SECON CODA AMPLIT PERI AZIMU VELO AIN AR TRES W  DIS CAZ7
 MRVT BZ EPg      1319 21.29                              90    -0.110  199  41 
 MRVT BN ESg      1319 45.31                              90     0.110  199  41 
 MRVT BZ  IAML    1319 51.04       166.6 0.52                           199  41 
 DAMV BZ EPn      1319 27.71                              52     0.110  250 253 
 DAMV BN ESg      1319 59.45                              90     0.010  250 253 
 DAMV BZ  IAML    1320  2.82        99.4 0.40                           250 253 
 CHTH BZ EPn      1319 35.88                              52    -0.110  317 263 
 ASAO BZ EPn      1319 53.73                              52     0.0 8  460 246 
                                                                                
 2010  113 1552 26.3 L  28.251  56.372 14.2  BIN  5 0.0 3.8LBIN                1
 GAP=147        0.31       2.2     2.5  5.4  0.1129E+01  0.5761E+01  0.9282E+01E
 2010-01-13-1552-39S.BIN__054                                                  6
 ACTION:NEW 10-07-07 13:53 OP:moh  STATUS:               ID:20100113155226 L   I
 STAT SP IPHASW D HRMM SECON CODA AMPLIT PERI AZIMU VELO AIN AR TRES W  DIS CAZ7
 KRBR BZ EPg      1552 58.67                              90     0.010  196  11 
 KRBR BN ESg      1553 22.26                              90     0.010  196  11 
 KRBR BZ  IAML    1553 28.79      1097.3 0.68                           196  11 
 GHIR BZ EPn      1553 15.31                              52     0.0 9  332 271 
 GHIR BZ  IAML    1554 25.47       214.0 0.48                           332 271 
 CHBR BZ EPn      1553 36.43                              52     0.0 8  503 125 
 CHBR BZ  IAML    1554 29.01        69.9 0.44                           503 125 
 TABS BZ EPn      1553 48.99                              52     0.0 7  603   7 
 NASN BZ EPn      1553 50.08                              52     0.1 7  609 327 
                                                                                
