 2010  225 0014  1.9 L  31.028  50.229 14.1  BIN  6 0.1 3.2LBIN                1
 GAP=174        0.39       1.9     4.8  5.6  0.1041E+01 -0.1844E+02  0.3096E+01E
 2010-02-25-0011-26S.BIN__060                                                  6
 ACTION:NEW 10-04-24 13:22 OP:moh  STATUS:               ID:20100225001401 L   I
 STAT SP IPHASW D HRMM SECON CODA AMPLIT PERI AZIMU VELO AIN AR TRES W  DIS CAZ7
 SHGR BZ EPg       014 31.70                              90     0.010  181 312 
 SHGR BZ  IAML     014 58.29       418.8 0.56                           181 312 
 KHMZ BZ EPn       014 47.36                              52     0.110  302 355 
 KHMZ BE ESg       015 26.84                              90    -0.110  302 355 
 ASAO BZ EPn       014 58.22                              52    -0.2 9  391 357 
 GHVR BZ EPn       014 58.68                              52     0.0 9  394  14 
 GHIR BZ EPn       014 59.88                              52    -0.1 9  405 138 
 GHIR BZ  IAML     015 46.30        31.4 0.44                           405 138 
 DAMV BZ EPn       015 16.55                              52     0.2 8  536  17 
                                                                                
 2010  225 0434 49.0 L  32.044  56.153 14.1  BIN  4 0.3 3.4LBIN                1
 GAP=120        0.94       4.6     7.6 11.4 -0.7300E+01  0.3728E+02 -0.1473E+02E
 2010-02-25-0434-13S.BIN__060                                                  6
 ACTION:NEW 10-04-24 13:22 OP:moh  STATUS:               ID:20100225043449 L   I
 STAT SP IPHASW D HRMM SECON CODA AMPLIT PERI AZIMU VELO AIN AR TRES W  DIS CAZ7
 TABS BZ EPg       435 21.53                              90    -0.310  200  27 
 TABS BZ  IAML     435 54.20       241.6 0.84                           200  27 
 KRBR BZ EPg       435 27.57                              90    -0.110  236 166 
 KRBR BZ  IAML     436  0.89       516.0 0.35                           236 166 
 NASN BZ EPn       435 37.52                              52     0.1 9  326 286 
 SHRT BZ EPn       435 50.10                              52     0.5 9  426  64 
                                                                                
 2010  225 1541 50.2 L  29.260  51.029 14.2  BIN  3 0.1 3.4LBIN                1
 GAP=214        0.47       5.8     7.9  8.8  0.3607E+02  0.2499E+02 -0.1074E+02E
 2010-02-25-1542-12S.BIN__063                                                  6
 ACTION:NEW 10-04-24 13:22 OP:moh  STATUS:               ID:20100225154149 L   I
 STAT SP IPHASW D HRMM SECON CODA AMPLIT PERI AZIMU VELO AIN AR TRES W  DIS CAZ7
 GHIR BZ EPN5     1542 25.36                              52     0.210  220 119 
 GHIR BE ESg      1542 52.38                              90    -0.110  220 119 
 GHIR BZ  IAML    1543  0.11       311.5 0.48                           220 119 
 ASAO BZ EPn      1543 11.66                              52    -0.2 7  594 351 
 ASAO BZ  Sn      1544 11.68                              52     0.2 7  594 351 
 SNGE BZ EPn      1543 29.12                              52    -0.1 6  734 333 
                                                                                
 2010  225 1804 51.5 L  28.655  57.867 15.0  BIN  3 0.0 3.1LBIN                1
 GAP=162        0.30       1.9     2.0  0.0 -0.9685E+00  0.2499E+02 -0.1074E+02E
 2010-02-25-1805-02S.BIN__063                                                  6
 ACTION:NEW 10-04-24 13:22 OP:moh  STATUS:               ID:20100225180454 L   I
 STAT SP IPHASW D HRMM SECON CODA AMPLIT PERI AZIMU VELO AIN AR TRES W  DIS CAZ7
 KRBR BZ EPg      18 5 21.75                              90     0.010  182 324 
 KRBR BZ  IAML    18 5 47.68       344.2 0.28                           182 324 
 BNDS BZ EPg      18 5 27.19                              90     0.010  217 231 
 BNDS BZ  IAML    18 6  3.01        72.3 0.52                           217 231 
 ZHSF BZ EPn      18 5 36.82                              52     0.010  302  69 
                                                                                
 2010  226 0333 15.7 L  34.907  46.190 14.3  BIN  6 0.2 3.5LBIN                1
 GAP=267        0.56       4.6    11.5  0.0  0.3401E+02  0.2311E+03 -0.2050E+02E
 2010-02-26-0332-39S.BIN__060                                                  6
 ACTION:NEW 10-04-24 13:22 OP:moh  STATUS:               ID:20100226033318 L   I
 STAT SP IPHASW D HRMM SECON CODA AMPLIT PERI AZIMU VELO AIN AR TRES W  DIS CAZ7
 ZNJK BZ EPn       334  0.73                              52     0.010  299  48 
 ASAO BZ EPn       334  7.90                              52     0.410  354  95 
 KHMZ BZ EPn       334  9.43                              52    -0.2 9  371 109 
 KHMZ BZ  IAML     335 12.38        90.6 0.60                           371 109 
 SHGR BZ EPn       334 12.29                              52     0.0 9  394 141 
 SHGR BZ  IAML     335 25.68       106.4 0.48                           394 141 
 GHVR BZ EPn       334 21.26                              52     0.0 9  466  94 
 GHVR BZ  IAML     335 37.42        49.6 0.56                           466  94 
 DAMV BZ EPn       334 29.45                              52    -0.3 8  532  80 
                                                                                
 2010  227 1301 40.8 L  28.949  56.650 15.0  BIN  3 0.0 3.1LBIN                1
 GAP=170        0.30       1.5     3.4  0.0 -0.2242E+01 -0.2642E+02  0.1722E+02E
 ACTION:UPD 10-04-24 13:22 OP:moh  STATUS:               ID:20100227130140 L   I
 2010-02-27-1301-00S.BIN__069                                                  6
 STAT SP IPHASW D HRMM SECON CODA AMPLIT PERI AZIMU VELO AIN AR TRES W  DIS CAZ7
 KRBR BZ EPg      13 2  0.32                              91     0.010  115   5 
 KRBR BZ  IAML    13 2 19.34       353.9 0.33                           115   5 
 BNDS BZ EPg      13 2 10.22                              90     0.010  178 195 
 BNDS BZ  IAML    13 2 42.01       238.9 0.47                           178 195 
 ZHSF BZ EPn      13 2 39.13                              52     0.0 9  408  79 
                                                                                
 2010  228 0428  7.3 L  30.699  50.945 15.7  BIN  7 0.1 3.3LBIN                1
 GAP=165        0.36       2.2     3.1  6.3  0.3176E+01 -0.1401E+02 -0.1007E+01E
 2010-02-28-0427-58S.BIN__063                                                  6
 ACTION:NEW 10-04-24 13:22 OP:moh  STATUS:               ID:20100228042807 L   I
 STAT SP IPHASW D HRMM SECON CODA AMPLIT PERI AZIMU VELO AIN AR TRES W  DIS CAZ7
 SHGR BZ EPn       428 46.76                              52     0.110  257 308 
 SHGR BE ESg       429 19.64                              90     0.010  257 308 
 SHGR BZ  IAML     429 25.82       222.7 0.56                           257 308 
 NASN BZ EPn       428 51.46                              52     0.110  292  37 
 GHIR BZ EPn       428 56.18                              52     0.0 9  333 143 
 GHIR BZ  IAML     429 58.92       122.3 0.60                           333 143 
 KHMZ BZ EPn       428 58.33                              52    -0.1 9  350 345 
 GHVR BZ EPn       429  7.17                              52     0.1 9  420   4 
 GHVR BZ  IAML     430 20.60        22.7 0.45                           420   4 
 ASAO BZ EPn       429  8.97                              52    -0.2 9  436 349 
 SNGE BZ EPn       429 28.47                              52    -0.1 8  592 326 
                                                                                
 2010  3 1 1237 51.6 L  32.413  54.858 18.0  BIN  3 0.0 3.2LBIN                1
 GAP=138        0.34       2.9     1.4  5.0 -0.2358E+01 -0.4514E+01  0.1078E+02E
 2010-03-01-1238-12S.BIN__060                                                  6
 ACTION:NEW 10-04-24 13:22 OP:moh  STATUS:               ID:20100301123751 L   I
 STAT SP IPHASW D HRMM SECON CODA AMPLIT PERI AZIMU VELO AIN AR TRES W  DIS CAZ7
 NASN BZ EPg      1238 24.17                              91     0.010  197 283 
 NASN BE ESg      1238 47.99                              91     0.010  197 283 
 NASN BZ  IAML    1238 51.94       141.3 0.32                           197 283 
 TABS BZ EPn      1238 30.12                              52    -0.110  252  56 
 TABS BN ESg      1239  2.74                              91     0.010  252  56 
 KRBR BZ EPn      1238 39.50                              52     0.0 9  325 146 
 KRBR BZ  IAML    1239 22.92       115.4 0.20                           325 146 
                                                                                
 2010  3 1 2117 31.9 L  31.122  56.931 28.8  BIN  6 0.1 3.6LBIN                1
 GAP=106        0.57       3.1     4.2  7.8  0.7686E+00 -0.6223E+01 -0.1569E+02E
 2010-03-01-2117-11S.BIN__063                                                  6
 ACTION:NEW 10-04-24 13:22 OP:moh  STATUS:               ID:20100301211730 L   I
 STAT SP IPHASW D HRMM SECON CODA AMPLIT PERI AZIMU VELO AIN AR TRES W  DIS CAZ7
 KRBR BZ EPg      2117 53.26                              97     0.010  127 187 
 KRBR BZ  IAML    2118 11.36      1454.7 0.48                           127 187 
 TABS BZ EPn      2118 13.03                              54    -0.210  281   4 
 TABS BZ  IAML    2119  4.54       531.0 0.60                           281   4 
 ZHSF BZ EPn      2118 28.95                              54     0.2 9  406 113 
 BNDS BZ EPn      2118 30.28                              54    -0.2 9  419 190 
 SHRT BZ EPn      2118 30.77                              54     0.0 9  422  48 
 SHRT BZ  IAML    2119 34.59        95.8 0.56                           422  48 
 NASN BZ EPn      2118 32.42                              54     0.2 9  432 297 
 NASN BZ  IAML    2119 38.40       102.5 0.64                           432 297 
                                                                                
 2010  3 1 2326 33.2 L  32.546  48.344 15.0  BIN  9 0.5 3.9LBIN                1
 GAP=204        1.37       4.7     7.0  6.1 -0.2431E+01  0.1164E+02 -0.1053E+01E
 2010-03-01-2326-26S.BIN__063                                                  6
 ACTION:NEW 10-04-24 13:22 OP:moh  STATUS:               ID:20100301232633 L   I
 STAT SP IPHASW D HRMM SECON CODA AMPLIT PERI AZIMU VELO AIN AR TRES W  DIS CAZ7
 SHGR BZ EPg      2326 44.68                              90     0.110 64.9 138 
 KHMZ BZ EPg      2327  5.53                              91    -0.810  201  48 
 KHMZ BE ESg      2327 30.72                              91     0.210  201  48 
 KHMZ BZ  IAML    2327 32.30      1389.3 0.67                           201  48 
 ASAO BZ EPn      2327 15.28                              42     0.510  271  35 
 SNGE BZ EPn      2327 17.90                              42     0.010  297 342 
 GHVR BZ EPn      2327 24.40                              42     0.7 9  344  51 
 GHVR BZ  IAML    2328 19.56       278.3 0.50                           344  51 
 NASN BZ EPn      2327 32.74                              42    -0.5 9  420  85 
 NASN BE  Sn      2328 17.47                              42     0.4 9  420  85 
 CHTH BZ EPn      2327 36.71                              42    -0.5 9  452  34 
 ZNJK BZ EPn      2327 38.53                              42     0.5 8  459   4 
 DAMV BZ EPn      2327 39.85                              42    -0.7 8  479  43 
                                                                                
 2010  3 3 0009 43.6 L  30.219  50.177 15.0  BIN  5 0.3 3.1LBIN                1
 GAP=201        0.82       7.2     4.0  0.0 -0.1142E+02  0.9224E+01 -0.3648E+01E
 2010-03-03-0009-32S.BIN__063                                                  6
 ACTION:NEW 10-04-24 13:22 OP:moh  STATUS:               ID:20100303000943 L   I
 STAT SP IPHASW D HRMM SECON CODA AMPLIT PERI AZIMU VELO AIN AR TRES W  DIS CAZ7
 SHGR BZ EPn       010 22.11                              52     0.310  247 328 
 SHGR BZ  IAML     011  2.79       319.8 0.52                           247 328 
 GHIR BZ EPn       010 34.31                              52    -0.1 9  347 127 
 GHIR BZ  IAML     011 56.43        36.8 0.48                           347 127 
 NASN BZ EPn       010 39.02                              52     0.3 9  380  40 
 KHMZ BZ EPn       010 39.59                              52    -0.4 9  391 357 
 KHMZ BZ  IAML     011 39.76        27.9 0.52                           391 357 
 ASAO BZ EPn       010 50.79                              52    -0.3 8  480 358 
                                                                                
 2010  3 3 0656 32.4 L  28.766  51.239 15.0  BIN  4 0.0 3.4LBIN                1
 GAP=241        0.29       6.3     1.7  0.0 -0.1874E+01  0.9224E+01 -0.3648E+01E
 2010-03-03-0656-57S.BIN__063                                                  6
 ACTION:NEW 10-04-24 13:22 OP:moh  STATUS:               ID:20100303065632 L   I
 STAT SP IPHASW D HRMM SECON CODA AMPLIT PERI AZIMU VELO AIN AR TRES W  DIS CAZ7
 GHIR BZ EPn       657  2.33                              52    -0.110  179 107 
 GHIR BZ  IAML     657 32.30       596.1 0.54                           179 107 
 NASN BZ EPn       657 38.94                              52     0.0 8  472  18 
 BNDS BZ EPn       657 43.33                              52     0.1 8  508 106 
 KHMZ BZ EPn       657 50.38                              52     0.0 8  565 348 
 KHMZ BZ  IAML     658 52.93        16.5 0.42                           565 348 
                                                                                
 2010  3 4 0113 29.2 L  32.087  56.184 15.0F BIN  4 0.4 3.5LBIN                1
 GAP=118        1.14       5.4     8.3  0.0 -0.5313E+01  0.9224E+01 -0.3648E+01E
 2010-03-04-0113-11S.BIN__063                                                  6
 ACTION:NEW 10-04-24 13:22 OP:moh  STATUS:               ID:20100304011329 L   I
 STAT SP IPHASW D HRMM SECON CODA AMPLIT PERI AZIMU VELO AIN AR TRES W  DIS CAZ7
 TABS BZ EPg       114  0.75                              90    -0.410  194  27 
 TABS BZ  IAML     114 39.62       312.2 0.56                           194  27 
 KRBR BZ EPg       114  8.35                              90    -0.210  240 167 
 KRBR BZ  IAML     114 39.97       427.1 0.68                           240 167 
 NASN BZ EPn       114 17.88                              52     0.1 9  327 285 
 NASN BZ  IAML     115  2.19       166.1 0.40                           327 285 
 SHRT BZ EPn       114 29.77                              52     0.6 9  421  65 
 SHRT BZ  IAML     115 37.21        51.5 0.60                           421  65 
                                                                                
 2010  3 4 0324 23.0 L  37.403  54.282 22.5  BIN  4 0.2 4.5LBIN                1
 GAP=199        0.66       6.3     7.5 12.7 -0.2389E+02  0.8359E+02 -0.1138E+02E
 2010-03-04-0324-29S.BIN__063                                                  6
 ACTION:NEW 10-04-24 13:22 OP:moh  STATUS:               ID:20100304032422 L   I
 STAT SP IPHASW D HRMM SECON CODA AMPLIT PERI AZIMU VELO AIN AR TRES W  DIS CAZ7
 MRVT BZ EPg       324 49.23                              92    -0.210  162  79 
 MRVT BN ESg       325  8.76                              92     0.110  162  79 
 MRVT BZ  IAML     325 10.81      8957.2 0.72                           162  79 
 DAMV BZ EPn       325  5.31                              54    -0.310  286 227 
 DAMV BN  Sn       325 36.67                              54     0.010  286 227 
 DAMV BZ  IAML     326  6.15      1570.3 0.56                           286 227 
 CHTH BZ EPn       325 11.09                              54     0.3 9  327 240 
                                                                                
 2010  3 4 0613 15.1 L  32.613  48.444 14.1  BIN 10 0.1 3.1LBIN                1
 GAP=191        0.35       1.6     3.2  3.3  0.1033E+01  0.2670E+01 -0.1983E+01E
 2010-03-04-0612-39S.BIN__063                                                  6
 ACTION:NEW 10-04-24 13:22 OP:moh  STATUS:               ID:20100304061315 L   I
 STAT SP IPHASW D HRMM SECON CODA AMPLIT PERI AZIMU VELO AIN AR TRES W  DIS CAZ7
 SHGR BZ EPg       613 26.43                              90    -0.110 65.3 149 
 SHGR BZ  IAML     613 42.51      1220.0 0.42                          65.3 149 
 KHMZ BZ EPg       613 46.24                              90    -0.110  189  48 
 KHMZ BZ  IAML     614 13.87       197.0 0.64                           189  48 
 SNGE BZ EPn       613 59.30                              52    -0.110  293 340 
 GHVR BZ EPn       614  4.04                              52    -0.1 9  333  51 
 GHVR BZ  IAML     614 57.03        64.4 0.69                           333  51 
 NASN BZ EPn       614 13.98                              52     0.0 9  410  86 
 CHTH BZ EPn       614 17.73                              52    -0.1 9  441  33 
 ZNJK BZ EPn       614 18.99                              52     0.0 9  451   3 
 DAMV BZ EPn       614 20.93                              52     0.0 8  467  43 
 DAMV BZ  IAML     615 33.42        20.6 0.66                           467  43 
 GHIR BZ EPn       614 43.56                              52     0.2 7  648 137 
 ASAO BZ EPn       613 55.47                              52     0.210  260  34 
                                                                                
 2010  3 4 1539 53.5 L  31.539  56.569 17.5  BIN  4 0.3 3.1LBIN                1
 GAP=198        1.01       3.3    17.4 10.6 -0.1820E+02 -0.8875E+02  0.3280E+01E
 2010-03-04-1539-39S.BIN__063                                                  6
 ACTION:NEW 10-04-24 13:22 OP:moh  STATUS:               ID:20100304153956 L   I
 STAT SP IPHASW D HRMM SECON CODA AMPLIT PERI AZIMU VELO AIN AR TRES W  DIS CAZ7
 KRBR BZ EPn      1540 22.69                              52     0.010  174 174 
 KRBR BN ESg      1540 43.57                              91     0.110  174 174 
 KRBR BZ  IAML    1540 47.10       659.9 0.28                           174 174 
 TABS BZ EPg      1540 32.60                              91    -0.110  240  12 
 TABS BZ  IAML    1541 16.81        98.0 0.80                           240  12 
 SHRT BZ EPn      1540 53.64                              52     0.5 9  420  55 
 SHRT BZ  IAML    1541 58.59        14.5 0.64                           420  55 
 ZHSF BZ EPn      1540 57.26                              52    -0.5 8  457 117 
                                                                                
 2010  3 4 1621 22.6 L  32.095  56.403 14.1  BIN  3 0.2 3.1LBIN                1
 GAP=151        0.60       1.4     6.2  8.5  0.7947E-01  0.4710E+02  0.6501E+00E
 2010-03-04-1618-10S.BIN__063                                                  6
 ACTION:NEW 10-04-24 13:22 OP:moh  STATUS:               ID:20100304162122 L   I
 STAT SP IPHASW D HRMM SECON CODA AMPLIT PERI AZIMU VELO AIN AR TRES W  DIS CAZ7
 TABS BZ EPg      1621 52.74                              90    -0.310  185  21 
 TABS BE ESg      1622 15.57                              90     0.210  185  21 
 TABS BZ  IAML    1622 31.39       143.4 0.64                           185  21 
 KRBR BZ EPN5     1621 59.97                              52     0.010  237 172 
 KRBR BN ESg      1622 29.86                              90     0.010  237 172 
 KRBR BZ  IAML    1622 34.24       111.1 0.56                           237 172 
 NASN BE EPn      1622 13.75                              52     0.1 9  347 284 
 NASN BN  Sn      1622 50.93                              52     0.0 9  347 284 
                                                                                
