 2010  126 0152 25.6 L  35.761  52.650 14.1  BIN  7 0.3 3.7LBIN                1
 GAP=139        1.14       8.1     3.9  8.9 -0.1402E+02 -0.8818E+00 -0.1800E+02E
 2010-01-26-0151-54S.BIN__051                                                  6
 ACTION:NEW 10-07-07 13:53 OP:moh  STATUS:               ID:20100126015225 L   I
 STAT SP IPHASW D HRMM SECON CODA AMPLIT PERI AZIMU VELO AIN AR TRES W  DIS CAZ7
 DAMV BZ EPg       152 36.53                              90    -0.410 63.1 257 
 DAMV BZ  IAML     152 49.26      3720.6 0.35                          63.1 257 
 CHTH BZ EPg       152 48.47                              90    -0.410  139 277 
 GHVR BZ EPg       152 57.09                              90     0.010  191 222 
 GHVR BZ  IAML     153 31.02      1869.3 0.48                           191 222 
 KHMZ BZ EPn       153 15.24                              52     0.4 9  333 228 
 KHMZ BZ  IAML     154  1.44       119.6 0.47                           333 228 
 ZNJK BZ EPn       153 20.21                              52     0.7 9  371 287 
 MRVT BZ EPn       153 19.67                              52     0.1 9  373  55 
                                                                                
 2010  126 0317  0.3 L  30.815  57.141 17.2  BIN  4 0.1 4.2LBIN                1
 GAP=202        0.46       1.9     7.9  5.0 -0.9110E+01  0.1746E+02 -0.3695E+01E
 2010-01-26-0316-57S.BIN__051                                                  6
 ACTION:NEW 10-07-07 13:53 OP:moh  STATUS:               ID:20100126031700 L   I
 STAT SP IPHASW D HRMM SECON CODA AMPLIT PERI AZIMU VELO AIN AR TRES W  DIS CAZ7
 KRBR BZ EPg       317 17.40                              93     0.010 99.2 202 
 TABS BZ EPn       317 46.83                              52     0.010  314 360 
 TABS BN ESg       318 28.65                              91     0.010  314 360 
 TABS BZ  IAML     318 38.91      1220.7 0.56                           314 360 
 NASN BZ EPn       318  5.70                              52    -0.2 8  466 299 
 NASN BZ  IAML     319 12.76       183.9 0.44                           466 299 
 GHVR BZ EPn       318 33.28                              52     0.3 7  686 308 
 GHVR BZ  IAML     320 29.06        59.4 0.64                           686 308 
                                                                                
 2010  128 0049 58.9 L  30.485  50.757 18.0  BIN  5 0.2 3.3LBIN                1
 GAP=177        0.51       3.0     4.1  6.8  0.4226E+01 -0.1070E+02  0.9620E+01E
 2010-01-28-0050-28S.BIN__054                                                  6
 ACTION:NEW 10-07-07 13:53 OP:moh  STATUS:               ID:20100128004958 L   I
 STAT SP IPHASW D HRMM SECON CODA AMPLIT PERI AZIMU VELO AIN AR TRES W  DIS CAZ7
 SHGR BZ EPn       050 38.40                              52     0.010  259 315 
 SHGR BN ESg       051 11.90                              91     0.010  259 315 
 SHGR BZ  IAML     051 19.75       273.7 0.60                           259 315 
 GHIR BZ EPn       050 46.97                              52     0.1 9  326 138 
 GHIR BZ  IAML     051 56.20        77.0 0.64                           326 138 
 KHMZ BZ EPn       050 52.04                              52    -0.2 9  369 348 
 GHVR BZ EPn       051  1.73                              52     0.1 9  445   6 
 ASAO BZ EP        051  2.80                              52    -0.3 9  456 352 
 ASAO BN ESg       052  6.43                              91     0.1 9  456 352 
 ASAO BZ  IAML     052 27.90        22.4 0.60                           456 352 
                                                                                
 2010  128 1335 42.1 L  32.218  49.985 43.1  BIN  5 0.1 3.1LBIN                1
 GAP=239        0.37       2.9     3.9  2.6 -0.9258E+01 -0.4893E+01  0.3940E+01E
 2010-01-28-1335-42S.BIN__051                                                  6
 ACTION:NEW 10-07-07 13:53 OP:moh  STATUS:               ID:20100128133542 L   I
 STAT SP IPHASW D HRMM SECON CODA AMPLIT PERI AZIMU VELO AIN AR TRES W  DIS CAZ7
 SHGR BZ EPg      1336  1.34                             107     0.010  112 264 
 SHGR BZ  IAML    1336 22.78       425.1 0.48                           112 264 
 KHMZ BZ EPN5     1336  8.32                              54     0.110  169 359 
 KHMZ BE ESg      1336 30.35                             101     0.010  169 359 
 KHMZ BZ  IAML    1336 34.95       152.7 0.48                           169 359 
 ASAO BZ EPn      1336 19.49                              54     0.110  258   1 
 ASAO BZ  IAML    1336 56.92       103.6 0.60                           258   1 
 GHVR BZ EPn      1336 21.52                              54     0.010  277  25 
 GHVR BN ESg      1336 58.56                              96    -0.110  277  25 
 GHVR BZ  IAML    1337  2.02       103.4 0.64                           277  25 
 SNGE BZ EPn      1336 37.05                              54    -0.2 9  402 323 
                                                                                
 2010  128 1520  5.6 L  31.362  60.804 15.3  BIN  3 0.0 3.1LBIN                1
 GAP=234        0.34       3.1     2.6  6.6  0.4815E+01 -0.7472E+01 -0.1709E+02E
 ACTION:UPD 10-07-07 13:53 OP:moh  STATUS:               ID:20100128152005 L   I
 2010-01-28-1520-30S.BIN__069                                                  6
 STAT SP IPHASW D HRMM SECON CODA AMPLIT PERI AZIMU VELO AIN AR TRES W  DIS CAZ7
 ZHSF BZ EPg      1520 37.62                              90     0.010  194 181 
 ZHSF BE ESg      1521  0.89                              90     0.010  194 181 
 ZHSF BZ  IAML    1521  8.43       119.6 0.48                           194 181 
 KRBR BZ EPn      1521  5.21                              52     0.1 9  417 249 
 KRBR BN ESg      1522  2.18                              90     0.0 9  417 249 
 KRBR BZ  IAML    1522  5.83        55.4 0.60                           417 249 
 TABS BZ EPn      1521  6.47                              52    -0.1 9  429 307 
 TABS BZ  IAML    1522 22.44        18.0 0.72                           429 307 
                                                                                
 2010  129 0119 18.7 L  28.018  55.889 15.0  BIN  4 0.3 3.6LBIN                1
 GAP=256        0.92      12.8     8.5 11.7 -0.9870E+02 -0.5797E+02  0.1029E+03E
 ACTION:UPD 10-07-07 13:53 OP:moh  STATUS:               ID:20100129011921 L   I
 2010-01-29-0119-00S.BIN__069                                                  6
 STAT SP IPHASW D HRMM SECON CODA AMPLIT PERI AZIMU VELO AIN AR TRES W  DIS CAZ7
 KRBR BZ EPg       119 56.89                              90    -0.210  234  21 
 KRBR BN ESg       120 25.32                              90     0.210  234  21 
 KRBR BZ  IAML     120 27.86       706.1 0.52                           234  21 
 GHIR BZ EPn       120  2.21                              52     0.210  287 277 
 GHIR BN ESg       120 39.49                              90     0.010  287 277 
 GHIR BZ  IAML     120 57.14       283.5 0.52                           287 277 
 NASN BZ EPn       120 41.41                              52    -0.6 7  607 332 
 TABS BZ EPn       120 45.77                              52     0.4 7  635  10 
                                                                                
 2010  129 2050 19.4 L  28.072  57.623 15.0  BIN  4 0.5 3.8LBIN                1
 GAP=141        1.32      10.1     5.4  0.0 -0.3177E+02 -0.5797E+02  0.1029E+03E
 2010-01-29-2050-17S.BIN__051                                                  6
 ACTION:NEW 10-07-07 13:53 OP:moh  STATUS:               ID:20100129205019 L   I
 STAT SP IPHASW D HRMM SECON CODA AMPLIT PERI AZIMU VELO AIN AR TRES W  DIS CAZ7
 KRBR BZ EPn      2050 55.03                              52    -0.610  228 339 
 KRBR BZ  IAML    2051 30.08       783.3 0.28                           228 339 
 ZHSF BZ EPn      2051 11.46                              52     0.6 9  352  60 
 CHBR BZ EPn      2051 15.59                              52    -0.4 9  395 133 
 GHIR BZ EPn      2051 24.31                              52     0.6 8  456 274 
 GHIR BZ  IAML    2052 15.15       103.4 0.44                           456 274 
                                                                                
 2010  130 1156 46.3 L  31.079  49.401 37.0  BIN  6 0.2 3.3LBIN                1
 GAP=275        0.58       9.6     8.5  6.9  0.4840E+02 -0.2782E+02  0.1816E+02E
 2010-01-30-1156-49S.BIN__057                                                  6
 ACTION:NEW 10-07-07 13:53 OP:moh  STATUS:               ID:20100130115646 L   I
 STAT SP IPHASW D HRMM SECON CODA AMPLIT PERI AZIMU VELO AIN AR TRES W  DIS CAZ7
 SHGR BZ EPg      1157  7.55                             102    -0.110  128 334 
 SHGR BE ESg      1157 23.22                             102     0.110  128 334 
 SHGR BZ  IAML    1157 30.14       743.6 0.38                           128 334 
 KHMZ BZ EPn      1157 29.23                              54    -0.110  300  10 
 KHMZ BZ  IAML    1158  7.99        97.6 0.45                           300  10 
 NASN BZ EPn      1157 38.79                              54     0.1 9  374  58 
 ASAO BZ EPn      1157 40.18                              54    -0.3 9  389   8 
 GHVR BZ EPn      1157 43.74                              54     0.2 9  415  24 
 GHVR BZ  IAML    1158 36.68        38.0 0.73                           415  24 
 SNGE BZ EPn      1157 52.49                              54     0.2 8  485 337 
 SNGE BZ  IAML    1158 42.71        32.9 0.43                           485 337 
                                                                                
 2010  130 1350  4.4 L  37.251  57.743 15.0F BIN  3 0.0 3.4LBIN                1
 GAP=259        0.30       1.2     6.9  0.0 -0.3955E-02 -0.2782E+02  0.1816E+02E
 2010-01-30-1349-55S.BIN__057                                                  6
 ACTION:NEW 10-07-07 13:53 OP:moh  STATUS:               ID:20100130135004 L   I
 STAT SP IPHASW D HRMM SECON CODA AMPLIT PERI AZIMU VELO AIN AR TRES W  DIS CAZ7
 BJRD BZ EPg      1350 14.76                              92     0.010 58.0 329 
 BJRD BN ESg      1350 22.27                              92     0.010 58.0 329 
 BJRD BZ  IAML    1350 24.97      1691.8 0.25                          58.0 329 
 MRVT BZ EPg      1350 29.86                              90     0.110  153 288 
 MRVT BZ  IAML    1350 54.41       619.7 0.23                           153 288 
                                                                                
 2010  130 1843 44.8 L  31.858  56.327 16.9  BIN  5 0.2 4.1LBIN                1
 GAP=120        0.75       2.4     6.0  8.1  0.2815E+01  0.2348E+02 -0.4325E+01E
 2010-01-30-1843-59S.BIN__057                                                  6
 ACTION:NEW 10-07-07 13:53 OP:moh  STATUS:               ID:20100130184344 L   I
 STAT SP IPHASW D HRMM SECON CODA AMPLIT PERI AZIMU VELO AIN AR TRES W  DIS CAZ7
 KRBR BZ EPg      1844 19.48                              91    -0.310  212 169 
 KRBR BN ESg      1844 45.56                              91     0.210  212 169 
 KRBR BZ  IAML    1844 48.68      8318.0 1.01                           212 169 
 TABS BZ  IAML    1844 54.72       878.1 0.87                           212  20 
 TABS BZ EPg      1844 19.70                              91     0.110  212  20 
 NASN BZ EPn      1844 35.58                              52    -0.1 9  347 288 
 NASN BZ  IAML    1845 31.41       299.6 0.00                           347 288 
 ZHSF BZ EPn      1844 53.62                              52    -0.1 8  493 119 
 ZHSF BZ  IAML    1846 17.00        96.8 0.19                           493 119 
 GHVR BZ EPn      1845  1.61                              52     0.2 8  556 303 
 GHVR BZ  IAML    1846 32.41        89.9 0.14                           556 303 
                                                                                
 2010  131 0125 20.8 L  34.590  50.596 15.0  BIN  7 0.4 3.3LBIN                1
 GAP= 78        1.32       4.8     5.4  9.6 -0.5219E+01  0.1216E+01  0.8593E+00E
 2010-01-31-0124-27S.BIN__057                                                  6
 ACTION:NEW 10-07-07 13:53 OP:moh  STATUS:               ID:20100131012520 L   I
 STAT SP IPHASW D HRMM SECON CODA AMPLIT PERI AZIMU VELO AIN AR TRES W  DIS CAZ7
 ASAO BZ EPg       125 30.72                              91     0.310 52.5 265 
 GHVR BZ EPg       125 31.90                              91     0.310 60.9 101 
 KHMZ BZ EPg       125 39.07                              91    -0.610  111 212 
 KHMZ BZ  IAML     125 54.81       689.9 0.58                           111 212 
 CHTH BZ EPg       125 46.50                              90     0.010  154  18 
 DAMV BZ EPg       125 48.63                              90    -0.510  170  47 
 DAMV BZ  IAML     126 11.16       513.9 0.23                           170  47 
 NASN BZ EPn       126  4.59                              47     0.410  286 133 
 NASN BZ  IAML     126 40.72        83.1 0.46                           286 133 
 ZNJK BZ EPn       126  4.75                              47     0.310  289 324 
                                                                                
 2010  2 1 2254 37.2 L  28.224  51.481 14.9  BIN  5 0.1 3.9LBIN                1
 GAP=262        0.33       8.2     4.0  6.9  0.1735E+02  0.8452E+01 -0.3087E+02E
 2010-02-01-2254-46S.BIN__057                                                  6
 ACTION:NEW 10-04-24 13:22 OP:moh  STATUS:               ID:20100201225437 L   I
 STAT SP IPHASW D HRMM SECON CODA AMPLIT PERI AZIMU VELO AIN AR TRES W  DIS CAZ7
 GHIR BZ EPg      2255  1.89                              90     0.010  148  87 
 GHIR BN ESg      2255 19.86                              90     0.010  148  87 
 GHIR BZ  IAML    2255 25.87      1859.9 0.64                           148  87 
 NASN BZ EPn      2255 50.23                              52     0.1 8  523  14 
 KRBR BZ EPn      2255 53.42                              52     0.0 8  550  68 
 KRBR BZ  IAML    2256 56.43        69.4 0.64                           550  68 
 ASAO BZ EPn      2256 13.79                              52    -0.1 7  715 349 
 TABS BZ EPn      2256 25.10                              52    -0.1 6  807  40 
                                                                                
 2010  2 2 1005 39.8 L  37.914  46.981 14.1  BIN  5 0.2 3.5LBIN                1
 GAP=170        0.63       6.4     7.8  9.9  0.3848E+02  0.3336E+02 -0.8761E+00E
 ACTION:UPD 10-04-24 13:22 OP:moh  STATUS:               ID:20100202100539 L   I
 2010-02-02-1005-00S.BIN__069                                                  6
 STAT SP IPHASW D HRMM SECON CODA AMPLIT PERI AZIMU VELO AIN AR TRES W  DIS CAZ7
 ZNJK BZ EPn      10 6 12.82                              52    -0.310  205 132 
 ZNJK BN ESg      10 6 38.09                              90     0.010  205 132 
 ZNJK BZ  IAML    10 6 41.72       425.7 0.30                           205 132 
 MAKU BZ EPn      10 6 19.38                              52     0.010  256 309 
 MAKU BZ  IAML    10 6 59.41       195.7 0.65                           256 309 
 SNGE BZ EPn      10 6 26.70                              52     0.010  315 174 
 CHTH BZ EPn      10 6 41.43                              52     0.2 9  431 120 
 ASAO BZ EPn      10 6 45.56                              52     0.4 8  463 143 
                                                                                
 2010  2 2 1015 36.4 L  37.927  46.950 14.1  BIN  5 0.4 3.4LBIN                1
 GAP=170        1.05      10.5    11.7  9.3  0.1157E+03  0.1765E+02  0.2105E+02E
 2010-02-02-1015-14S.BIN__057                                                  6
 ACTION:NEW 10-04-24 13:22 OP:moh  STATUS:               ID:20100202101514 L   I
 STAT SP IPHASW D HRMM SECON CODA AMPLIT PERI AZIMU VELO AIN AR TRES W  DIS CAZ7
 ZNJK BZ EPN5     1016  9.63                              52    -0.510  208 132 
 ZNJK BE ESg      1016 35.39                              90    -0.210  208 132 
 ZNJK BZ  IAML    1016 38.68       426.4 0.34                           208 132 
 MAKU BZ EPn      1016 15.84                              52     0.110  253 309 
 MAKU BN ESg      1016 47.89                              90    -0.210  253 309 
 MAKU BZ  IAML    1016 54.00       159.0 0.58                           253 309 
 SNGE BZ EPn      1016 23.77                              52     0.110  316 173 
 CHTH BZ EPn      1016 39.03                              52     0.7 9  434 120 
 ASAO BZ EPn      1016 42.37                              52     0.2 8  466 143 
                                                                                
 2010  2 2 1016 29.1 L  37.924  46.983 14.1  BIN  7 0.2 4.3LBIN                1
 GAP=171        0.68       6.7     8.1  9.9  0.4186E+02  0.3350E+02 -0.2971E+00E
 ACTION:UPD 10-04-24 13:22 OP:moh  STATUS:               ID:20100202101629 L   I
 2010-02-02-1016-00S.BIN__069                                                  6
 STAT SP IPHASW D HRMM SECON CODA AMPLIT PERI AZIMU VELO AIN AR TRES W  DIS CAZ7
 ZNJK BZ EPn      1017  2.28                              52    -0.210  205 132 
 ZNJK BN ESg      1017 27.41                              90    -0.210  205 132 
 ZNJK BZ  IAML    1017 31.42      2610.7 0.46                           205 132 
 MAKU BZ EPn      1017  8.56                              52    -0.110  256 309 
 MAKU BZ  IAML    1017 49.18      1811.1 0.62                           256 309 
 SNGE BZ EPn      1017 16.15                              52    -0.110  316 174 
 CHTH BZ EPn      1017 30.93                              52     0.3 9  432 120 
 CHTH BZ  IAML    1018 35.67       316.0 0.71                           432 120 
 ASAO BZ EPn      1017 34.78                              52     0.2 8  464 143 
 KHMZ BZ EPn      1017 44.05                              52     0.4 8  537 149 
 GHVR BZ EPn      1017 44.16                              52     0.1 8  541 134 
                                                                                
 2010  2 2 1126 51.0 L  38.000  47.000 14.1  BIN  5 0.2 3.5LBIN                1
 GAP=187        0.55       8.6     9.2  7.5  0.7152E+02  0.3212E+02  0.4117E+02E
 2010-02-02-1126-39S.BIN__060                                                  6
 ACTION:NEW 10-04-24 13:22 OP:moh  STATUS:               ID:20100202112651 L   I
 STAT SP IPHASW D HRMM SECON CODA AMPLIT PERI AZIMU VELO AIN AR TRES W  DIS CAZ7
 ZNJK BZ EPg      1127 25.34                              90    -0.210  210 134 
 ZNJK BZ  IAML    1127 54.02       538.9 0.33                           210 134 
 MAKU BZ EPg      1127 32.10                              90     0.010  252 307 
 MAKU BZ  IAML    1128 11.05       167.5 0.54                           252 307 
 SNGE BZ EPn      1127 39.08                              52     0.0 9  324 174 
 ASAO BZ EPn      1127 57.45                              52     0.2 8  470 144 
 GHVR BZ EPn      1128  6.73                              52     0.2 8  546 134 
                                                                                
