 2010  2 2 1346 24.0 L  37.904  46.898 14.1  BIN  5 0.2 3.7LBIN                1
 GAP=169        0.61      13.2    14.2  5.7  0.1841E+03 -0.1694E+02 -0.9674E+01E
 2010-02-02-1346-27S.BIN__060                                                  6
 ACTION:NEW 10-04-24 13:22 OP:moh  STATUS:               ID:20100202134624 L   I
 STAT SP IPHASW D HRMM SECON CODA AMPLIT PERI AZIMU VELO AIN AR TRES W  DIS CAZ7
 ZNJK BZ EPN5     1346 57.78                              52    -0.110  209 130 
 ZNJK BN ESg      1347 23.40                              90    -0.310  209 130 
 ZNJK BZ  IAML    1347 27.69      1101.8 0.76                           209 130 
 MAKU BZ EPg      1347  5.10                              90     0.010  251 311 
 MAKU BN ESg      1347 34.97                              90    -0.110  251 311 
 MAKU BZ  IAML    1347 42.25       226.7 0.47                           251 311 
 CHTH BZ EPn      1347 26.42                              52     0.2 9  437 119 
 ASAO BZ EPn      1347 30.19                              52     0.3 8  466 142 
 DAMV BZ EPn      1347 36.42                              52     0.1 8  518 118 
                                                                                
 2010  2 2 1351 33.7 L  35.767  52.488 14.2  BIN  5 0.1 3.4LBIN                1
 GAP=301        0.39       3.1     4.9  4.2 -0.2648E+01 -0.1219E+02  0.1515E+01E
 2010-02-02-1351-23S.BIN__060                                                  6
 ACTION:NEW 10-04-24 13:22 OP:moh  STATUS:               ID:20100202135133 L   I
 STAT SP IPHASW D HRMM SECON CODA AMPLIT PERI AZIMU VELO AIN AR TRES W  DIS CAZ7
 DAMV BZ EPg      1351 42.67                              91    -0.110 49.2 252 
 CHTH BZ EPg      1351 54.69                              90     0.010  124 278 
 GHVR BZ EPg      1352  3.71                              90    -0.110  182 219 
 GHVR BZ  IAML    1352 37.40       720.0 0.40                           182 219 
 ASAO BZ EPn      1352 14.25                              52     0.110  262 240 
 ASAO BN ESg      1352 47.87                              90     0.010  262 240 
 ASAO BZ  IAML    1352 55.22       200.5 0.44                           262 240 
 KHMZ BZ EPn      1352 21.69                              52     0.1 9  322 227 
 KHMZ BZ  IAML    1353  7.74        69.4 0.96                           322 227 
                                                                                
 2010  2 3 1649 34.4 L  32.170  49.389 16.5  BIN  5 0.1 3.1LBIN                1
 GAP=186        0.39       3.1     2.7  3.8 -0.3318E+01 -0.4775E+01 -0.2341E-01E
 2010-02-03-1649-10S.BIN__063                                                  6
 ACTION:NEW 10-04-24 13:22 OP:moh  STATUS:               ID:20100203164934 L   I
 STAT SP IPHASW D HRMM SECON CODA AMPLIT PERI AZIMU VELO AIN AR TRES W  DIS CAZ7
 SHGR BZ EPg      1649 44.40                              96     0.010 55.9 263 
 SHGR BZ  IAML    1649 55.31      1161.3 0.31                          55.9 263 
 KHMZ BZ EPg      1650  4.56                              91     0.010  182  17 
 KHMZ BZ  IAML    1650 31.12       213.5 0.60                           182  17 
 ASAO BZ EPn      1650 15.80                              52     0.110  270  12 
 NASN BZ EPn      1650 23.00                              52     0.0 9  329  77 
 SNGE BZ EPn      1650 28.60                              52    -0.1 9  375 330 
 SNGE BZ  IAML    1651 27.64        32.0 0.30                           375 330 
                                                                                
 2010  2 3 2239 45.2 L  28.588  57.012 14.1  BIN  5 0.2 4.3LBIN                1
 GAP=211        0.59       4.0    11.9  7.0 -0.3643E+02  0.4111E+02 -0.1401E+02E
 2010-02-03-2239-48S.BIN__063                                                  6
 ACTION:NEW 10-04-24 13:22 OP:moh  STATUS:               ID:20100203223945 L   I
 STAT SP IPHASW D HRMM SECON CODA AMPLIT PERI AZIMU VELO AIN AR TRES W  DIS CAZ7
 BNDS BZ EPg      2240 10.99                              90     0.010  155 212 
 BNDS BZ  IAML    2240 33.41      7350.1 0.63                           155 212 
 KRBR BZ EPg      2240 11.09                              90    -0.210  156 351 
 KRBR BZ  IAML    2240 42.79      2953.8 0.46                           156 351 
 GHIR BZ EPn      2240 42.09                              52     0.0 9  396 266 
 GHIR BZ  IAML    2241 52.92       414.1 0.33                           396 266 
 TABS BZ EPn      2241  2.87                              52     0.2 8  561   1 
 NASN BZ EPn      2241  9.94                              52     0.2 7  617 320 
                                                                                
 2010  2 4 1953 28.3 L  36.686  45.346 16.2F BIN  6 0.3 3.6LBIN                1
 GAP=215        0.90       6.4    13.0  0.0  0.6918E+02  0.4111E+02 -0.1401E+02E
 2010-02-04-1953-47S.BIN__060                                                  6
 ACTION:NEW 10-04-24 13:22 OP:moh  STATUS:               ID:20100204195328 L   I
 STAT SP IPHASW D HRMM SECON CODA AMPLIT PERI AZIMU VELO AIN AR TRES W  DIS CAZ7
 SNGE BZ EPn      1954  7.17                              52    -0.210  253 134 
 SNGE BN ESg      1954 39.87                              91     0.010  253 134 
 SNGE BZ  IAML    1954 45.54       898.0 0.56                           253 134 
 ZNJK BZ EPn      1954 12.88                              52    -0.210  299  89 
 ZNJK BZ  IAML    1954 57.78       143.1 0.62                           299  89 
 MAKU BZ EPn      1954 13.47                              52     0.010  302 349 
 GRMI BZ EPn      1954 16.32                              52     0.0 9  326  43 
 ASAO BZ EPn      1954 37.17                              52     0.8 8  486 118 
 ASAO BZ  IAML    1955 59.09        59.4 0.72                           486 118 
 KHMZ BZ EPn      1954 41.87                              52    -0.3 8  532 127 
 KHMZ BZ  IAML    1956 12.20        46.5 0.56                           532 127 
                                                                                
 2010  2 4 2340  7.8 L  27.477  52.516 15.0  BIN  3 0.1 3.3LBIN                1
 GAP=272        0.34       2.3     5.2  3.6  0.4828E+01  0.1181E+02  0.3879E+01E
 2010-02-04-2340-10S.BIN__063                                                  6
 ACTION:NEW 10-04-24 13:22 OP:moh  STATUS:               ID:20100204234008 L   I
 STAT SP IPHASW D HRMM SECON CODA AMPLIT PERI AZIMU VELO AIN AR TRES W  DIS CAZ7
 GHIR BZ EPg      2340 25.08                              91     0.110  101  27 
 GHIR BN ESg      2340 37.53                              91     0.010  101  27 
 GHIR BZ  IAML    2340 45.31       865.2 0.40                           101  27 
 BNDS BZ EPn      2341  0.48                              52     0.0 9  362  91 
 BNDS BZ  IAML    2341 50.04        67.6 0.40                           362  91 
 NASN BZ EPn      2341 29.04                              52    -0.1 7  591   3 
 NASN BN  Sn      2342 28.52                              52     0.0 7  591   3 
                                                                                
 2010  2 5 0222 50.9 L  30.962  50.190 18.0  BIN  6 0.2 3.8LBIN                1
 GAP=177        0.60       4.8     9.8 14.9  0.3178E+02 -0.1341E+03 -0.3450E+02E
 2010-02-05-0222-21S.BIN__060                                                  6
 ACTION:NEW 10-04-24 13:22 OP:moh  STATUS:               ID:20100205022250 L   I
 STAT SP IPHASW D HRMM SECON CODA AMPLIT PERI AZIMU VELO AIN AR TRES W  DIS CAZ7
 SHGR BZ EPg       223 21.05                              92     0.010  183 314 
 SHGR BE ESg       223 43.09                              92     0.010  183 314 
 SHGR BZ  IAML     223 50.42      1347.6 0.48                           183 314 
 KHMZ BZ EPn       223 37.00                              52     0.210  309 356 
 KHMZ BZ  IAML     224 27.43       259.4 0.64                           309 356 
 NASN BZ EPn       223 38.57                              52     0.2 9  321  50 
 GHIR BZ EPn       223 48.20                              52     0.0 9  402 137 
 GHIR BZ  IAML     224 38.78       169.0 0.40                           402 137 
 DAMV BZ EPn       224  5.74                              52    -0.3 8  544  17 
 CHTH BZ EPn       224  7.18                              52    -0.3 8  555   9 
                                                                                
 2010  2 5 0557  7.3 L  27.549  52.223 14.1  BIN  5 0.2 3.9LBIN                1
 GAP=236        0.53       4.2     4.5  7.2  0.8943E+01  0.2637E+02  0.1677E+02E
 2010-02-05-0557-06S.BIN__060                                                  6
 ACTION:NEW 10-04-24 13:22 OP:moh  STATUS:               ID:20100205055706 L   I
 STAT SP IPHASW D HRMM SECON CODA AMPLIT PERI AZIMU VELO AIN AR TRES W  DIS CAZ7
 GHIR BZ EPg       557 25.95                              90    -0.210  111  42 
 GHIR BN ESg       557 39.95                              90     0.110  111  42 
 GHIR BZ  IAML     557 43.84      3194.3 0.52                           111  42 
 BNDS BZ EPn       558  3.82                              52     0.1 9  391  92 
 KRBR BZ EPn       558 19.70                              52     0.0 8  519  58 
 KRBR BZ  IAML     559 21.15        61.1 0.44                           519  58 
 SHGR BZ EPn       558 30.02                              52     0.0 7  604 328 
 SHGR BN  Sn       559 30.49                              52     0.1 7  604 328 
 SHGR BZ  IAML     559 38.94        93.9 0.80                           604 328 
 SNGE BZ EPN5      559 13.58                              52    -0.5 5  956 332 
                                                                                
 2010  2 7 0755  1.0 L  30.042  57.550  6.1  BIN  4 0.0 3.0LBIN                1
 GAP=107        0.34       2.2     2.6  5.6 -0.7996E+00 -0.1264E+02  0.1006E+01E
 2010-02-07-0754-41S.BIN__060                                                  6
 ACTION:NEW 10-04-24 13:22 OP:moh  STATUS:               ID:20100207075501 L   I
 STAT SP IPHASW D HRMM SECON CODA AMPLIT PERI AZIMU VELO AIN AR TRES W  DIS CAZ7
 KRBR BZ EPg       755 14.58                              90     0.010 76.5 265 
 KRBR BN ESg       755 24.55                              90     0.010 76.5 265 
 KRBR BZ  IAML     755 30.27       909.5 0.25                          76.5 265 
 ZHSF BZ EPN5      755 48.89                              47     0.010  315  98 
 BNDS BZ EPn       755 49.85                              47     0.1 9  322 205 
 BNDS BZ  IAML     756 39.00        35.0 0.54                           322 205 
 TABS BZ EPn       755 59.69                              47     0.0 9  402 354 
 TABS BZ  IAML     757  5.39        19.8 0.38                           402 354 
                                                                                
 2010  2 7 0813  6.5 L  30.011  57.576  6.8  BIN  4 0.0 3.2LBIN                1
 GAP=108        0.34       2.2     3.1  5.5 -0.1013E+01 -0.1385E+02  0.1457E+01E
 2010-02-07-0812-56S.BIN__063                                                  6
 ACTION:NEW 10-04-24 13:22 OP:moh  STATUS:               ID:20100207081304 L   I
 STAT SP IPHASW D HRMM SECON CODA AMPLIT PERI AZIMU VELO AIN AR TRES W  DIS CAZ7
 KRBR BZ EPg       813 20.49                              91     0.010 78.8 268 
 KRBR BZ  IAML     813 32.64       874.5 0.14                          78.8 268 
 ZHSF BZ EPn       813 53.98                              47     0.010  312  97 
 ZHSF BZ  IAML     814 33.74        88.7 0.62                           312  97 
 BNDS BZ EPn       813 54.95                              47     0.0 9  320 206 
 TABS BZ EPN5      814  5.51                              47     0.0 9  406 354 
                                                                                
 2010  2 7 1840  6.1 L  28.638  51.460 14.2  BIN  5 0.1 3.5LBIN                1
 GAP=228        0.35       7.8     3.4 10.2  0.1697E+02 -0.1345E+02 -0.7437E+02E
 2010-02-07-1840-22S.BIN__063                                                  6
 ACTION:NEW 10-04-24 13:22 OP:moh  STATUS:               ID:20100207184006 L   I
 STAT SP IPHASW D HRMM SECON CODA AMPLIT PERI AZIMU VELO AIN AR TRES W  DIS CAZ7
 GHIR BZ EPg      1840 31.67                              90    -0.110  155 104 
 GHIR BE ESg      1840 50.61                              90     0.110  155 104 
 GHIR BZ  IAML    1840 54.32      1071.1 0.44                           155 104 
 NASN BZ EPn      1841 13.52                              52    -0.1 8  479  15 
 NASN BN  Sn      1842  2.84                              52     0.0 8  479  15 
 KRBR BZ EPn      1841 20.59                              52     0.0 8  536  73 
 KRBR BZ  IAML    1842 19.91        23.2 0.48                           536  73 
 ASAO BZ EPn      1841 37.26                              52     0.1 7  669 349 
 SNGE BZ EPn      1841 55.25                              52     0.1 6  815 333 
                                                                                
 2010  2 7 2120 22.2 L  28.375  54.315 26.8  BIN  6 0.0 3.7LBIN                1
 GAP=146        0.30       4.8     5.5 11.2  0.2344E+02 -0.5864E+02 -0.4766E+02E
 2010-02-07-2120-31S.BIN__063                                                  6
 ACTION:NEW 10-04-24 13:22 OP:moh  STATUS:               ID:20100207212021 L   I
 STAT SP IPHASW D HRMM SECON CODA AMPLIT PERI AZIMU VELO AIN AR TRES W  DIS CAZ7
 GHIR BZ EPg      2120 43.86                              96     0.010  131 266 
 GHIR BZ  IAML    2121  7.96      1846.2 0.52                           131 266 
 BNDS BZ EPN5     2120 55.24                              54     0.010  212 120 
 BNDS BZ  IAML    2121 35.14       597.5 0.60                           212 120 
 NASN BZ EPn      2121 32.62                              54     0.1 8  511 344 
 ZHSF BZ EPn      2121 48.87                              54     0.0 7  644  76 
 GHVR BZ EPn      2122  0.31                              54     0.0 6  737 337 
 ASAO BZ EPn      2122  7.86                              54    -0.1 6  797 330 
                                                                                
 2010  2 8 2120 54.7 L  28.301  54.210 15.0  BIN  5 0.4 3.8LBIN                1
 GAP=153        1.18       8.6     4.8  0.0 -0.2801E+02 -0.5864E+02 -0.4766E+02E
 2010-02-08-2120-48S.BIN__060                                                  6
 ACTION:NEW 10-04-24 13:22 OP:moh  STATUS:               ID:20100208212054 L   I
 STAT SP IPHASW D HRMM SECON CODA AMPLIT PERI AZIMU VELO AIN AR TRES W  DIS CAZ7
 GHIR BZ EPn      2121 17.52                              52     0.210  120 269 
 GHIR BZ  IAML    2121 37.69      2015.7 0.44                           120 269 
 BNDS BZ EPn      2121 29.12                              52    -0.310  217 117 
 BNDS BZ  IAML    2122 11.45       417.8 0.52                           217 117 
 KRBR BZ EPn      2121 41.76                              52     0.610  310  52 
 KRBR BZ  IAML    2122 29.24       338.6 0.60                           310  52 
 NASN BZ EPn      2122  6.14                              52    -0.6 8  517 345 
 TABS BZ EPn      2122 23.46                              52    -0.2 7  655  24 
                                                                                
 2010  210 0229  9.6 L  39.536  53.927 28.7F BIN  5 0.3 3.6LBIN                1
 GAP=234        0.75      11.0     5.0  0.0  0.1596E+02  0.1816E+02  0.4860E+01E
 2010-02-10-0229-30S.BIN__063                                                  6
 ACTION:NEW 10-04-24 13:22 OP:moh  STATUS:               ID:20100210022911 L   I
 STAT SP IPHASW D HRMM SECON CODA AMPLIT PERI AZIMU VELO AIN AR TRES W  DIS CAZ7
 MRVT BZ EPn       229 50.60                              54    -0.310  281 137 
 MRVT BZ  IAML     230 19.68       137.1 0.64                           281 137 
 DAMV BZ EPn       230 14.20                              54     0.0 9  467 202 
 DAMV BZ  IAML     231  4.22        94.2 0.52                           467 202 
 GRMI BZ EPn       230 21.88                              54     0.3 8  527 263 
 ZNJK BZ EPN5      230 25.14                              54    -0.5 8  559 237 
 ZNJK BN  Sn       231 21.07                              54     0.0 8  559 237 
 ZNJK BZ  IAML     231 25.91        34.0 0.43                           559 237 
                                                                                
 2010  210 0904 29.3 L  38.744  46.866 14.1  BIN  3 0.2 3.1LBIN                1
 GAP=155        0.68       4.1     3.5  8.2  0.1055E+02  0.2502E+00  0.7235E+01E
 2010-02-10-0904-24S.BIN__063                                                  6
 ACTION:NEW 10-04-24 13:22 OP:moh  STATUS:               ID:20100210090429 L   I
 STAT SP IPHASW D HRMM SECON CODA AMPLIT PERI AZIMU VELO AIN AR TRES W  DIS CAZ7
 GRMI BZ EPg       9 4 44.66                              90    -0.110 89.6  85 
 MAKU BZ EPg       9 5  2.32                              90    -0.110  201 290 
 MAKU BN ESg       9 5 26.56                              90     0.010  201 290 
 MAKU BZ  IAML     9 5 27.13       285.1 0.39                           201 290 
 ZNJK BZ EPn       9 5 12.50                              52     0.410  280 145 
 ZNJK BE ESg       9 5 48.32                              90    -0.210  280 145 
 ZNJK BZ  IAML     9 5 59.17        54.1 0.52                           280 145 
                                                                                
 2010  211 0809 57.2 L  28.156  51.421 18.0  BIN  5 0.1 3.5LBIN                1
 GAP=279        0.34       8.0     4.3  6.9  0.1344E+02  0.1492E+02 -0.2595E+02E
 2010-02-11-0810-19S.BIN__060                                                  6
 ACTION:NEW 10-04-24 13:22 OP:moh  STATUS:               ID:20100211080957 L   I
 STAT SP IPHASW D HRMM SECON CODA AMPLIT PERI AZIMU VELO AIN AR TRES W  DIS CAZ7
 GHIR BZ EPg       810 22.84                              92     0.010  154  84 
 GHIR BE ESg       810 41.57                              92     0.010  154  84 
 GHIR BZ  IAML     810 45.74      1372.6 0.69                           154  84 
 NASN BZ EPn       811 10.72                              52    -0.1 8  532  14 
 NASN BZ  IAML     812  7.37        12.2 0.38                           532  14 
 KRBR BZ EPn       811 13.98                              52    -0.1 8  558  67 
 TABS BZ EPn       811 46.03                              52     0.0 6  817  40 
 DAMV BZ EPn       811 48.06                              52     0.2 6  831   3 
                                                                                
