 2010  220 0933 53.2 L  30.785  50.313 14.1  BIN  5 0.1 3.9LBIN                1
 GAP=180        0.36       3.1     5.8  8.4  0.1284E+02 -0.4267E+02 -0.1219E+02E
 2010-02-20-0934-01S.BIN__063                                                  6
 ACTION:NEW 10-04-24 13:22 OP:moh  STATUS:               ID:20100220093353 L   I
 STAT SP IPHASW D HRMM SECON CODA AMPLIT PERI AZIMU VELO AIN AR TRES W  DIS CAZ7
 SHGR BZ EPg       934 26.72                              90    -0.110  205 316 
 SHGR BE ESg       934 51.50                              90     0.110  205 316 
 NASN BZ EPn       934 41.59                              52     0.1 9  325  46 
 KHMZ BZ EPn       934 41.88                              52    -0.1 9  329 354 
 KHMZ BZ  IAML     935 31.01       345.4 0.68                           329 354 
 GHIR BZ EPn       934 48.08                              52     0.0 9  379 136 
 GHIR BZ  IAML     935 57.40       186.7 0.51                           379 136 
 ASAO BZ EPn       934 53.00                              52     0.0 9  418 356 
 ASAO BZ  IAML     936  0.00       342.3 0.59                           418 356 
                                                                                
 2010  220 0936 43.2 L  31.224  50.344 16.8  BIN  7 0.1 4.0LBIN                1
 GAP=163        0.41       2.9     5.7  9.0  0.9295E+01 -0.4478E+02 -0.1215E+02E
 ACTION:UPD 10-04-24 13:22 OP:moh  STATUS:               ID:20100220093644 L   I
 2010-02-20-0937-00S.BIN__069                                                  6
 STAT SP IPHASW D HRMM SECON CODA AMPLIT PERI AZIMU VELO AIN AR TRES W  DIS CAZ7
 SHGR BZ EPg       937 12.26                              91     0.010  176 304 
 SHGR BZ  IAML     937 42.36      4949.8 0.58                           176 304 
 KHMZ BZ EPn       937 25.86                              52     0.110  281 353 
 KHMZ BZ  IAML     938 30.40      1419.1 0.83                           281 353 
 NASN BZ EPn       937 27.01                              52    -0.110  291  52 
 NASN BZ  IAML     938 18.34       106.8 1.35                           291  52 
 ASAO BZ EPn       937 36.70                              52    -0.1 9  370 355 
 GHVR BZ EPn       937 36.80                              52     0.0 9  371  13 
 GHVR BZ  IAML     938 49.09       169.4 0.70                           371  13 
 GHIR BZ EPn       937 42.17                              52     0.0 9  414 141 
                                                                                
 2010  220 1648  9.7 L  40.423  46.959 14.1  BIN  5 0.1 3.6LBIN                1
 GAP=259        0.44       7.1     6.0  7.3  0.3653E+02 -0.3331E+02 -0.4119E+02E
 2010-02-20-1648-21S.BIN__063                                                  6
 ACTION:NEW 10-04-24 13:22 OP:moh  STATUS:               ID:20100220164809 L   I
 STAT SP IPHASW D HRMM SECON CODA AMPLIT PERI AZIMU VELO AIN AR TRES W  DIS CAZ7
 GRMI BZ EPg      1648 41.88                              90    -0.110  196 156 
 GRMI BE ESg      1649  5.63                              90     0.010  196 156 
 GRMI BZ  IAML    1649  6.94       729.0 0.77                           196 156 
 MAKU BZ EPg      1648 47.07                              90     0.010  228 239 
 MAKU BZ  IAML    1649 19.31       708.4 0.14                           228 239 
 ZNJK BZ EPn      1649 12.72                              52     0.1 9  443 160 
 CHTH BZ EPn      1649 34.81                              52     0.2 7  620 143 
 DAMV BZ EPn      1649 43.12                              52    -0.2 7  690 139 
                                                                                
 2010  221 0652 14.6 L  30.869  50.128 15.3  BIN  4 0.0 3.2LBIN                1
 GAP=269        0.32       7.1     5.0  5.8  0.2616E+02 -0.2057E+02 -0.8198E+01E
 ACTION:UPD 10-04-24 13:22 OP:moh  STATUS:               ID:20100221065214 L   I
 2010-02-21-0652-00S.BIN__069                                                  6
 STAT SP IPHASW D HRMM SECON CODA AMPLIT PERI AZIMU VELO AIN AR TRES W  DIS CAZ7
 SHGR BZ EPg       652 45.27                              90     0.010  186 318 
 SHGR BN ESg       653  7.68                              90     0.010  186 318 
 SHGR BZ  IAML     653 13.91       384.3 0.54                           186 318 
 NASN BZ EPn       653  3.77                              52     0.0 9  332  49 
 ASAO BZ EPn       653 13.07                              52    -0.1 9  408 359 
 ASAO BZ  IAML     654 19.72        25.2 0.66                           408 359 
 SNGE BZ EPn       653 28.96                              52     0.0 8  536 332 
                                                                                
 2010  221 1413 30.5 L  37.684  56.993 43.9  BIN  6 0.2 3.4LBIN                1
 GAP=179        0.73       3.8     4.5  4.2  0.2312E+01  0.2962E+01  0.6172E+01E
 2010-02-21-1412-45S.BIN__063                                                  6
 ACTION:NEW 10-04-24 13:22 OP:moh  STATUS:               ID:20100221141330 L   I
 STAT SP IPHASW D HRMM SECON CODA AMPLIT PERI AZIMU VELO AIN AR TRES W  DIS CAZ7
 BJRD BZ EPg      1413 39.88                             139    -0.110 36.6  87 
 BJRD BZ  IAML    1413 50.21      2168.6 0.56                          36.6  87 
 MRVT BZ EPg      1413 45.50                             116     0.210 79.8 268 
 MRVT BZ  IAML    1414  3.51      1170.0 0.52                          79.8 268 
 TABS BZ EPn      1414 31.11                              54    -0.1 9  448 179 
 TABS BE ESg      1415 32.67                              94     0.2 9  448 179 
 TABS BZ  IAML    1415 42.96        33.4 0.64                           448 179 
 DAMV BZ EPn      1414 38.16                              54    -0.1 8  503 245 
 DAMV BZ  IAML    1416  1.71        57.8 0.68                           503 245 
 SHRT BZ EPn      1414 42.63                              54     0.2 8  538 145 
                                                                                
 2010  221 1600 11.8 L  34.778  59.034 15.0  BIN  3 0.0 3.1LBIN                1
 GAP=200        0.30       2.8     2.3  0.0  0.3469E+01  0.2962E+01  0.6172E+01E
 2010-02-21-1600-20S.BIN__063                                                  6
 ACTION:NEW 10-04-24 13:22 OP:moh  STATUS:               ID:20100221160014 L   I
 STAT SP IPHASW D HRMM SECON CODA AMPLIT PERI AZIMU VELO AIN AR TRES W  DIS CAZ7
 SHRT BZ EPg      16 0 40.04                              90     0.010  171 137 
 SHRT BZ  IAML    16 1 13.41       201.4 0.72                           171 137 
 TABS BZ EPg      16 0 47.32                              90     0.010  216 235 
 TABS BZ  IAML    16 1 27.04       202.0 0.36                           216 235 
                                                                                
 2010  222 1954 28.7 L  36.932  53.849 18.0F BIN  3 0.1 3.0LBIN                1
 GAP=197        0.30       3.1     2.1  0.0 -0.5588E+01  0.2962E+01  0.6172E+01E
 2010-02-22-1954-36S.BIN__060                                                  6
 ACTION:NEW 10-04-24 13:22 OP:moh  STATUS:               ID:20100222195428 L   I
 STAT SP IPHASW D HRMM SECON CODA AMPLIT PERI AZIMU VELO AIN AR TRES W  DIS CAZ7
 MRVT BZ EPg      1955  3.90                              91     0.010  214  67 
 MRVT BZ  IAML    1955 30.96       114.0 0.19                           214  67 
 DAMV BZ EPg      1955  5.14                              91    -0.110  222 230 
 DAMV BN ESg      1955 31.94                              91     0.110  222 230 
 DAMV BZ  IAML    1955 35.39        98.3 0.42                           222 230 
                                                                                
 2010  223 0159 28.4 L  35.942  53.470 15.0F BIN  4 0.3 3.6LBIN                1
 GAP=280        0.82      10.1     6.9  0.0  0.3386E+02  0.2962E+01  0.6172E+01E
 2010-02-23-0159-32S.BIN__060                                                  6
 ACTION:NEW 10-04-24 13:22 OP:moh  STATUS:               ID:20100223015929 L   I
 STAT SP IPHASW D HRMM SECON CODA AMPLIT PERI AZIMU VELO AIN AR TRES W  DIS CAZ7
 DAMV BZ EPg       159 51.80                              91    -0.110  140 256 
 DAMV BN ESg       2 0  9.30                              91     0.310  140 256 
 DAMV BZ  IAML     2 0 15.87       755.6 0.27                           140 256 
 CHTH BZ EPg       2 0  3.36                              90     0.110  212 270 
 GHVR BZ EPg       2 0 10.20                              90    -0.610  259 232 
 GHVR BZ  IAML     2 0 49.10       388.2 0.96                           259 232 
 NASN BZ EPn       2 0 20.70                              52     0.4 9  354 190 
                                                                                
 2010  223 0242 45.8 L  27.875  55.868 15.0  BIN  3 0.0 3.4LBIN                1
 GAP=130        0.30       1.5     2.2  0.0  0.5608E+00  0.2962E+01  0.6172E+01E
 2010-02-23-0242-41S.BIN__060                                                  6
 ACTION:NEW 10-04-24 13:22 OP:moh  STATUS:               ID:20100223024245 L   I
 STAT SP IPHASW D HRMM SECON CODA AMPLIT PERI AZIMU VELO AIN AR TRES W  DIS CAZ7
 BNDS BZ EPg       242 56.60                              92     0.010 60.6 150 
 BNDS BZ  IAML     243  8.54      1513.2 0.00                          60.6 150 
 KRBR BZ EPg       243 26.63                              90     0.010  249  20 
 GHIR BZ EPn       243 29.10                              52     0.010  287 280 
 GHIR BZ  IAML     244 14.22       187.2 1.05                           287 280 
                                                                                
 2010  223 0728  2.3 L  32.582  48.420 14.1  BIN 10 0.2 4.9LBIN                1
 GAP=191        0.63       2.7     5.8  6.0 -0.2475E+01  0.1932E+02 -0.4497E+01E
 2010-02-23-0727-47S.BIN__060                                                  6
 ACTION:NEW 10-04-24 13:22 OP:moh  STATUS:               ID:20100223072802 L   I
 STAT SP IPHASW D HRMM SECON CODA AMPLIT PERI AZIMU VELO AIN AR TRES W  DIS CAZ7
 SHGR BZ EPg       728 13.30                              90    -0.210 63.6 146 
 SHGR BZ  IAML     728 33.14     92442.8 0.41                          63.6 146 
 KHMZ BZ EPg       728 34.04                              90    -0.110  193  48 
 GHVR BZ EPn       728 52.29                              52     0.5 9  336  50 
 GHVR BZ  IAML     729 44.23      2478.7 0.00                           336  50 
 NASN BZ EPn       729  1.61                              52     0.1 9  412  85 
 NASN BZ  IAML     730  5.01      1489.7 0.00                           412  85 
 CHTH BZ EPn       729  5.55                              52     0.0 9  445  33 
 ZNJK BZ EPn       729  6.81                              52     0.2 8  454   3 
 DAMV BZ EPn       729  8.56                              52    -0.1 8  471  43 
 DAMV BN ESg       730 13.53                              90    -0.2 8  471  43 
 GRMI BZ EPn       729 35.98                              52    -0.2 7  693 356 
 MAKU BZ EPn       729 52.07                              52    -0.4 6  824 337 
 MRVT BZ EPn       730  1.86                              52     0.4 5  897  49 
                                                                                
 2010  223 1025 55.0 L  32.583  48.371 14.2  BIN  8 0.3 4.7LBIN                1
 GAP=199        0.91       5.2     8.8  9.6  0.1090E+02  0.2419E+02 -0.2160E+02E
 2010-02-23-1025-08S.BIN__060                                                  6
 ACTION:NEW 10-04-24 13:22 OP:moh  STATUS:               ID:20100223102555 L   I
 STAT SP IPHASW D HRMM SECON CODA AMPLIT PERI AZIMU VELO AIN AR TRES W  DIS CAZ7
 SHGR BZ EPg      1026  6.61                              90     0.010 66.3 142 
 SHGR BZ  IAML    1026 29.00     53652.9 0.78                          66.3 142 
 KHMZ BZ EPg      1026 27.40                              90     0.010  196  49 
 SNGE BZ EPn      1026 39.29                              52    -0.110  294 341 
 GHVR BZ EPn      1026 45.43                              52     0.5 9  340  51 
 GHVR BZ  IAML    1027 43.73      3113.0 0.94                           340  51 
 NASN BZ EPn      1026 54.71                              52    -0.1 9  417  86 
 NASN BZ  IAML    1027 57.55       961.8 0.94                           417  86 
 CHTH BZ EPn      1026 58.30                              52    -0.2 9  448  34 
 ZNJK BZ EPn      1026 59.72                              52     0.4 8  454   4 
 DAMV BZ EPn      1027  1.31                              52    -0.5 8  474  44 
 DAMV BZ  IAML    1028 22.99       870.7 0.58                           474  44 
                                                                                
 2010  223 1039  5.4 L  32.583  48.372 14.2  BIN  5 0.3 3.3LBIN                1
 GAP=199        0.98       4.7     9.8 12.6 -0.1988E+02  0.8969E+02 -0.2652E+02E
 2010-02-23-1039-03S.BIN__060                                                  6
 ACTION:NEW 10-04-24 13:22 OP:moh  STATUS:               ID:20100223103927 L   I
 STAT SP IPHASW D HRMM SECON CODA AMPLIT PERI AZIMU VELO AIN AR TRES W  DIS CAZ7
 SHGR BZ EPg      1039 16.86                              90    -0.110 66.3 142 
 KHMZ BZ EPg      1039 37.91                              90     0.110  196  49 
 KHMZ BN ESg      1040  1.22                              90    -0.210  196  49 
 SNGE BZ EPn      1039 49.67                              52    -0.110  294 341 
 GHVR BZ EPn      1039 55.94                              52     0.6 9  340  51 
 GHVR BZ  IAML    1040 38.40        65.5 0.56                           340  51 
 DAMV BZ EPn      1040 11.79                              52    -0.4 8  474  43 
 DAMV BZ  IAML    1040 48.04        38.9 0.44                           474  43 
                                                                                
 2010  223 1040 58.7 L  32.572  48.424 34.0  BIN  3 0.0 3.1LBIN                1
 GAP=195        0.33       1.9     3.7  4.3 -0.4427E+01  0.1224E+02 -0.6798E+01E
 ACTION:UPD 10-04-24 13:22 OP:moh  STATUS:               ID:20100223104058 L   I
 2010-02-23-1040-00S.BIN__069                                                  6
 STAT SP IPHASW D HRMM SECON CODA AMPLIT PERI AZIMU VELO AIN AR TRES W  DIS CAZ7
 SHGR BZ EPg      1041 10.22                             114    -0.110 62.5 145 
 SHGR BE ESg      1041 18.78                             114     0.010 62.5 145 
 SHGR BZ  IAML    1041 21.47      1055.3 0.56                          62.5 145 
 KHMZ BZ EPN5     1041 28.76                              54     0.010  193  48 
 KHMZ BN ESg      1041 53.08                              96     0.010  193  48 
 KHMZ BZ  IAML    1041 55.99       216.7 0.60                           193  48 
 SNGE BZ EPn      1041 41.63                              54     0.010  297 341 
                                                                                
 2010  223 1045  7.2 L  32.557  48.529 40.2  BIN  3 0.0 3.0LBIN                1
 GAP=186        0.32       2.0     3.6  3.5 -0.5037E+01  0.9733E+01 -0.6069E+01E
 ACTION:UPD 10-04-24 13:22 OP:moh  STATUS:               ID:20100223104507 L   I
 2010-02-23-1042-00S.BIN__069                                                  6
 STAT SP IPHASW D HRMM SECON CODA AMPLIT PERI AZIMU VELO AIN AR TRES W  DIS CAZ7
 SHGR BN EPg      1045 18.35                             123     0.010 55.9 153 
 SHGR BN ESg      1045 26.43                             123     0.010 55.9 153 
 SHGR BZ  IAML    1045 27.53       588.9 0.26                          55.9 153 
 KHMZ BZ EPN5     1045 35.93                              54     0.010  187  45 
 KHMZ BE ESg      1046  0.18                              99     0.010  187  45 
 KHMZ BZ  IAML    1046  2.20       193.8 0.48                           187  45 
 SNGE BZ EPn      1045 50.12                              54     0.010  302 339 
                                                                                
 2010  223 1123 20.4 L  32.816  48.535 14.1  BIN  4 0.1 3.2LBIN                1
 GAP=175        0.42       2.8     6.3  8.5 -0.9625E+01  0.4101E+02 -0.1790E+02E
 2010-02-23-1123-23S.BIN__060                                                  6
 ACTION:NEW 10-04-24 13:22 OP:moh  STATUS:               ID:20100223112320 L   I
 STAT SP IPHASW D HRMM SECON CODA AMPLIT PERI AZIMU VELO AIN AR TRES W  DIS CAZ7
 SHGR BZ EPg      1123 34.53                              90     0.010 82.4 162 
 SHGR BZ  IAML    1124 24.93      1298.3 0.59                          82.4 162 
 KHMZ BZ EPg      1123 48.19                              90    -0.110  168  52 
 KHMZ BZ  IAML    1124 45.44       204.4 0.49                           168  52 
 SNGE BZ EPn      1124  2.38                              52    -0.110  275 337 
 CHTH BZ EPn      1124 20.31                              52     0.1 9  418  34 
                                                                                
 2010  223 1931 48.9 L  32.557  48.418 14.1  BIN  7 0.4 4.1LBIN                1
 GAP=197        1.09       4.6     9.5 10.9 -0.1183E+02  0.6614E+02 -0.1508E+02E
 2010-02-23-1931-41S.BIN__063                                                  6
 ACTION:NEW 10-04-24 13:22 OP:moh  STATUS:               ID:20100223193149 L   I
 STAT SP IPHASW D HRMM SECON CODA AMPLIT PERI AZIMU VELO AIN AR TRES W  DIS CAZ7
 SHGR BZ EPg      1931 59.87                              90     0.110 61.4 144 
 KHMZ BZ EPg      1932 20.59                              90    -0.510  195  47 
 KHMZ BN ESg      1932 44.81                              90     0.210  195  47 
 KHMZ BZ  IAML    1932 48.21      1955.5 0.52                           195  47 
 ASAO BZ EPn      1932 30.68                              52     0.710  267  34 
 SNGE BZ EPn      1932 33.72                              52    -0.110  298 341 
 NASN BZ EPn      1932 47.96                              52    -0.2 9  413  85 
 CHTH BZ EPn      1932 52.26                              52    -0.2 9  448  33 
 DAMV BZ EPn      1932 55.32                              52    -0.3 8  473  43 
 DAMV BZ  IAML    1934  7.80       186.5 0.69                           473  43 
                                                                                
 2010  224 0451 44.5 L  34.533  52.094 14.1  BIN  8 0.1 3.5LBIN                1
 GAP=166        0.43       1.6     2.7  4.0  0.2994E+00  0.1368E+01 -0.9262E+00E
 2010-02-24-0451-39S.BIN__060                                                  6
 ACTION:NEW 10-04-24 13:22 OP:moh  STATUS:               ID:20100224045144 L   I
 STAT SP IPHASW D HRMM SECON CODA AMPLIT PERI AZIMU VELO AIN AR TRES W  DIS CAZ7
 GHVR BZ EPg       451 58.20                              90     0.110 78.1 266 
 GHVR BZ  IAML     452 16.80      2794.6 0.79                          78.1 266 
 DAMV BZ EPg       452  5.36                              90     0.110  122 355 
 CHTH BZ EPg       452 13.54                              90    -0.210  176 330 
 ASAO BZ EPg       452 15.94                              90     0.010  190 271 
 NASN BZ EPg       452 18.13                              90     0.010  203 161 
 KHMZ BZ EPg       452 19.86                              90    -0.110  215 246 
 ZNJK BZ EPn       452 40.85                              52     0.0 9  389 309 
 ZNJK BZ  IAML     453 43.91        51.8 0.53                           389 309 
 SNGE BZ EPn       452 47.02                              52     0.1 9  439 279 
                                                                                
