 2010  3 4 1638 48.3 L  35.747  49.006 15.0  BIN  7 0.6 3.6LBIN                1
 GAP=100        1.93       6.2     4.9 10.1  0.2196E+01 -0.1183E+02  0.1444E+01E
 2010-03-04-1638-00S.BIN__063                                                  6
 ACTION:NEW 10-04-24 13:22 OP:moh  STATUS:               ID:20100304163849 L   I
 STAT SP IPHASW D HRMM SECON CODA AMPLIT PERI AZIMU VELO AIN AR TRES W  DIS CAZ7
 ZNJK BZ EPg      1639  6.78                              91     0.310  106 344 
 ASAO BZ EPg      1639 14.43                              91    -0.910  162 145 
 SNGE BZ EPg      1639 16.27                              91     0.210  167 245 
 SNGE BZ ESg      1639 36.39                              91     0.010  167 245 
 CHTH BZ EPg      1639 19.35                              91    -0.810  192  84 
 CHTH BZ  IAML    1639 43.39       354.9 0.28                           192  84 
 KHMZ BZ EPN5     1639 25.51                              42    -0.310  239 158 
 KHMZ BZ  IAML    1639 59.96       632.8 0.48                           239 158 
 GHVR BZ EPn      1639 27.36                              42     0.610  248 124 
 GHVR BE ESg      1639 59.21                              90     0.910  248 124 
 GHVR BZ  IAML    1640  7.60       310.2 0.64                           248 124 
 DAMV BZ EPn      1639 29.56                              42     0.010  269  92 
 DAMV BZ  IAML    1640 10.59       414.3 0.48                           269  92 
                                                                                
 2010  3 6 0115 52.0 L  32.236  61.119 17.1F BIN  3 0.0 3.2LBIN                1
 GAP=213        0.27       1.3     5.6  0.0  0.5141E+01 -0.5589E+02 -0.1747E+03E
 2010-03-06-0115-54S.BIN__063                                                  6
 ACTION:NEW 10-04-24 13:22 OP:moh  STATUS:               ID:20100306011551 L   I
 STAT SP IPHASW D HRMM SECON CODA AMPLIT PERI AZIMU VELO AIN AR TRES W  DIS CAZ7
 SHRT BZ EPg       116 20.80                              91     0.010  175 334 
 SHRT BN ESg       116 41.83                              91     0.010  175 334 
 SHRT BZ  IAML     116 44.44       580.3 0.28                           175 334 
 ZHSF BZ EPn       116 35.86                              52     0.010  293 187 
 ZHSF BZ  IAML     117 21.80        64.5 0.46                           293 187 
 KRBR BZ EPn       116 59.88                              52     0.0 8  485 240 
 KRBR BZ  IAML     118  5.45        15.8 0.28                           485 240 
                                                                                
 2010  3 8 1639 35.4 L  30.306  57.706 15.0F BIN  5 0.6 3.8LBIN                1
 GAP=103        1.59       8.1     5.8  0.0  0.6075E-01  0.3492E+01 -0.1552E+02E
 ACTION:UPD 10-04-24 13:22 OP:moh  STATUS:               ID:20100308163935 L   I
 2010-03-08-1639-00S.BIN__069                                                  6
 STAT SP IPHASW D HRMM SECON CODA AMPLIT PERI AZIMU VELO AIN AR TRES W  DIS CAZ7
 KRBR BZ EPg      1639 51.37                              91    -0.810 97.9 249 
 ZHSF BZ EPn      1640 21.25                              52     0.110  306 104 
 ZHSF BN ESg      1641  1.15                              90    -0.410  306 104 
 ZHSF BZ  IAML    1641  8.87       281.9 0.60                           306 104 
 BNDS BZ EPn      1640 28.20                              52     1.0 9  355 205 
 TABS BZ EPn      1640 29.89                              52     0.3 9  375 352 
 TABS BZ  IAML    1641 29.36       510.6 0.52                           375 352 
 SHRT BZ EPn      1640 38.09                              52     0.0 9  444  33 
 SHRT BZ  IAML    1641 56.93        74.0 0.68                           444  33 
                                                                                
 2010  3 8 1751 22.1 L  32.391  55.597 14.2F BIN  4 0.4 3.3LBIN                1
 GAP=123        1.05       6.4     4.2  0.0  0.2845E+01  0.3492E+01 -0.1552E+02E
 ACTION:UPD 10-04-24 13:22 OP:moh  STATUS:               ID:20100308175121 L   I
 2010-03-08-1751-00S.BIN__069                                                  6
 STAT SP IPHASW D HRMM SECON CODA AMPLIT PERI AZIMU VELO AIN AR TRES W  DIS CAZ7
 TABS BZ EPg      1751 54.81                              90    -0.110  199  45 
 NASN BZ EPn      1752  3.87                              52     0.810  266 281 
 NASN BN ESg      1752 37.03                              90    -0.310  266 281 
 NASN BZ  IAML    1752 40.61       161.4 0.46                           266 281 
 KRBR BZ EPn      1752  5.81                              52    -0.210  289 157 
 KRBR BZ  IAML    1752 43.56       170.5 0.72                           289 157 
 ASAO BN EPn      1752 40.50                              52    -0.4 8  570 296 
                                                                                
 2010  3 8 2254 30.5 L  33.927  57.181 14.1  BIN  4 0.1 3.0LBIN                1
 GAP=201        0.46       3.3     2.4  5.5  0.2272E+01 -0.6224E+01 -0.1223E+02E
 ACTION:UPD 10-04-24 13:22 OP:moh  STATUS:               ID:20100308225430 L   I
 2010-03-08-2254-00S.BIN__069                                                  6
 STAT SP IPHASW D HRMM SECON CODA AMPLIT PERI AZIMU VELO AIN AR TRES W  DIS CAZ7
 TABS BZ EPg      2254 36.63                              99    -0.110 31.4 191 
 SHRT BZ EPn      2255 14.18                              52    -0.110  290  95 
 SHRT BZ  IAML    2255 59.55        27.3 0.35                           290  95 
 NASN BZ EPn      2255 31.35                              52    -0.1 9  426 254 
 NASN BN ESg      2256 29.72                              90     0.0 9  426 254 
 KRBR BZ EPn      2255 33.36                              52     0.3 9  439 185 
 KRBR BN ESg      2256 33.30                              90    -0.1 9  439 185 
 KRBR BZ  IAML    2256 43.56        27.4 0.64                           439 185 
                                                                                
 2010  3 8 2257 13.4 L  34.066  57.158 15.0F BIN  3 0.3 3.4LBIN                1
 GAP=292        0.78       5.6     5.9  0.0  0.1914E+02 -0.6224E+01 -0.1223E+02E
 ACTION:UPD 10-04-24 13:22 OP:moh  STATUS:               ID:20100308225712 L   I
 2010-03-08-2257-00S.BIN__069                                                  6
 STAT SP IPHASW D HRMM SECON CODA AMPLIT PERI AZIMU VELO AIN AR TRES W  DIS CAZ7
 TABS BZ EPg      2257 21.61                              94    -0.310 46.3 184 
 TABS BN ESg      2257 28.40                              94     0.210 46.3 184 
 NASN BZ EPn      2258 15.00                              52     0.5 9  428 252 
 NASN BN ESg      2259 13.03                              90    -0.2 9  428 252 
 NASN BZ  IAML    2259 18.08        29.0 0.64                           428 252 
 KRBR BZ EPn      2258 17.56                              52    -0.2 8  454 185 
 KRBR BZ  IAML    2259 29.30       118.5 0.48                           454 185 
                                                                                
 2010  3 9 0322 15.3 L  36.357  51.806  6.1  BIN  6 0.3 3.8LBIN                1
 GAP=252        0.99       6.6     9.9  9.3  0.2823E+02 -0.1139E+02 -0.4131E+02E
 ACTION:UPD 10-04-24 13:22 OP:moh  STATUS:               ID:20100309032214 L   I
 2010-03-09-0322-00S.BIN__069                                                  6
 STAT SP IPHASW D HRMM SECON CODA AMPLIT PERI AZIMU VELO AIN AR TRES W  DIS CAZ7
 CHTH BZ EPg       322 29.55                              90     0.310 78.9 231 
 DAMV BZ EPg       322 29.57                              90    -0.210 82.0 170 
 GHVR BZ EPN5      322 51.04                              47     0.510  214 194 
 GHVR BN ESg       323 18.82                              90    -0.210  214 194 
 GHVR BZ  IAML     323 22.32       559.2 0.68                           214 194 
 ASAO BZ EPn       322 56.25                              47     0.110  258 219 
 ASAO BZ  IAML     323 32.41       553.6 0.52                           258 219 
 ZNJK BZ EPn       322 58.79                              47    -0.310  282 278 
 ZNJK BZ  IAML     323 39.99       793.8 0.48                           282 278 
 SNGE BZ EPn       323 16.99                              47    -0.1 9  427 252 
                                                                                
 2010  310 0236 19.5 L  38.522  49.259 77.5  BIN  4 0.0 3.4LBIN                1
 GAP=269        0.30       3.0    10.8  0.0  0.2604E+02  0.6212E+03  0.1709E+03E
 ACTION:UPD 10-04-24 13:22 OP:moh  STATUS:               ID:20100310023619 L   I
 2010-03-10-0236-00S.BIN__069                                                  6
 STAT SP IPHASW D HRMM SECON CODA AMPLIT PERI AZIMU VELO AIN AR TRES W  DIS CAZ7
 GRMI BZ EPg       236 40.53                             113     0.010  123 285 
 ZNJK BZ EPg       236 51.22                             101     0.010  212 194 
 ZNJK BE ESg       237 14.34                             101     0.010  212 194 
 ZNJK BZ  IAML     237 20.75       213.9 0.18                           212 194 
 MAKU BZ EPn       237  1.11                              52            407 285 
 MAKU BZ  IAML     237 36.96        75.8 0.34                           407 285 
 SNGE BZ EPn       237  6.34                              52            417 205 
 SNGE BZ  IAML     237 49.03        65.9 0.29                           417 205 
                                                                                
 2010  311 1831  7.5 L  30.755  49.772 41.1  BIN  7 0.4 3.0LBIN                1
 GAP=198        1.16       9.0    11.8 13.4  0.6295E+02 -0.7097E+02  0.2264E+02E
 ACTION:UPD 10-04-24 13:22 OP:moh  STATUS:               ID:20100311183107 L   I
 2010-03-11-1831-00S.BIN__069                                                  6
 STAT SP IPHASW D HRMM SECON CODA AMPLIT PERI AZIMU VELO AIN AR TRES W  DIS CAZ7
 SHGR BZ EPN5     1831 34.58                              54     0.010  176 329 
 SHGR BN ESg      1831 57.27                              99     0.010  176 329 
 SHGR BZ  IAML    1831 59.37       274.6 0.92                           176 329 
 KHMZ BZ EPn      1831 53.70                              54    -0.4 9  332   3 
 NASN BZ EPn      1831 58.30                              54    -0.2 9  366  51 
 GHIR BN EPn      1832  4.38                              54     0.1 9  415 130 
 ASAO BZ EPn      1832  6.18                              54     0.9 9  421   3 
 ASAO BZ  IAML    1833 14.22        22.8 0.72                           421   3 
 GHVR BZ EPn      1832  6.87                              54     0.0 9  436  18 
 SNGE BZ EPn      1832 18.59                              54    -0.4 8  532 335 
 SNGE BZ  IAML    1833 30.93        10.7 0.48                           532 335 
                                                                                
 2010  314 0537  0.9 L  26.312  54.608 14.1  BIN  3 0.0 3.1LBIN                1
 GAP=272        0.34       9.3     5.1  7.8 -0.3355E+02  0.3401E+02 -0.3174E+02E
 ACTION:UPD 10-04-24 13:22 OP:moh  STATUS:               ID:20100314053700 L   I
 2010-03-14-0537-00S.BIN__069                                                  6
 STAT SP IPHASW D HRMM SECON CODA AMPLIT PERI AZIMU VELO AIN AR TRES W  DIS CAZ7
 BNDS BZ EPg       537 33.34                              90     0.010  197  52 
 BNDS BN ESg       537 56.99                              90     0.010  197  52 
 GHIR BZ EPn       537 42.40                              52     0.010  271 324 
 GHIR BZ  IAML     538 24.63        95.0 0.62                           271 324 
 KRBR BZ EPn       538  5.87                              52     0.0 8  458  27 
 KRBR BZ  IAML     539  0.63        25.6 0.40                           458  27 
                                                                                
 2010  314 0853 55.9 L  27.468  58.288 27.6  BIN  4 0.1 3.2LBIN                1
 GAP=161        0.40       4.1     3.9  8.0  0.1098E+02 -0.2797E+02 -0.2176E+02E
 2010-03-14-0854-11S.BIN__063                                                  6
 ACTION:NEW 10-04-24 13:22 OP:moh  STATUS:               ID:20100314085355 L   I
 STAT SP IPHASW D HRMM SECON CODA AMPLIT PERI AZIMU VELO AIN AR TRES W  DIS CAZ7
 BNDS BZ EPg       854 29.77                              93     0.110  209 268 
 BNDS BN ESg       854 54.22                              93    -0.110  209 268 
 BNDS BZ  IAML     854 58.75       176.8 0.30                           209 268 
 CHBR BZ EP        854 39.67                              54     0.010  301 133 
 KRBR BZ EPn       854 41.83                              54    -0.110  316 332 
 GHIR BZ EPn       855  8.36                              54     0.1 8  530 281 
 GHIR BZ  IAML     856  1.83        21.3 0.51                           530 281 
                                                                                
 2010  314 1201 35.7 L  29.775  51.388 15.4  BIN  4 0.2 3.7LBIN                1
 GAP=181        0.66       4.4     4.6 12.5 -0.1916E+01  0.3262E+02 -0.3969E+02E
 2010-03-14-1200-07S.BIN__063                                                  6
 ACTION:NEW 10-04-24 13:22 OP:moh  STATUS:               ID:20100314120136 L   I
 STAT SP IPHASW D HRMM SECON CODA AMPLIT PERI AZIMU VELO AIN AR TRES W  DIS CAZ7
 GHIR BZ EPg      12 2 12.79                              90    -0.110  227 136 
 GHIR BN ESg      12 2 39.97                              90     0.010  227 136 
 GHIR BZ  IAML    12 2 51.58       569.1 0.46                           227 136 
 SHGR BZ EPn      12 2 27.86                              52     0.2 9  358 317 
 NASN BZ EPn      12 2 28.11                              52    -0.4 9  362  22 
 KRBR BZ EPn      12 2 48.24                              52     0.2 8  519  86 
 KRBR BZ  IAML    12 3 47.29        43.8 1.12                           519  86 
 KRBR BN ESg      12 4  0.75                              90     0.2 8  519  86 
                                                                                
 2010  314 1238 15.4 L  28.150  52.010 23.6  BIN  5 0.1 3.3LBIN                1
 GAP=268        0.33       4.1     4.5  5.0  0.9074E+01  0.1813E+02  0.5927E+01E
 2010-03-14-1238-22S.BIN__063                                                  6
 ACTION:NEW 10-04-24 13:22 OP:moh  STATUS:               ID:20100314123815 L   I
 STAT SP IPHASW D HRMM SECON CODA AMPLIT PERI AZIMU VELO AIN AR TRES W  DIS CAZ7
 GHIR BZ EPg      1238 31.84                              96     0.010 97.0  81 
 GHIR BE ESg      1238 43.85                              96     0.010 97.0  81 
 GHIR BZ  IAML    1238 53.23       734.2 0.88                          97.0  81 
 BNDS BZ EPn      1239 14.33                              54     0.0 9  418 100 
 BNDS BZ  IAML    1240 14.02        50.6 0.44                           418 100 
 KRBR BZ EPn      1239 25.13                              54    -0.1 8  505  65 
 NASN BZ EPn      1239 27.21                              54     0.0 8  521   8 
 TABS BZ EPn      1239 59.44                              54     0.2 6  781  37 
                                                                                
 2010  314 1253 19.9 L  36.178  45.442 14.1  BIN  5 0.2 3.2LBIN                1
 GAP=271        0.74       4.1     9.0 10.8 -0.8161E+01  0.7515E+02 -0.1942E+02E
 2010-03-14-1252-47S.BIN__063                                                  6
 ACTION:NEW 10-04-24 13:22 OP:moh  STATUS:               ID:20100314125320 L   I
 STAT SP IPHASW D HRMM SECON CODA AMPLIT PERI AZIMU VELO AIN AR TRES W  DIS CAZ7
 SNGE BZ EPg      1253 54.22                              90    -0.310  210 124 
 SNGE BN ESg      1254 19.80                              90     0.010  210 124 
 SNGE BZ  IAML    1254 25.15       626.5 0.52                           210 124 
 ZNJK BZ EPn      1254  4.47                              52    -0.110  296  78 
 ZNJK BE ESg      1254 43.39                              90     0.110  296  78 
 ZNJK BZ  IAML    1254 48.29        46.6 0.44                           296  78 
 GRMI BZ EPn      1254 12.72                              52    -0.1 9  364  36 
 ASAO BZ EPn      1254 24.66                              52     0.5 8  454 112 
 ASAO BZ  IAML    1255 41.15        24.2 0.56                           454 112 
 KHMZ BZ EPn      1254 29.21                              52     0.1 8  494 122 
                                                                                
 2010  314 1550 58.9 L  26.212  55.368 14.2  BIN  3 0.1 3.1LBIN                1
 GAP=284        0.42       5.8     1.8  6.5 -0.1726E+01 -0.6893E-02  0.2886E+02E
 2010-03-14-1550-43S.BIN__063                                                  6
 ACTION:NEW 10-04-24 13:22 OP:moh  STATUS:               ID:20100314155059 L   I
 STAT SP IPHASW D HRMM SECON CODA AMPLIT PERI AZIMU VELO AIN AR TRES W  DIS CAZ7
 BNDS BZ EPg      1551 24.43                              90    -0.110  154  31 
 BNDS BN ESg      1551 43.33                              90     0.110  154  31 
 BNDS BZ  IAML    1551 47.91       330.9 0.40                           154  31 
 GHIR BZ EPn      1551 47.72                              52     0.1 9  329 315 
 GHIR BE ESg      1552 31.30                              90    -0.1 9  329 315 
 KRBR BZ EPn      1552  1.46                              52     0.0 9  440  18 
 KRBR BZ  IAML    1552 54.58        19.4 0.44                           440  18 
                                                                                
 2010  315 2003  6.8 L  28.349  51.319 34.8  BIN  4 0.1 3.3LBIN                1
 GAP=258        0.54      13.9     8.0 10.9  0.6717E+02  0.2275E+02 -0.8040E+02E
 ACTION:UPD 10-04-24 13:22 OP:moh  STATUS:               ID:20100315200308 L   I
 2010-03-15-2003-00S.BIN__069                                                  6
 STAT SP IPHASW D HRMM SECON CODA AMPLIT PERI AZIMU VELO AIN AR TRES W  DIS CAZ7
 GHIR BZ EPg      20 3 33.59                              98    -0.110  164  92 
 GHIR BE ESg      20 3 53.30                              98     0.110  164  92 
 GHIR BZ  IAML    20 3 54.75       963.0 0.52                           164  92 
 NASN BZ EPn      20 4 16.51                              54    -0.2 8  514  16 
 NASN BZ  IAML    20 5  6.88        12.9 0.48                           514  16 
 KRBR BZ EPn      20 4 22.39                              54     0.0 8  559  70 
 KRBR BZ  IAML    20 5 21.46        27.2 0.36                           559  70 
 ASAO BZ EPn      20 4 39.85                              54     0.3 7  698 350 
 ASAO BZ  IAML    20 5 53.53         5.8 0.56                           698 350 
                                                                                
 2010  316 1839 15.6 L  27.977  53.296 14.1  BIN  3 0.3 3.1LBIN                1
 GAP=216        0.80      12.4     8.2  8.3  0.9651E+02 -0.3490E+01  0.7980E+01E
 ACTION:UPD 10-04-24 13:22 OP:moh  STATUS:               ID:20100316183915 L   I
 2010-03-19-1839-00S.BIN__069                                                  6
 STAT SP IPHASW D HRMM SECON CODA AMPLIT PERI AZIMU VELO AIN AR TRES W  DIS CAZ7
 GHIR BZ EPg      1839 24.01                              91     0.010 45.7 318 
 GHIR BE ESg      1839 30.03                              91    -0.210 45.7 318 
 GHIR BZ  IAML    1839 41.83      1004.9 0.58                          45.7 318 
 BNDS BZ EPn      1839 59.74                              52     0.210  291 102 
 BNDS BE ESg      1840 37.17                              90    -0.310  291 102 
 BNDS BZ  IAML    1840 53.27        84.1 0.59                           291 102 
 KRBR BZ EPn      1840 14.16                              52     0.4 9  404  56 
 KRBR BZ  IAML    1841  1.87        44.6 0.43                           404  56 
                                                                                
